{"type":"FeatureCollection","features":[{"type":"Feature","properties":{"code":"AW-X01~","name":"Aruba","name_ko":"아루바","name_en":"Aruba","name_ja":"アルバ","name_zh":"阿鲁巴","name_es":"Aruba","name_fr":"Aruba","name_de":"Aruba","name_ru":"Аруба","name_pt":"Aruba","name_vi":"Aruba"},"geometry":{"type":"Polygon","coordinates":[[[-69.9969,12.5776],[-69.9247,12.5192],[-69.9158,12.497],[-69.8802,12.4536],[-69.8768,12.4274],[-69.8881,12.4177],[-69.9305,12.426],[-69.9451,12.4404],[-69.9247,12.4404],[-69.9247,12.4472],[-69.9586,12.4632],[-70.0277,12.5229],[-70.0581,12.5372],[-70.0604,12.557],[-70.0487,12.5837],[-70.0611,12.6254],[-70.0487,12.6321],[-69.9969,12.5776]]]}}]}