{"type":"FeatureCollection","features":[{"type":"Feature","properties":{"name":"East End","name_ko":"이스트 엔드","code":"AI-X02~"},"geometry":{"type":"MultiPolygon","coordinates":[[[[-63.0135,18.272],[-63,18.2673],[-62.9945,18.2749],[-62.9726,18.2759],[-62.9948,18.2345],[-62.9944,18.2438],[-63.002,18.2438],[-62.9952,18.2562],[-63.0135,18.261],[-63.0135,18.272]]],[[[-62.9582,18.2894],[-62.9477,18.2973],[-62.9257,18.2897],[-62.9567,18.2744],[-62.9582,18.2894]]]]}},{"type":"Feature","properties":{"name":"Stoney Ground","name_ko":"스토니 그라운드","code":"AI-X10~"},"geometry":{"type":"Polygon","coordinates":[[[-63.0229,18.2704],[-63.0135,18.272],[-63.0135,18.261],[-62.9952,18.2562],[-63.0231,18.251],[-63.0293,18.2352],[-63.0441,18.2323],[-63.0481,18.2354],[-63.039,18.2526],[-63.0259,18.253],[-63.0229,18.2704]]]}},{"type":"Feature","properties":{"name":"North Side","name_ko":"노스 사이드","code":"AI-X06~"},"geometry":{"type":"Polygon","coordinates":[[[-63.0612,18.2458],[-63.0382,18.2677],[-63.0229,18.2704],[-63.0259,18.253],[-63.039,18.2526],[-63.0481,18.2354],[-63.0612,18.2458]]]}},{"type":"Feature","properties":{"name":"The Valley","name_ko":"더 밸리","code":"AI-X13~"},"geometry":{"type":"Polygon","coordinates":[[[-63.0727,18.2313],[-63.0612,18.2458],[-63.0441,18.2323],[-63.047,18.2267],[-63.0727,18.2313]]]}},{"type":"Feature","properties":{"name":"North Hill","name_ko":"노스 힐","code":"AI-X05~"},"geometry":{"type":"Polygon","coordinates":[[[-63.0779,18.226],[-63.0727,18.2313],[-63.047,18.2267],[-63.0758,18.2163],[-63.0779,18.226]]]}},{"type":"Feature","properties":{"name":"Sandy Ground","name_ko":"샌디 그라운드","code":"AI-X07~"},"geometry":{"type":"Polygon","coordinates":[[[-63.0972,18.2125],[-63.0779,18.226],[-63.0758,18.2163],[-63.0972,18.2125]]]}},{"type":"Feature","properties":{"name":"South Hill","name_ko":"사우스 힐","code":"AI-X09~"},"geometry":{"type":"Polygon","coordinates":[[[-63.1228,18.2081],[-63.0613,18.2192],[-63.0876,18.2016],[-63.1139,18.1969],[-63.1226,18.1836],[-63.1228,18.2081]]]}},{"type":"Feature","properties":{"name":"West End","name_ko":"웨스트 엔드","code":"AI-X14~"},"geometry":{"type":"Polygon","coordinates":[[[-63.1226,18.1836],[-63.1505,18.1691],[-63.1678,18.1693],[-63.1421,18.1981],[-63.1228,18.2081],[-63.1226,18.1836]]]}},{"type":"Feature","properties":{"name":"Blowing Point","name_ko":"블로잉 포인트","code":"AI-X01~"},"geometry":{"type":"Polygon","coordinates":[[[-63.0614,18.1989],[-63.0995,18.1762],[-63.1138,18.1898],[-63.1139,18.1969],[-63.0876,18.2016],[-63.0726,18.2121],[-63.0721,18.2028],[-63.0613,18.2125],[-63.0614,18.1989]]]}},{"type":"Feature","properties":{"name":"The Farrington","name_ko":"더 패링턴","code":"AI-X11~"},"geometry":{"type":"Polygon","coordinates":[[[-63.0304,18.215],[-63.0614,18.1989],[-63.0613,18.2192],[-63.047,18.2267],[-63.0342,18.2279],[-63.0304,18.215]]]}},{"type":"Feature","properties":{"name":"Sandy Hill Bay","name_ko":"샌디 힐","code":"AI-X08~"},"geometry":{"type":"Polygon","coordinates":[[[-62.9948,18.2345],[-63.0115,18.2204],[-63.0304,18.215],[-63.0342,18.2279],[-63.0231,18.251],[-62.9952,18.2562],[-63.002,18.2438],[-62.9944,18.2438],[-62.9948,18.2345]]]}},{"type":"Feature","properties":{"name":"Island Harbour","name_ko":"아일랜드 하버","code":"AI-X04~"},"geometry":{"type":"Polygon","coordinates":[[[-63.0074,18.273],[-62.9945,18.2749],[-63,18.2673],[-63.0075,18.2673],[-63.0074,18.273]]]}},{"type":"Feature","properties":{"name":null,"name_ko":null,"code":"AI-X00"},"geometry":{"type":"MultiPolygon","coordinates":[[[[-63.252,18.273],[-63.2626,18.282],[-63.2536,18.2868],[-63.236,18.283],[-63.252,18.273]]],[[[-63.1845,18.268],[-63.1795,18.2665],[-63.1922,18.2688],[-63.1845,18.268]]]]}},{"type":"Feature","properties":{"name":"George Hill","name_ko":"조지 힐","code":"AI-X03~"},"geometry":{"type":"Polygon","coordinates":[[[-63.0726,18.2121],[-63.0613,18.2192],[-63.0721,18.2028],[-63.0726,18.2121]]]}},{"type":"Feature","properties":{"name":"The Quarter","name_ko":"더 콰터","code":"AI-X12~"},"geometry":{"type":"Polygon","coordinates":[[[-63.0342,18.2279],[-63.047,18.2267],[-63.0428,18.2349],[-63.0293,18.2352],[-63.0342,18.2279]]]}}]}