{"type":"FeatureCollection","features":[{"type":"Feature","properties":{"id":"ALD-4819","code":"AX-X11~","name":"Lumparland","name_ko":"룸파랜드","name_en":"Lumparland","name_ja":"ルンパルランド","name_zh":"伦帕尔兰","name_es":"Lumparland","name_fr":"Lumparland","name_de":"Lumparland","name_ru":"Лумпарланд","name_pt":"Lumparland","name_vi":"Lumparland"},"geometry":{"type":"Polygon","coordinates":[[[20.2776,60.1422],[20.2976,60.1215],[20.2689,60.086],[20.2776,60.0665],[20.2663,60.0605],[20.2019,60.0876],[20.1983,60.1041],[20.2224,60.1496],[20.2581,60.108],[20.2639,60.1182],[20.2533,60.1386],[20.2557,60.1454],[20.2776,60.1422]]]}},{"type":"Feature","properties":{"id":"ALD-4812","code":"AX-X04~","name":"Eckerö","name_ko":"에케뢰","name_en":"Eckerö","name_ja":"エッケロー","name_zh":"埃克勒","name_es":"Eckerö","name_fr":"Eckerö","name_de":"Eckerö","name_ru":"Эккерё","name_pt":"Eckerö","name_vi":"Eckerö"},"geometry":{"type":"Polygon","coordinates":[[[19.6395,60.2209],[19.6709,60.1906],[19.6711,60.1581],[19.647,60.1558],[19.5916,60.1968],[19.6033,60.164],[19.5996,60.1491],[19.5848,60.1353],[19.5652,60.13],[19.5446,60.1348],[19.527,60.1486],[19.5132,60.1838],[19.5373,60.2011],[19.5371,60.2322],[19.5679,60.2551],[19.5789,60.2605],[19.6084,60.2569],[19.6345,60.2401],[19.6395,60.2209]]]}},{"type":"Feature","properties":{"id":"ALD-4820","code":"AX-X12~","name":"Vårdö","name_ko":"바르되","name_en":"Vårdö","name_ja":"ヴォールド","name_zh":"瓦尔德","name_es":"Vårdö","name_fr":"Vårdö","name_de":"Vårdö","name_ru":"Вордё","name_pt":"Vårdö","name_vi":"Vårdö"},"geometry":{"type":"Polygon","coordinates":[[[20.4279,60.2657],[20.439,60.2582],[20.4414,60.2452],[20.3929,60.1968],[20.3809,60.1989],[20.3877,60.2219],[20.3827,60.2407],[20.353,60.2288],[20.3454,60.2377],[20.347,60.2529],[20.3589,60.2657],[20.3796,60.2697],[20.411,60.2595],[20.4279,60.2657]]]}},{"type":"Feature","properties":{"id":"ALD-4822","code":"AX-X14~","name":"Kumlinge","name_ko":"쿰링게","name_en":"Kumlinge","name_ja":"クムリンゲ","name_zh":"库姆林格","name_es":"Kumlinge","name_fr":"Kumlinge","name_de":"Kumlinge","name_ru":"Кумлинге","name_pt":"Kumlinge","name_vi":"Kumlinge"},"geometry":{"type":"MultiPolygon","coordinates":[[[[20.8189,60.2322],[20.7905,60.2387],[20.7811,60.2637],[20.7873,60.2863],[20.8052,60.2862],[20.853,60.2657],[20.8506,60.2536],[20.8389,60.2468],[20.8114,60.2452],[20.8189,60.2322]]],[[[20.6838,60.2294],[20.7163,60.2093],[20.7077,60.1997],[20.6868,60.1946],[20.6707,60.1992],[20.6634,60.2164],[20.6685,60.2267],[20.6838,60.2294]]],[[[20.7774,60.3265],[20.7327,60.3144],[20.7327,60.3328],[20.7572,60.3661],[20.7874,60.362],[20.7894,60.3427],[20.7774,60.3265]]]]}},{"type":"Feature","properties":{"id":"ALD-4810","code":"AX-X02~","name":"Jomala","name_ko":"조말라","name_en":"Jomala","name_ja":"ヨマラ","name_zh":"约马拉","name_es":"Jomala","name_fr":"Jomala","name_de":"Jomala","name_ru":"Йомала","name_pt":"Jomala","name_vi":"Jomala"},"geometry":{"type":"Polygon","coordinates":[[[19.9103,60.1011],[19.8866,60.1012],[19.8733,60.0964],[19.8683,60.0855],[19.8451,60.0787],[19.8317,60.0795],[19.8233,60.0843],[19.8245,60.0944],[19.807,60.0998],[19.7889,60.0963],[19.763,60.0739],[19.7476,60.1014],[19.8117,60.1245],[19.8102,60.149],[19.8331,60.1505],[19.827,60.1704],[19.8469,60.1781],[19.9436,60.1862],[19.9873,60.173],[20.01,60.1558],[20.0442,60.1763],[20.0301,60.129],[20.0305,60.1148],[20.0505,60.0978],[20.0448,60.0875],[20.0064,60.0944],[19.966,60.0911],[19.9371,60.1108],[19.9103,60.1011]]]}},{"type":"Feature","properties":{"id":"ALD-4817","code":"AX-X09~","name":"Mariehamn","name_ko":"마리에함","name_en":"Mariehamn","name_ja":"マリエハムン","name_zh":"玛丽港","name_es":"Mariehamn","name_fr":"Mariehamn","name_de":"Mariehamn","name_ru":"Мариеха́мн","name_pt":"Mariehamn","name_vi":"Mariehamn"},"geometry":{"type":"Polygon","coordinates":[[[19.966,60.0911],[19.949,60.0839],[19.9582,60.0538],[19.9485,60.0477],[19.9378,60.0504],[19.9412,60.0602],[19.924,60.0915],[19.9103,60.1011],[19.9371,60.1108],[19.966,60.0911]]]}},{"type":"Feature","properties":{"id":"ALD-4824","code":"AX-X16~","name":"Kökar","name_ko":"쾨카르","name_en":"Kökar","name_ja":"コーカル","name_zh":"雪卡尔","name_es":"Kökar","name_fr":"Kökar","name_de":"Kökar","name_ru":"Чёкар","name_pt":"Kökar","name_vi":"Kökar"},"geometry":{"type":"MultiPolygon","coordinates":[[[[20.8753,59.9141],[20.8621,59.9282],[20.8709,59.9368],[20.8975,59.9401],[20.9202,59.9092],[20.9124,59.9045],[20.8753,59.9141]]],[[[20.9836,59.9428],[20.9692,59.9421],[20.9912,59.9267],[20.9828,59.9215],[20.9321,59.9359],[20.9133,59.9484],[20.9347,59.958],[20.9959,59.9499],[20.9966,59.945],[20.9836,59.9428]]]]}},{"type":"Feature","properties":{"id":"ALD-4814","code":"AX-X06~","name":"Föglö","name_ko":"포글로","name_en":"Föglö","name_ja":"フォーグロー","name_zh":"弗格勒","name_es":"Föglö","name_fr":"Föglö","name_de":"Föglö","name_ru":"Фёглё","name_pt":"Föglö","name_vi":"Föglö"},"geometry":{"type":"MultiPolygon","coordinates":[[[[20.6101,60.045],[20.6179,60.0422],[20.6009,60.0392],[20.6082,60.036],[20.6063,60.0227],[20.5872,60.0081],[20.5775,60.0067],[20.5505,60.0189],[20.527,60.0051],[20.5008,60.0127],[20.5055,60.0242],[20.5449,60.0561],[20.5829,60.0591],[20.5879,60.0519],[20.605,60.0521],[20.6101,60.045]]],[[[20.4241,60.0552],[20.4626,60.0668],[20.451,60.0401],[20.4321,60.0251],[20.4024,60.0213],[20.3901,60.0282],[20.4241,60.0552]]],[[[20.5212,60.048],[20.5003,60.0364],[20.4714,60.0413],[20.4697,60.0574],[20.5254,60.0655],[20.5164,60.067],[20.5334,60.0736],[20.5418,60.071],[20.5212,60.048]]],[[[20.2813,59.9766],[20.3019,59.999],[20.3394,60.0201],[20.4367,60.005],[20.4471,59.9952],[20.3986,59.9813],[20.3248,59.9772],[20.3224,59.9627],[20.3066,59.9536],[20.2837,59.9585],[20.2813,59.9766]]]]}},{"type":"Feature","properties":{"id":"ALD-4821","code":"AX-X13~","name":"Sottunga","name_ko":"소퉁가","name_en":"Sottunga","name_ja":"ソットゥンガ","name_zh":"索通阿","name_es":"Sottunga","name_fr":"Sottunga","name_de":"Sottunga","name_ru":"Соттунга","name_pt":"Sottunga","name_vi":"Sottunga"},"geometry":{"type":"Polygon","coordinates":[[[20.6834,60.1305],[20.6882,60.117],[20.6716,60.1092],[20.6387,60.1313],[20.6355,60.1439],[20.6599,60.1497],[20.6834,60.1305]]]}},{"type":"Feature","properties":{"id":"ALD-4818","code":"AX-X10~","name":"Lemland","name_ko":"렘랜드","name_en":"Lemland","name_ja":"レムランド","name_zh":"莱姆兰","name_es":"Lemland","name_fr":"Lemland","name_de":"Lemland","name_ru":"Лемланд","name_pt":"Lemland","name_vi":"Lemland"},"geometry":{"type":"Polygon","coordinates":[[[20.0337,60.0636],[20.0682,60.0727],[20.1013,60.095],[20.13,60.0869],[20.1633,60.0878],[20.1932,60.0656],[20.2252,60.0055],[20.2118,59.9912],[20.1751,59.9714],[20.184,59.9929],[20.1715,59.9988],[20.1232,59.9889],[20.1053,59.9965],[20.1213,60.0166],[20.1043,60.0282],[20.0783,60.0282],[20.0585,60.0394],[20.0253,60.0425],[20.0337,60.0636]]]}},{"type":"Feature","properties":{"id":"ALD-4823","code":"AX-X15~","name":"Brändö","name_ko":"브렌도","name_en":"Brändö","name_ja":"ブレンド","name_zh":"布兰多","name_es":"Brändö","name_fr":"Brändö","name_de":"Brändö","name_ru":"Брандё","name_pt":"Brändö","name_vi":"Brändö"},"geometry":{"type":"Polygon","coordinates":[[[21.0886,60.4801],[21.0967,60.4634],[21.0882,60.4522],[21.0784,60.449],[21.065,60.4548],[21.0593,60.4667],[21.0643,60.4744],[21.0886,60.4801]]]}}]}