{"type":"FeatureCollection","features":[{"type":"Feature","properties":{"name":"Ordino","name_ko":"오르디노","code":"AD-05"},"geometry":{"type":"Polygon","coordinates":[[[1.5431,42.6494],[1.5973,42.6219],[1.5987,42.5976],[1.5645,42.5842],[1.5556,42.5627],[1.5013,42.5708],[1.4812,42.5954],[1.4514,42.6021],[1.4668,42.6415],[1.4984,42.6402],[1.5431,42.6494]]]}},{"type":"Feature","properties":{"name":"Canillo","name_ko":"카닐료","code":"AD-02"},"geometry":{"type":"Polygon","coordinates":[[[1.5973,42.6219],[1.722,42.6099],[1.7133,42.5895],[1.7527,42.5767],[1.7651,42.5634],[1.74,42.5616],[1.7171,42.5399],[1.6902,42.553],[1.6828,42.5746],[1.5556,42.5627],[1.5645,42.5842],[1.5987,42.5976],[1.5973,42.6219]]]}},{"type":"Feature","properties":{"name":"Encamp","name_ko":"엥캄","code":"AD-03"},"geometry":{"type":"Polygon","coordinates":[[[1.7171,42.5399],[1.707,42.5028],[1.6975,42.4945],[1.6742,42.4905],[1.657,42.4976],[1.6538,42.5099],[1.6411,42.518],[1.5928,42.5218],[1.5794,42.527],[1.5764,42.5359],[1.5564,42.5381],[1.5556,42.5627],[1.6828,42.5746],[1.6902,42.553],[1.7171,42.5399]]]}},{"type":"Feature","properties":{"name":"La Massana","name_ko":"라마사나","code":"AD-04"},"geometry":{"type":"Polygon","coordinates":[[[1.4293,42.5954],[1.4514,42.6021],[1.4812,42.5954],[1.5013,42.5708],[1.5556,42.5627],[1.5564,42.5381],[1.5177,42.5322],[1.45,42.5041],[1.4466,42.5199],[1.429,42.5315],[1.4065,42.5292],[1.4263,42.5618],[1.418,42.5698],[1.4293,42.5954]]]}},{"type":"Feature","properties":{"name":"Sant Julià de Lòria","name_ko":"산줄리아데로리아","code":"AD-06"},"geometry":{"type":"Polygon","coordinates":[[[1.5085,42.4287],[1.4479,42.4346],[1.4364,42.441],[1.4364,42.4535],[1.4076,42.4868],[1.4872,42.518],[1.4991,42.489],[1.5296,42.4823],[1.5749,42.4846],[1.5682,42.4756],[1.5727,42.4531],[1.5444,42.4504],[1.5282,42.4342],[1.5085,42.4287]]]}},{"type":"Feature","properties":{"name":"Escaldes-Engordany","name_ko":"에스칼데스엥고르다뉴","code":"AD-08"},"geometry":{"type":"Polygon","coordinates":[[[1.657,42.4976],[1.6395,42.4664],[1.5727,42.4531],[1.5682,42.4756],[1.5749,42.4846],[1.5296,42.4823],[1.4991,42.489],[1.5192,42.498],[1.5564,42.5381],[1.569,42.5389],[1.5928,42.5218],[1.6411,42.518],[1.6538,42.5099],[1.657,42.4976]]]}},{"type":"Feature","properties":{"name":"Andorra la Vella","name_ko":"안도라 라 벨라","code":"AD-07"},"geometry":{"type":"Polygon","coordinates":[[[1.5564,42.5381],[1.5192,42.498],[1.4991,42.489],[1.4931,42.4935],[1.4872,42.518],[1.5177,42.5322],[1.5564,42.5381]]]}}]}