{"type":"FeatureCollection","features":[{"type":"Feature","properties":{"id":"ASM-5002","code":"AS-X05~","name":"Western","name_ko":"웨스턴","name_en":"Western District","name_ja":"ウェスタン","name_zh":"西部","name_es":"Occidente","name_fr":"Ouest","name_de":"Western","name_ru":"Уэстерн","name_pt":"Ocidental","name_vi":"Western"},"geometry":{"type":"Polygon","coordinates":[[[-170.6926,-14.3148],[-170.7218,-14.3534],[-170.7486,-14.3747],[-170.8312,-14.3194],[-170.7886,-14.2945],[-170.7215,-14.2892],[-170.7139,-14.3144],[-170.6926,-14.3148]]]}},{"type":"Feature","properties":{"id":"ASM-4998","code":"AS-X01~","name":"Eastern","name_ko":"이스턴","name_en":"Eastern District","name_ja":"イースタン","name_zh":"东区","name_es":"Oriental","name_fr":"Este","name_de":"Ost-Tutuila","name_pt":"Leste","name_vi":"Eastern"},"geometry":{"type":"Polygon","coordinates":[[[-170.7215,-14.2892],[-170.6985,-14.2605],[-170.6614,-14.2524],[-170.6201,-14.2546],[-170.591,-14.2648],[-170.5762,-14.2525],[-170.5672,-14.2586],[-170.5685,-14.2709],[-170.5842,-14.2778],[-170.6593,-14.2853],[-170.6926,-14.3148],[-170.7139,-14.3144],[-170.7215,-14.2892]]]}},{"type":"Feature","properties":{"id":"ASM-4999","code":"AS-X02~","name":"Manu's","name_ko":"마누스","name_en":"Manu'a Islands","name_ja":"マヌーズ","name_zh":"马努斯岛","name_es":"Manu's","name_fr":"Manus","name_de":"Manus","name_pt":"Manus","name_vi":"Manu'a"},"geometry":{"type":"MultiPolygon","coordinates":[[[[-169.4639,-14.2232],[-169.444,-14.2306],[-169.4401,-14.2453],[-169.4471,-14.2556],[-169.4602,-14.2504],[-169.4762,-14.2624],[-169.4949,-14.2573],[-169.5043,-14.2706],[-169.5228,-14.2709],[-169.5293,-14.2488],[-169.5427,-14.2367],[-169.5275,-14.226],[-169.5065,-14.2223],[-169.4639,-14.2232]]],[[[-169.6762,-14.1749],[-169.6582,-14.1689],[-169.6356,-14.177],[-169.6601,-14.1891],[-169.6697,-14.1879],[-169.6762,-14.1749]]]]}},{"type":"Feature","properties":{"id":"ASM-5000","code":"AS-X03~","name":"Rose Atoll","name_ko":"로즈 애톨","name_en":"Rose Atoll","name_ja":"ローズ・アトール","name_zh":"罗斯环礁","name_es":"Rose Atoll","name_fr":"Île Rose","name_de":"Rose-Atoll","name_ru":"атолл Розе","name_pt":"Atol Rose","name_vi":"Đảo san hô Rose"},"geometry":{"type":"Polygon","coordinates":[[[-168.1616,-14.5329],[-168.1731,-14.5237],[-168.1605,-14.5209],[-168.1616,-14.5329]]]}},{"type":"Feature","properties":{"id":"ASM-5001","code":"AS-X04~","name":"Swain's Island","name_ko":"스웨인스 아일랜드","name_en":"Swains Island","name_ja":"スウェインズ島","name_zh":"斯温岛","name_es":"Islas Swain","name_fr":"Île Swains","name_de":"Swains Island","name_ru":"острова Свайнс","name_pt":"Ilha Swains","name_vi":"Đảo Swains"},"geometry":{"type":"Polygon","coordinates":[[[-171.0728,-11.0525],[-171.0735,-11.0621],[-171.0815,-11.0661],[-171.0856,-11.0514],[-171.0728,-11.0525]]]}}]}