{"type":"FeatureCollection","features":[{"type":"Feature","properties":{"id":"ATC+00?","code":"AU-X04~","name":"Ashmore and Cartier Islands","name_ko":"애쉬모어 앤 까르띠에 아일랜즈","name_en":"Ashmore and Cartier Islands","name_ja":"アシュモア・カルティエ諸島","name_zh":"阿什莫尔和卡地亚群岛","name_es":"Islas Ashmore y Cartier","name_fr":"Îles Ashmore-et-Cartier","name_de":"Ashmore- und Cartierinseln","name_ru":"острова Ашмор и Картье","name_pt":"Ilhas Ashmore e Cartier","name_vi":"Quần đảo Ashmore và Cartier"},"geometry":{"type":"Polygon","coordinates":[[[123.597,-12.4283],[123.5977,-12.4386],[123.5756,-12.4368],[123.575,-12.4266],[123.597,-12.4283]]]}}]}