{"type":"FeatureCollection","features":[{"type":"Feature","properties":{"code":"AG-06","name":"Saint Paul","name_ko":"세인트폴구","name_en":"Saint Paul","name_ja":"セント・ポール教区","name_zh":"圣保罗区","name_es":"Parroquia de Saint Paul","name_fr":"Saint-Paul","name_de":"Saint Paul","name_ru":"Приход Сент-Пол","name_pt":"Saint Paul","name_vi":"Giáo xứ Saint Paul"},"geometry":{"type":"Polygon","coordinates":[[[-61.7262,17.0385],[-61.734,17.0349],[-61.7296,17.0012],[-61.7371,16.9892],[-61.7768,17.0185],[-61.8041,17.0073],[-61.815,17.048],[-61.7844,17.0622],[-61.7334,17.0643],[-61.7262,17.0385]]]}},{"type":"Feature","properties":{"code":"AG-08","name":"Saint Philip","name_ko":"세인트필립구","name_en":"Saint Philip","name_ja":"サンフィリップ教区","name_zh":"圣菲利普区","name_es":"Parroquia de Saint Philip","name_fr":"Saint-Philip","name_de":"Saint Philip","name_ru":"Приход Сент-Филип","name_pt":"Saint Philip","name_vi":"Giáo xứ Saint Philip"},"geometry":{"type":"Polygon","coordinates":[[[-61.7148,17.0931],[-61.6807,17.1005],[-61.6721,17.0906],[-61.6676,17.0794],[-61.6949,17.0794],[-61.6722,17.0576],[-61.6857,17.0286],[-61.7262,17.0385],[-61.7334,17.0643],[-61.7283,17.0837],[-61.7148,17.0931]]]}},{"type":"Feature","properties":{"code":"AG-07","name":"Saint Peter","name_ko":"세인트피터구","name_en":"Saint Peter","name_ja":"セント・ピーター教区","name_zh":"圣彼得区","name_es":"Parroquia de Saint Peter","name_fr":"Saint-Peter","name_de":"Saint Peter","name_ru":"Приход Сент-Питер","name_pt":"Saint Peter","name_vi":"Giáo xứ Saint Peter"},"geometry":{"type":"Polygon","coordinates":[[[-61.7564,17.1142],[-61.7433,17.1415],[-61.7298,17.128],[-61.7086,17.1278],[-61.7296,17.1142],[-61.7251,17.0998],[-61.7148,17.0931],[-61.7283,17.0837],[-61.7334,17.0643],[-61.7742,17.0602],[-61.7671,17.0857],[-61.7558,17.0898],[-61.762,17.1082],[-61.7564,17.1142]]]}},{"type":"Feature","properties":{"code":"AG-03","name":"Saint George","name_ko":"세인트조지구","name_en":"Saint George","name_ja":"セント・ジョージ教区","name_zh":"圣乔治区","name_es":"Parroquia de Saint George","name_fr":"Saint-George","name_de":"Saint George","name_ru":"Приход Сент-Джордж","name_pt":"Saint George","name_vi":"Giáo xứ Saint George"},"geometry":{"type":"Polygon","coordinates":[[[-61.7934,17.1649],[-61.773,17.1265],[-61.7564,17.1142],[-61.762,17.1082],[-61.7558,17.0898],[-61.7671,17.0857],[-61.7742,17.0714],[-61.7956,17.0837],[-61.7967,17.1163],[-61.8048,17.1235],[-61.8058,17.1439],[-61.7916,17.1449],[-61.7934,17.1649]]]}},{"type":"Feature","properties":{"code":"AG-04","name":"Saint John","name_ko":"세인트존구","name_en":"Saint John","name_ja":"セント・ジョン教区","name_zh":"圣约翰区","name_es":"Parroquia de Saint John","name_fr":"Saint-John","name_de":"Saint John","name_ru":"Сент-Джон","name_pt":"Saint John","name_vi":"Saint John"},"geometry":{"type":"Polygon","coordinates":[[[-61.8662,17.0869],[-61.8942,17.1005],[-61.8831,17.1105],[-61.8424,17.1244],[-61.8505,17.1376],[-61.8397,17.1599],[-61.8253,17.1688],[-61.7934,17.1649],[-61.7916,17.1449],[-61.8058,17.1439],[-61.8048,17.1235],[-61.7967,17.1163],[-61.7956,17.0837],[-61.7742,17.0714],[-61.7742,17.0602],[-61.8069,17.0561],[-61.815,17.048],[-61.8201,17.0592],[-61.8354,17.0429],[-61.8273,17.0827],[-61.8538,17.0949],[-61.8662,17.0869]]]}},{"type":"Feature","properties":{"code":"AG-05","name":"Saint Mary","name_ko":"세인트메리구","name_en":"Saint Mary","name_ja":"セント・メアリー教区","name_zh":"圣玛丽区","name_es":"Parroquia de Saint Mary","name_fr":"Saint-Mary","name_de":"Saint Mary","name_ru":"Приход Сент-Мэри","name_pt":"Saint Mary","name_vi":"Giáo xứ Saint Mary"},"geometry":{"type":"Polygon","coordinates":[[[-61.8041,17.0073],[-61.8517,17.0076],[-61.8837,17.0263],[-61.8904,17.0354],[-61.8792,17.0605],[-61.8824,17.0788],[-61.8538,17.0949],[-61.8273,17.0827],[-61.8354,17.0429],[-61.8201,17.0592],[-61.8079,17.0347],[-61.8109,17.0235],[-61.8041,17.0073]]]}},{"type":"Feature","properties":{"code":"AG-10","name":"Barbuda","name_ko":"바부다섬","name_en":"Barbuda","name_ja":"バーブーダ島","name_zh":"巴布达岛","name_es":"Barbuda","name_fr":"Barbuda","name_de":"Barbuda","name_ru":"Барбуда","name_pt":"Barbuda","name_vi":"Barbuda"},"geometry":{"type":"Polygon","coordinates":[[[-61.8389,17.5933],[-61.8518,17.5866],[-61.8573,17.601],[-61.8594,17.6418],[-61.8738,17.6911],[-61.873,17.7106],[-61.8389,17.6554],[-61.8432,17.6202],[-61.8315,17.6138],[-61.825,17.6579],[-61.8312,17.6805],[-61.8564,17.7011],[-61.8517,17.7203],[-61.8378,17.7277],[-61.8179,17.7032],[-61.8315,17.6964],[-61.8182,17.6918],[-61.7973,17.6988],[-61.7843,17.6964],[-61.7543,17.6688],[-61.7359,17.6349],[-61.7278,17.5884],[-61.7364,17.554],[-61.7707,17.5456],[-61.777,17.5634],[-61.7947,17.5761],[-61.8389,17.5933]]]}}]}