{"type":"FeatureCollection","features":[{"type":"Feature","properties":{"id":"BHR-4929","code":"BH-13","name":"Al Manāmah","name_ko":"수도","name_en":"Capital","name_ja":"首都県","name_zh":"首都省","name_es":"Capital","name_fr":"de la capitale","name_de":"Hauptstadt-Gouvernement","name_ru":"Столичная мухафаза","name_pt":"da Capital","name_vi":"Al Manāmah"},"geometry":{"type":"Polygon","coordinates":[[[50.5039,26.242],[50.5454,26.2277],[50.5867,26.2425],[50.6091,26.2083],[50.6035,26.1977],[50.5941,26.1953],[50.5656,26.1989],[50.5516,26.1942],[50.5351,26.2135],[50.502,26.2161],[50.5039,26.242]]]}},{"type":"Feature","properties":{"id":"BHR-4927","code":"BH-17","name":"Ash Shamālīyah","name_ko":"북부","name_en":"Northern","name_ja":"北部県","name_zh":"北方省","name_es":"Norte","name_fr":"septentrional","name_de":"Nördliches Gouvernement","name_ru":"Северная мухафаза","name_pt":"Norte","name_vi":"Ash Shamālīyah"},"geometry":{"type":"MultiPolygon","coordinates":[[[[50.4909,26.048],[50.4852,26.0856],[50.4489,26.1616],[50.4612,26.2252],[50.4685,26.2369],[50.4815,26.2426],[50.5039,26.242],[50.502,26.2161],[50.5351,26.2135],[50.5516,26.1942],[50.5218,26.1884],[50.51,26.1778],[50.539,26.0562],[50.5152,26.047],[50.4909,26.048]]],[[[50.3977,26.1747],[50.4192,26.1661],[50.4235,26.12],[50.3859,26.1232],[50.3827,26.1597],[50.3977,26.1747]]]]}},{"type":"Feature","properties":{"id":"BHR-4926","code":"BH-14","name":"Al Janūbīyah","name_ko":"남부","name_en":"Southern","name_ja":"南部県","name_zh":"南方省","name_es":"Sur","name_fr":"méridional","name_de":"Südliches Gouvernement","name_ru":"Южная мухафаза","name_pt":"Sul","name_vi":"Al Janūbīyah"},"geometry":{"type":"MultiPolygon","coordinates":[[[[50.6163,26.0959],[50.6184,25.9647],[50.6035,25.8546],[50.5653,25.7895],[50.5472,25.8529],[50.5314,25.8852],[50.4678,25.9576],[50.4605,25.9853],[50.4909,26.048],[50.5152,26.047],[50.539,26.0562],[50.5245,26.1289],[50.5694,26.1157],[50.5813,26.1223],[50.6163,26.0959]]],[[[50.7743,25.7216],[50.8009,25.7311],[50.7984,25.716],[50.7832,25.697],[50.7958,25.6849],[50.792,25.6799],[50.78,25.6824],[50.7623,25.6679],[50.7762,25.6387],[50.7655,25.6299],[50.7642,25.6217],[50.7743,25.6122],[50.7566,25.5799],[50.7376,25.5957],[50.749,25.621],[50.7484,25.6444],[50.7395,25.6533],[50.7414,25.6742],[50.7452,25.6875],[50.7743,25.7216]]],[[[50.7756,25.7527],[50.7901,25.7552],[50.7914,25.7489],[50.7806,25.7451],[50.7756,25.7527]]],[[[50.8047,25.6792],[50.8199,25.6786],[50.8167,25.6691],[50.8085,25.6641],[50.8047,25.6792]]],[[[50.7933,25.652],[50.8167,25.6444],[50.8116,25.6318],[50.7908,25.6305],[50.7851,25.6482],[50.7933,25.652]]]]}},{"type":"Feature","properties":{"id":"BHR-4928","code":"BH-16","name":"Al Wusţá","name_ko":"중부","name_en":"Central","name_ja":"中部県","name_zh":"中央省","name_es":"Central","name_fr":"central","name_de":"Al Wusţá","name_ru":"Центральное губернаторство","name_pt":"Central","name_vi":"Al Wusţá"},"geometry":{"type":"Polygon","coordinates":[[[50.5516,26.1942],[50.5947,26.1603],[50.6199,26.1855],[50.6328,26.1468],[50.6457,26.1458],[50.6355,26.1344],[50.6349,26.1157],[50.6148,26.1112],[50.6163,26.0959],[50.5813,26.1223],[50.5694,26.1157],[50.5245,26.1289],[50.51,26.1778],[50.5218,26.1884],[50.5516,26.1942]]]}},{"type":"Feature","properties":{"id":"BHR-4930","code":"BH-15","name":"Al Muḩarraq","name_ko":"무하라크","name_en":"Muharraq","name_ja":"ムハッラク県","name_zh":"穆哈拉格省","name_es":"Muharraq","name_fr":"de Muharraq","name_de":"Gouvernement Muharraq","name_ru":"Мухаррак","name_pt":"Muharraq","name_vi":"Tỉnh Muharraq"},"geometry":{"type":"Polygon","coordinates":[[[50.6017,26.2789],[50.6328,26.2874],[50.6553,26.2767],[50.6564,26.2467],[50.6714,26.2273],[50.6843,26.222],[50.6789,26.208],[50.6736,26.2026],[50.6575,26.2112],[50.6478,26.2391],[50.6124,26.2413],[50.5995,26.2628],[50.6017,26.2789]]]}}]}