{"type":"FeatureCollection","features":[{"type":"Feature","properties":{"id":"BLM-5113","code":"BL-X00~","name":"Saint Barthélemy","name_ko":"생바르텔레미","name_en":"Saint Barthélemy","name_ja":"サン・バルテルミー島","name_zh":"圣巴泰勒米","name_es":"San Bartolomé","name_fr":"Saint-Barthélemy","name_de":"Saint-Barthélemy","name_ru":"Сен-Бартелеми","name_pt":"Coletividade de São Bartolomeu","name_vi":"Saint-Barthélemy"},"geometry":{"type":"Polygon","coordinates":[[[-62.8389,17.882],[-62.8613,17.9054],[-62.8661,17.9291],[-62.7917,17.9155],[-62.8101,17.8923],[-62.8389,17.882]]]}}]}