{"type":"FeatureCollection","features":[{"type":"Feature","properties":{"name":"Hamilton","name_ko":"해밀턴","code":"BM-HAM"},"geometry":{"type":"MultiPolygon","coordinates":[[[[-64.7054,32.3361],[-64.7131,32.3426],[-64.7347,32.3277],[-64.7417,32.3331],[-64.722,32.3525],[-64.7081,32.3516],[-64.705,32.343],[-64.6949,32.3399],[-64.7054,32.3361]]],[[[-64.7139,32.3295],[-64.7054,32.3361],[-64.6984,32.3264],[-64.7073,32.3212],[-64.7139,32.3295]]],[[[-64.7427,32.3218],[-64.7312,32.3231],[-64.7397,32.317],[-64.7427,32.3218]]]]}},{"type":"Feature","properties":{"name":"Smith's Parish","name_ko":"스미스","code":"BM-SMI"},"geometry":{"type":"Polygon","coordinates":[[[-64.7312,32.3231],[-64.7139,32.3295],[-64.7073,32.3212],[-64.7379,32.3021],[-64.7482,32.3165],[-64.7312,32.3231]]]}},{"type":"Feature","properties":{"name":"Devonshire","name_ko":"데본셔","code":"BM-DEV"},"geometry":{"type":"Polygon","coordinates":[[[-64.7801,32.3034],[-64.7482,32.3165],[-64.7379,32.3021],[-64.7608,32.2862],[-64.767,32.2964],[-64.779,32.2911],[-64.7801,32.3034]]]}},{"type":"Feature","properties":{"name":"Pembroke Parish","name_ko":"펨브로크","code":"BM-PEM"},"geometry":{"type":"Polygon","coordinates":[[[-64.7945,32.2895],[-64.8054,32.2934],[-64.814,32.304],[-64.8108,32.3076],[-64.7801,32.3034],[-64.779,32.2911],[-64.7844,32.2906],[-64.7844,32.2973],[-64.7938,32.2964],[-64.7945,32.2895]]]}},{"type":"Feature","properties":{"name":"Hamilton","name_ko":"시티 오브 해밀턴","code":"BM-HA"},"geometry":{"type":"Polygon","coordinates":[[[-64.7844,32.2906],[-64.7945,32.2895],[-64.7938,32.2964],[-64.7844,32.2973],[-64.7844,32.2906]]]}},{"type":"Feature","properties":{"name":"Paget Parish","name_ko":"파젯","code":"BM-PAG"},"geometry":{"type":"MultiPolygon","coordinates":[[[[-64.7971,32.2791],[-64.767,32.2964],[-64.7608,32.2862],[-64.7883,32.2653],[-64.7971,32.2791]]],[[[-64.8077,32.2864],[-64.8,32.2833],[-64.8112,32.2822],[-64.8077,32.2864]]]]}},{"type":"Feature","properties":{"name":"Warwick","name_ko":"워윅","code":"BM-WAR"},"geometry":{"type":"MultiPolygon","coordinates":[[[[-64.8329,32.2597],[-64.829,32.2667],[-64.7971,32.2791],[-64.7883,32.2653],[-64.8152,32.2543],[-64.8207,32.2619],[-64.8329,32.2597]]],[[[-64.8112,32.2822],[-64.8298,32.2818],[-64.8325,32.2872],[-64.812,32.2899],[-64.8112,32.2822]]]]}},{"type":"Feature","properties":{"name":"Southampton","name_ko":"사우샘프턴","code":"BM-SOU"},"geometry":{"type":"Polygon","coordinates":[[[-64.8631,32.269],[-64.8577,32.2547],[-64.8207,32.2619],[-64.8152,32.2543],[-64.8608,32.2489],[-64.8802,32.2659],[-64.8631,32.269]]]}},{"type":"Feature","properties":{"name":"Sandys Parish","name_ko":"샌디스","code":"BM-SAN"},"geometry":{"type":"Polygon","coordinates":[[[-64.8802,32.2659],[-64.886,32.2826],[-64.8766,32.2789],[-64.8745,32.2957],[-64.8798,32.3054],[-64.8724,32.3031],[-64.8689,32.3089],[-64.8581,32.2977],[-64.872,32.2764],[-64.8488,32.2678],[-64.8802,32.2659]]]}},{"type":"Feature","properties":{"name":"Saint George","name_ko":"세인트 조지스","code":"BM-SGE"},"geometry":{"type":"MultiPolygon","coordinates":[[[[-64.6949,32.3399],[-64.6779,32.3345],[-64.6984,32.3264],[-64.7054,32.3361],[-64.6949,32.3399]]],[[[-64.722,32.3525],[-64.6761,32.3887],[-64.6476,32.3682],[-64.6558,32.3504],[-64.6914,32.364],[-64.7081,32.3516],[-64.722,32.3525]],[[-64.677,32.3698],[-64.6685,32.3743],[-64.6721,32.381],[-64.681,32.376],[-64.677,32.3698]]]]}},{"type":"Feature","properties":{"name":"St. George","name_ko":"시티 오브 세인트 조지","code":"BM-SG"},"geometry":{"type":"Polygon","coordinates":[[[-64.6721,32.381],[-64.6685,32.3743],[-64.677,32.3698],[-64.681,32.376],[-64.6721,32.381]]]}}]}