{"type":"FeatureCollection","features":[{"type":"Feature","properties":{"name":"Saint Joseph","name_ko":"세인트조지프구","code":"BB-06"},"geometry":{"type":"Polygon","coordinates":[[[-59.5458,13.2438],[-59.5181,13.2175],[-59.5386,13.2014],[-59.5402,13.1825],[-59.5543,13.1801],[-59.5655,13.2],[-59.581,13.2098],[-59.5675,13.2382],[-59.5458,13.2438]]]}},{"type":"Feature","properties":{"name":"Saint Andrew","name_ko":"세인트앤드루구","code":"BB-02"},"geometry":{"type":"Polygon","coordinates":[[[-59.569,13.2897],[-59.5458,13.2438],[-59.5675,13.2382],[-59.581,13.2098],[-59.5891,13.217],[-59.601,13.2164],[-59.6055,13.2758],[-59.6022,13.2832],[-59.569,13.2897]]]}},{"type":"Feature","properties":{"name":"Saint Peter","name_ko":"세인트피터구","code":"BB-09"},"geometry":{"type":"Polygon","coordinates":[[[-59.5759,13.3044],[-59.569,13.2897],[-59.6032,13.2828],[-59.606,13.2421],[-59.6277,13.2449],[-59.6508,13.2388],[-59.6529,13.2739],[-59.5759,13.3044]]]}},{"type":"Feature","properties":{"name":"Saint Lucy","name_ko":"세인트루시구","code":"BB-07"},"geometry":{"type":"Polygon","coordinates":[[[-59.6529,13.2739],[-59.6522,13.3106],[-59.6451,13.3237],[-59.6309,13.338],[-59.6129,13.3446],[-59.5945,13.3348],[-59.5759,13.3044],[-59.6529,13.2739]]]}},{"type":"Feature","properties":{"name":"Saint James","name_ko":"세인트제임스구","code":"BB-04"},"geometry":{"type":"Polygon","coordinates":[[[-59.6406,13.1416],[-59.6508,13.2388],[-59.6277,13.2449],[-59.606,13.2421],[-59.601,13.2164],[-59.6171,13.2043],[-59.6253,13.1834],[-59.6169,13.1749],[-59.6111,13.1503],[-59.6314,13.1364],[-59.6406,13.1416]]]}},{"type":"Feature","properties":{"name":"Saint Michael","name_ko":"세인트마이클구","code":"BB-08"},"geometry":{"type":"Polygon","coordinates":[[[-59.6003,13.0841],[-59.6216,13.094],[-59.6406,13.1416],[-59.6314,13.1364],[-59.5871,13.1613],[-59.5688,13.1002],[-59.6003,13.0841]]]}},{"type":"Feature","properties":{"name":"Christ Church","name_ko":"크라이스트처치구","code":"BB-01"},"geometry":{"type":"Polygon","coordinates":[[[-59.4758,13.0865],[-59.5089,13.0573],[-59.5361,13.0512],[-59.546,13.0677],[-59.5644,13.078],[-59.6003,13.0841],[-59.5688,13.1002],[-59.5705,13.1082],[-59.5131,13.1294],[-59.5023,13.1251],[-59.4916,13.0978],[-59.4758,13.0865]]]}},{"type":"Feature","properties":{"name":"Saint Philip","name_ko":"세인트필립구","code":"BB-10"},"geometry":{"type":"Polygon","coordinates":[[[-59.4677,13.1865],[-59.4386,13.1749],[-59.4269,13.1604],[-59.43,13.1259],[-59.4758,13.0865],[-59.4916,13.0978],[-59.5023,13.1251],[-59.5131,13.1294],[-59.4954,13.163],[-59.4677,13.1865]]]}},{"type":"Feature","properties":{"name":"Saint John","name_ko":"세인트존구","code":"BB-05"},"geometry":{"type":"Polygon","coordinates":[[[-59.5181,13.2175],[-59.4677,13.1865],[-59.5087,13.1458],[-59.5402,13.1825],[-59.5386,13.2014],[-59.5181,13.2175]]]}},{"type":"Feature","properties":{"name":"Saint George","name_ko":"세인트조지구","code":"BB-03"},"geometry":{"type":"Polygon","coordinates":[[[-59.5402,13.1825],[-59.5087,13.1458],[-59.5131,13.1294],[-59.5705,13.1082],[-59.5871,13.1613],[-59.5402,13.1825]]]}},{"type":"Feature","properties":{"name":"Saint Thomas","name_ko":"세인트토머스구","code":"BB-11"},"geometry":{"type":"Polygon","coordinates":[[[-59.5891,13.217],[-59.5655,13.2],[-59.5543,13.1801],[-59.5936,13.1541],[-59.6111,13.1503],[-59.6169,13.1749],[-59.6253,13.1834],[-59.6171,13.2043],[-59.601,13.2164],[-59.5891,13.217]]]}}]}