{"type":"FeatureCollection","features":[{"type":"Feature","properties":{"id":"CHE-165","code":"CH-VS","name":"Valais","name_ko":"발레","name_en":"Valais","name_ja":"ヴァレー州","name_zh":"瓦莱州","name_es":"Valais","name_fr":"Valais","name_de":"Kanton Wallis","name_ru":"Вале","name_pt":"Valais","name_vi":"Valais"},"geometry":{"type":"Polygon","coordinates":[[[7.8496,45.9397],[7.8437,45.9192],[7.8312,45.9145],[7.7801,45.9181],[7.732,45.9304],[7.7063,45.9257],[7.694,45.9287],[7.6737,45.9503],[7.643,45.9663],[7.5411,45.9841],[7.5244,45.9781],[7.5037,45.9567],[7.453,45.9459],[7.3938,45.9157],[7.3618,45.9078],[7.2867,45.9134],[7.1837,45.8805],[7.1209,45.8761],[7.0902,45.8805],[7.0669,45.8902],[7.0221,45.9253],[6.9877,45.9931],[6.9151,46.0486],[6.8924,46.0556],[6.8692,46.0441],[6.8509,46.0496],[6.8486,46.085],[6.8692,46.1123],[6.8539,46.1226],[6.7743,46.1348],[6.7657,46.1516],[6.7749,46.1859],[6.7922,46.2217],[6.8277,46.2695],[6.7504,46.3455],[6.7557,46.3571],[6.7821,46.3785],[6.7881,46.405],[6.8546,46.3977],[6.8666,46.4027],[6.8945,46.3748],[6.8945,46.3481],[6.931,46.3343],[6.9401,46.3076],[7.0449,46.1899],[7.1161,46.2198],[7.1702,46.257],[7.196,46.2849],[7.1985,46.3089],[7.2278,46.3314],[7.2626,46.3457],[7.2759,46.364],[7.3143,46.3716],[7.3177,46.3519],[7.3296,46.3485],[7.3673,46.3572],[7.4042,46.3786],[7.4623,46.381],[7.5096,46.3757],[7.5599,46.3952],[7.541,46.4056],[7.5978,46.4226],[7.6244,46.4434],[7.7231,46.4202],[7.8449,46.4813],[7.8717,46.4789],[7.9019,46.4856],[7.9661,46.5157],[7.9729,46.5236],[7.9652,46.54],[8.0031,46.5574],[8.1142,46.5472],[8.1467,46.5348],[8.1734,46.5328],[8.1844,46.5218],[8.2664,46.5352],[8.3491,46.5735],[8.3795,46.6381],[8.3986,46.6545],[8.4177,46.6529],[8.4212,46.6374],[8.4076,46.5932],[8.4116,46.5812],[8.4374,46.5466],[8.4769,46.5318],[8.4476,46.5046],[8.396,46.4909],[8.3846,46.4621],[8.3859,46.4502],[8.3434,46.4439],[8.295,46.418],[8.2866,46.4054],[8.297,46.3976],[8.2915,46.3784],[8.2418,46.3541],[8.1926,46.3092],[8.1719,46.2992],[8.1069,46.2855],[8.0873,46.2718],[8.0731,46.2536],[8.1,46.2356],[8.1295,46.196],[8.1323,46.1594],[8.1106,46.127],[8.0669,46.1006],[8.0253,46.0911],[8.0182,46.0809],[8.0107,46.0297],[7.9858,45.9993],[7.8982,45.9819],[7.8729,45.9594],[7.8702,45.9404],[7.8496,45.9397]]]}},{"type":"Feature","properties":{"id":"CHE-168","code":"CH-TI","name":"Ticino","name_ko":"티치노","name_en":"Ticino","name_ja":"ティチーノ州","name_zh":"提契诺州","name_es":"Tesino","name_fr":"Tessin","name_de":"Kanton Tessin","name_ru":"Тичино","name_pt":"Ticino","name_vi":"Ticino"},"geometry":{"type":"Polygon","coordinates":[[[8.729,46.1082],[8.6951,46.0952],[8.6775,46.0958],[8.6018,46.1228],[8.5387,46.1876],[8.5103,46.2079],[8.4381,46.2354],[8.4272,46.2514],[8.4232,46.2758],[8.4429,46.3534],[8.4458,46.4124],[8.4416,46.4349],[8.4279,46.4487],[8.3859,46.4502],[8.3846,46.4621],[8.396,46.4909],[8.4476,46.5046],[8.4769,46.5318],[8.5098,46.5509],[8.5238,46.5785],[8.5371,46.5845],[8.6363,46.5712],[8.6779,46.5836],[8.7112,46.573],[8.7884,46.5681],[8.8473,46.5752],[8.8981,46.5893],[8.9099,46.5975],[8.906,46.6083],[8.9148,46.6204],[8.953,46.6323],[8.9648,46.6148],[9.0221,46.6049],[9.0385,46.5907],[9.0256,46.5713],[9.0152,46.5335],[9.0214,46.5142],[9.0486,46.4809],[9.0773,46.4823],[9.0888,46.4674],[9.0866,46.4424],[9.0978,46.4161],[9.088,46.3939],[9.0891,46.3637],[9.0702,46.3368],[9.071,46.3172],[9.057,46.299],[9.0581,46.29],[9.0765,46.2616],[9.0745,46.2401],[9.0875,46.2206],[9.1638,46.173],[9.0906,46.1382],[9.0721,46.1189],[9.0703,46.0834],[9.0592,46.0618],[9.0021,46.0393],[8.9978,46.0279],[9.0156,45.9931],[8.9827,45.972],[8.9805,45.9644],[9.0108,45.9267],[9.0517,45.9155],[9.0631,45.899],[9.0593,45.882],[9.0344,45.8481],[9.0024,45.8207],[8.9396,45.8348],[8.9,45.8264],[8.9138,45.8661],[8.9121,45.8834],[8.871,45.9471],[8.8004,45.9785],[8.7679,45.9831],[8.791,46.0187],[8.8196,46.0429],[8.8344,46.0664],[8.809,46.0897],[8.7471,46.0944],[8.729,46.1082]]]}},{"type":"Feature","properties":{"id":"CHE-170","code":"CH-GR","name":"Graubünden","name_ko":"그라우뷘덴","name_en":"Grisons","name_ja":"グラウビュンデン州","name_zh":"格劳宾登州","name_es":"los Grisones","name_fr":"canton des Grisons","name_de":"Kanton Graubünden","name_ru":"Граубюнден","name_pt":"Grisões","name_vi":"Graubünden"},"geometry":{"type":"Polygon","coordinates":[[[9.2248,46.2312],[9.2042,46.2136],[9.1813,46.2041],[9.1638,46.173],[9.0875,46.2206],[9.0764,46.2348],[9.0765,46.2616],[9.057,46.299],[9.0692,46.3123],[9.0702,46.3368],[9.0891,46.3637],[9.088,46.3939],[9.0978,46.4161],[9.0866,46.4424],[9.0888,46.4674],[9.0773,46.4823],[9.0486,46.4809],[9.0214,46.5142],[9.0152,46.5335],[9.0256,46.5713],[9.0385,46.5907],[9.0352,46.5962],[8.9988,46.6125],[8.9648,46.6148],[8.956,46.6306],[8.9474,46.6321],[8.9148,46.6204],[8.906,46.6083],[8.9077,46.5942],[8.8473,46.5752],[8.7884,46.5681],[8.7112,46.573],[8.6779,46.5836],[8.6808,46.5972],[8.6734,46.6175],[8.654,46.6331],[8.6691,46.6864],[8.7156,46.705],[8.7488,46.733],[8.8037,46.7372],[8.8076,46.7532],[8.8248,46.7706],[8.8256,46.7908],[8.8717,46.8154],[8.9077,46.8116],[8.9119,46.8023],[8.9252,46.8006],[9.0032,46.8196],[9.0247,46.8354],[9.0382,46.8546],[9.04,46.8694],[9.049,46.874],[9.0754,46.8744],[9.0968,46.8641],[9.115,46.864],[9.1491,46.88],[9.196,46.8871],[9.2409,46.9203],[9.2602,46.9069],[9.4038,46.8952],[9.4457,46.8827],[9.4744,46.9097],[9.4809,46.9369],[9.4928,46.9532],[9.5073,46.9625],[9.5138,46.976],[9.532,46.9833],[9.4959,47.0266],[9.477,47.0639],[9.5606,47.0524],[9.6691,47.0562],[9.858,47.0155],[9.8563,47.0041],[9.8706,46.9988],[9.8624,46.9398],[9.8751,46.9274],[9.8999,46.9144],[10.0069,46.8908],[10.0456,46.8656],[10.1113,46.8471],[10.1578,46.8516],[10.2014,46.8668],[10.2117,46.877],[10.2199,46.9058],[10.2351,46.9233],[10.2957,46.9227],[10.2962,46.9414],[10.3137,46.9643],[10.3389,46.9841],[10.3679,46.9955],[10.3844,46.9932],[10.4156,46.9624],[10.4585,46.9366],[10.4638,46.9197],[10.4514,46.8858],[10.4485,46.8322],[10.4172,46.7989],[10.4287,46.7556],[10.3997,46.7355],[10.3944,46.7008],[10.3692,46.6724],[10.3775,46.6533],[10.3956,46.6388],[10.4382,46.6357],[10.4591,46.6236],[10.4666,46.6043],[10.4659,46.5785],[10.4579,46.5537],[10.444,46.5377],[10.4259,46.5353],[10.3543,46.5483],[10.2954,46.5511],[10.2759,46.5655],[10.2347,46.5753],[10.2303,46.5862],[10.2338,46.618],[10.2179,46.627],[10.1921,46.6268],[10.0878,46.6044],[10.0712,46.5644],[10.0328,46.533],[10.0281,46.4839],[10.044,46.467],[10.0263,46.4463],[10.0421,46.4327],[10.1334,46.414],[10.1408,46.4029],[10.1332,46.3811],[10.0975,46.3516],[10.0918,46.329],[10.1049,46.3094],[10.1461,46.2803],[10.1589,46.2624],[10.1458,46.2433],[10.0757,46.22],[10.0427,46.2205],[10.0418,46.2431],[10.0317,46.2601],[9.9776,46.2981],[9.964,46.3561],[9.9184,46.3712],[9.8554,46.367],[9.7681,46.3386],[9.7201,46.3509],[9.7093,46.3424],[9.7084,46.3117],[9.6931,46.2971],[9.6743,46.2918],[9.5597,46.2927],[9.5365,46.2986],[9.5026,46.3207],[9.4826,46.3568],[9.4444,46.3753],[9.4346,46.4983],[9.4107,46.4889],[9.3955,46.4694],[9.3846,46.4664],[9.3516,46.4855],[9.3508,46.4979],[9.331,46.5015],[9.2823,46.4974],[9.2632,46.4851],[9.2458,46.461],[9.238,46.4365],[9.2609,46.4167],[9.2604,46.3797],[9.2752,46.3314],[9.269,46.3094],[9.2397,46.267],[9.2248,46.2312]]]}},{"type":"Feature","properties":{"id":"CHE-171","code":"CH-SH","name":"Schaffhausen","name_ko":"샤프하우젠","name_en":"Schaffhausen","name_ja":"シャフハウゼン州","name_zh":"沙夫豪森州","name_es":"Schaffhausen","name_fr":"canton de Schaffhouse","name_de":"Kanton Schaffhausen","name_ru":"Шаффхаузен","name_pt":"Schaffhausen","name_vi":"Schaffhausen"},"geometry":{"type":"MultiPolygon","coordinates":[[[[8.5582,47.8012],[8.6016,47.7946],[8.6076,47.7623],[8.6174,47.7573],[8.6298,47.7628],[8.635,47.7846],[8.6441,47.791],[8.657,47.7881],[8.6819,47.7587],[8.7131,47.7574],[8.7198,47.7473],[8.7004,47.7235],[8.7171,47.6946],[8.7699,47.6951],[8.7617,47.7013],[8.7707,47.7209],[8.7976,47.72],[8.8561,47.6907],[8.8377,47.6878],[8.8378,47.6808],[8.8519,47.6713],[8.8215,47.6823],[8.8003,47.6818],[8.7777,47.6555],[8.7486,47.6461],[8.7078,47.6472],[8.692,47.6522],[8.6816,47.6643],[8.6832,47.6955],[8.64,47.6963],[8.5936,47.6582],[8.5682,47.6629],[8.5197,47.6574],[8.4761,47.6404],[8.4583,47.6399],[8.3913,47.6655],[8.3977,47.6763],[8.3921,47.6995],[8.4379,47.7232],[8.4455,47.7432],[8.4636,47.7639],[8.5516,47.7793],[8.5423,47.795],[8.5582,47.8012]]],[[[8.5607,47.5894],[8.5763,47.595],[8.5559,47.5607],[8.5294,47.5754],[8.5303,47.5829],[8.5517,47.5969],[8.5607,47.5894]]]]}},{"type":"Feature","properties":{"id":"CHE-174","code":"CH-TG","name":"Thurgau","name_ko":"투르가우","name_en":"Thurgau","name_ja":"トゥールガウ州","name_zh":"图尔高州","name_es":"Turgovia","name_fr":"canton de Thurgovie","name_de":"Kanton Thurgau","name_ru":"Тургау","name_pt":"Turgóvia","name_vi":"Thurgau"},"geometry":{"type":"Polygon","coordinates":[[[8.8519,47.6713],[8.8817,47.6561],[8.9062,47.6518],[8.9818,47.6622],[9.0166,47.6789],[9.1834,47.6704],[9.1969,47.6561],[9.2732,47.6501],[9.5475,47.5345],[9.5531,47.5169],[9.4597,47.4964],[9.446,47.5002],[9.4485,47.5122],[9.4384,47.5167],[9.3874,47.4907],[9.3805,47.4814],[9.343,47.5075],[9.3444,47.5254],[9.3351,47.5354],[9.268,47.5207],[9.2702,47.5152],[9.2998,47.5158],[9.3049,47.5008],[9.2897,47.4834],[9.2557,47.4774],[9.1991,47.485],[9.1664,47.4956],[9.1515,47.5076],[9.1378,47.4927],[9.1133,47.4879],[9.0276,47.4957],[9.0004,47.4819],[9.0035,47.4735],[9.0312,47.4601],[9.0303,47.4405],[8.9891,47.4335],[8.9507,47.3879],[8.9324,47.38],[8.8925,47.4086],[8.9114,47.4364],[8.8934,47.4461],[8.8886,47.4666],[8.8743,47.4795],[8.8855,47.4921],[8.8885,47.5282],[8.8418,47.5441],[8.832,47.5578],[8.8385,47.5662],[8.8275,47.5756],[8.7517,47.5995],[8.7393,47.6106],[8.7544,47.62],[8.7933,47.6075],[8.8082,47.6219],[8.8217,47.6411],[8.805,47.6674],[8.7885,47.6626],[8.8003,47.6818],[8.8215,47.6823],[8.8519,47.6713]]]}},{"type":"Feature","properties":{"id":"CHE-176","code":"CH-ZH","name":"Zürich","name_ko":"취리히","name_en":"Zürich","name_ja":"チューリヒ州","name_zh":"苏黎世州","name_es":"Zúrich","name_fr":"canton de Zurich","name_de":"Kanton Zürich","name_ru":"Цюрих","name_pt":"Zurique","name_vi":"Zürich"},"geometry":{"type":"Polygon","coordinates":[[[8.6016,47.6326],[8.6073,47.6563],[8.5936,47.6582],[8.64,47.6963],[8.6832,47.6955],[8.6816,47.6643],[8.692,47.6522],[8.7078,47.6472],[8.7486,47.6461],[8.805,47.6674],[8.8217,47.6411],[8.7933,47.6075],[8.7544,47.62],[8.7393,47.6106],[8.7517,47.5995],[8.8275,47.5756],[8.8385,47.5662],[8.832,47.5578],[8.8359,47.5488],[8.8911,47.5249],[8.8855,47.4921],[8.8743,47.4795],[8.8886,47.4666],[8.8934,47.4461],[8.9114,47.4364],[8.8925,47.4086],[8.9367,47.3756],[8.9605,47.3465],[8.9691,47.3173],[8.9395,47.294],[8.93,47.2748],[8.8618,47.2505],[8.8076,47.2536],[8.7892,47.2437],[8.7754,47.2206],[8.7321,47.2146],[8.6832,47.1915],[8.675,47.1809],[8.6835,47.1654],[8.6612,47.1634],[8.6316,47.1722],[8.5708,47.2173],[8.5316,47.2218],[8.4741,47.2134],[8.416,47.2266],[8.3825,47.2861],[8.4149,47.2959],[8.4456,47.3328],[8.416,47.3264],[8.402,47.3389],[8.4035,47.3625],[8.3708,47.3783],[8.4035,47.4104],[8.3579,47.4738],[8.3526,47.4876],[8.3581,47.5168],[8.3964,47.5499],[8.4211,47.5811],[8.4489,47.5843],[8.4618,47.6061],[8.4924,47.6198],[8.5224,47.6219],[8.5378,47.6121],[8.5517,47.5969],[8.5303,47.5829],[8.5294,47.5754],[8.5559,47.5607],[8.5806,47.6002],[8.5803,47.639],[8.5936,47.6426],[8.6016,47.6326]]]}},{"type":"Feature","properties":{"id":"CHE-162","code":"CH-AG","name":"Aargau","name_ko":"아르가우","name_en":"Aargau","name_ja":"アールガウ州","name_zh":"阿尔高州","name_es":"Argovia","name_fr":"canton d'Argovie","name_de":"Kanton Aargau","name_ru":"Аргау","name_pt":"Argóvia","name_vi":"Aargau"},"geometry":{"type":"Polygon","coordinates":[[[8.2511,47.622],[8.2886,47.6158],[8.3162,47.5878],[8.3541,47.581],[8.4211,47.5811],[8.3964,47.5499],[8.3581,47.5168],[8.3526,47.4876],[8.3874,47.4264],[8.4035,47.4104],[8.3708,47.3783],[8.4035,47.3625],[8.402,47.3389],[8.416,47.3264],[8.4456,47.3328],[8.4149,47.2959],[8.3825,47.2861],[8.4074,47.2455],[8.393,47.2195],[8.4056,47.1423],[8.3765,47.1431],[8.3514,47.1568],[8.3368,47.1733],[8.2886,47.2681],[8.2606,47.2823],[8.2437,47.2811],[8.1998,47.2321],[8.1835,47.2239],[8.1593,47.2299],[8.1545,47.2383],[8.1604,47.2429],[8.1042,47.2506],[8.0893,47.2612],[8.0204,47.243],[7.9981,47.273],[7.9827,47.2774],[7.9556,47.2754],[7.9556,47.2528],[7.9487,47.2466],[7.8393,47.2318],[7.8263,47.247],[7.8229,47.269],[7.8575,47.3107],[7.9019,47.3383],[7.9816,47.3283],[7.9969,47.3345],[8.0291,47.3792],[8.028,47.3981],[7.997,47.4099],[7.9813,47.4312],[7.9791,47.4487],[7.9424,47.4634],[7.9402,47.4836],[7.9005,47.4904],[7.8494,47.5453],[7.8291,47.5475],[7.8214,47.5297],[7.7962,47.5142],[7.7827,47.5128],[7.7777,47.5326],[7.7273,47.5504],[7.7856,47.5632],[7.8197,47.5953],[7.8982,47.5878],[7.9122,47.5606],[8.0423,47.5606],[8.0872,47.5674],[8.1139,47.5878],[8.1621,47.6038],[8.179,47.6158],[8.2511,47.622]]]}},{"type":"Feature","properties":{"id":"CHE-3425","code":"CH-BS","name":"Basel-Stadt","name_ko":"바젤슈타트","name_en":"Basel-Stadt","name_ja":"バーゼル＝シュタット準州","name_zh":"巴塞尔城市州","name_es":"Basilea-Ciudad","name_fr":"canton de Bâle-Ville","name_de":"Kanton Basel-Stadt","name_ru":"Базель-Штадт","name_pt":"Basileia-Cidade","name_vi":"Basel-Stadt"},"geometry":{"type":"Polygon","coordinates":[[[7.6597,47.5966],[7.6465,47.5715],[7.6359,47.5646],[7.6097,47.5647],[7.6469,47.5514],[7.6467,47.5348],[7.6404,47.5297],[7.6117,47.544],[7.5889,47.5349],[7.5209,47.5634],[7.586,47.5846],[7.6597,47.5966]]]}},{"type":"Feature","properties":{"id":"CHE-3423","code":"CH-BL","name":"Basel-Landschaft","name_ko":"바젤란트","name_en":"Basel-Landschaft","name_ja":"バーゼル＝ラント準州","name_zh":"巴塞尔乡村州","name_es":"Basilea-Campiña","name_fr":"canton de Bâle-Campagne","name_de":"Kanton Basel-Landschaft","name_ru":"Базель-Ланд","name_pt":"Basileia-Campo","name_vi":"Basel-Landschaft"},"geometry":{"type":"MultiPolygon","coordinates":[[[[7.6834,47.5443],[7.7273,47.5504],[7.7777,47.5326],[7.7827,47.5128],[7.7962,47.5142],[7.8214,47.5297],[7.8291,47.5475],[7.8494,47.5453],[7.9005,47.4904],[7.9402,47.4836],[7.9424,47.4634],[7.9549,47.4577],[7.9449,47.4406],[7.9537,47.4223],[7.9289,47.4078],[7.882,47.4024],[7.8705,47.3847],[7.8053,47.3636],[7.7861,47.3385],[7.7138,47.3662],[7.6452,47.3722],[7.6379,47.4065],[7.6755,47.4145],[7.6839,47.4216],[7.6883,47.4457],[7.7134,47.4673],[7.6643,47.4916],[7.6563,47.492],[7.6497,47.4834],[7.6145,47.4841],[7.6081,47.4728],[7.6266,47.4618],[7.6151,47.4397],[7.6029,47.4312],[7.5748,47.4283],[7.576,47.4134],[7.5383,47.4097],[7.5163,47.3903],[7.4663,47.3978],[7.4527,47.3958],[7.4371,47.3793],[7.4263,47.3793],[7.4112,47.3983],[7.3842,47.4131],[7.4404,47.4146],[7.4551,47.4214],[7.4458,47.4389],[7.4206,47.4509],[7.4293,47.4651],[7.4143,47.4902],[7.446,47.4869],[7.4542,47.452],[7.5339,47.4608],[7.529,47.4939],[7.4858,47.4988],[7.4756,47.5117],[7.5011,47.5173],[7.5052,47.533],[7.4827,47.5423],[7.5209,47.5634],[7.5889,47.5349],[7.6117,47.544],[7.6404,47.5297],[7.6467,47.5348],[7.6469,47.5514],[7.6834,47.5443]]],[[[7.3785,47.4306],[7.3882,47.4333],[7.3842,47.4131],[7.3369,47.4319],[7.3785,47.4306]]]]}},{"type":"Feature","properties":{"id":"CHE-167","code":"CH-SG","name":"Sankt Gallen","name_ko":"장크트갈렌","name_en":"St. Gallen","name_ja":"ザンクト・ガレン州","name_zh":"圣加仑州","name_es":"San Galo","name_fr":"canton de Saint-Gall","name_de":"Kanton St. Gallen","name_ru":"Санкт-Галлен","name_pt":"São Galo","name_vi":"Bang St. Gallen"},"geometry":{"type":"Polygon","coordinates":[[[9.5531,47.5169],[9.5845,47.4807],[9.6217,47.4692],[9.6503,47.4521],[9.6495,47.4097],[9.601,47.3613],[9.5874,47.3278],[9.5533,47.2999],[9.5046,47.2437],[9.4874,47.21],[9.485,47.1763],[9.5119,47.1294],[9.5124,47.108],[9.4759,47.0732],[9.4772,47.06],[9.4959,47.0266],[9.532,46.9833],[9.5138,46.976],[9.5073,46.9625],[9.4928,46.9532],[9.4809,46.9369],[9.4744,46.9097],[9.4457,46.8827],[9.4038,46.8952],[9.2602,46.9069],[9.2409,46.9203],[9.2429,46.9297],[9.2302,46.9579],[9.2378,46.9923],[9.2187,47.0267],[9.2024,47.0385],[9.1578,47.0312],[9.1322,47.0417],[9.1693,47.0606],[9.1799,47.1222],[9.0747,47.1363],[9.007,47.1747],[8.9851,47.1689],[8.9519,47.1957],[8.9553,47.2139],[8.9241,47.2205],[8.83,47.214],[8.7754,47.2206],[8.7892,47.2437],[8.8076,47.2536],[8.8618,47.2505],[8.9207,47.2691],[8.9347,47.2796],[8.9395,47.294],[8.966,47.3134],[8.9605,47.3465],[8.9324,47.38],[8.9507,47.3879],[8.9891,47.4335],[9.0303,47.4405],[9.0312,47.4601],[9.0035,47.4735],[9.0004,47.4819],[9.0276,47.4957],[9.1133,47.4879],[9.1378,47.4927],[9.1515,47.5076],[9.1664,47.4956],[9.1991,47.485],[9.2557,47.4774],[9.2897,47.4834],[9.3049,47.5008],[9.2998,47.5158],[9.2702,47.5152],[9.268,47.5207],[9.3351,47.5354],[9.3444,47.5254],[9.343,47.5075],[9.3805,47.4814],[9.3874,47.4907],[9.4384,47.5167],[9.4485,47.5122],[9.446,47.5002],[9.4597,47.4964],[9.5531,47.5169]],[[9.4882,47.3534],[9.4814,47.3685],[9.4866,47.3936],[9.5264,47.4021],[9.5405,47.3972],[9.5832,47.4152],[9.5832,47.4318],[9.6084,47.4498],[9.5223,47.4681],[9.4959,47.4532],[9.4257,47.434],[9.4094,47.4118],[9.2942,47.3992],[9.226,47.4003],[9.1861,47.3577],[9.1991,47.3402],[9.2134,47.3419],[9.218,47.3369],[9.2019,47.3193],[9.2083,47.2905],[9.1966,47.2811],[9.2041,47.2751],[9.2672,47.2671],[9.3084,47.2501],[9.3315,47.2531],[9.3755,47.2397],[9.4233,47.2539],[9.4516,47.2715],[9.4711,47.2964],[9.4882,47.3534]]]}},{"type":"Feature","properties":{"id":"CHE-3426","code":"CH-SO","name":"Solothurn","name_ko":"졸로투른","name_en":"Solothurn","name_ja":"ゾロトゥルン州","name_zh":"索洛图恩州","name_es":"Soleura","name_fr":"canton de Soleure","name_de":"Kanton Solothurn","name_ru":"Золотурн","name_pt":"Soleura","name_vi":"Solothurn"},"geometry":{"type":"MultiPolygon","coordinates":[[[[7.4674,47.4819],[7.4858,47.4988],[7.529,47.4939],[7.5339,47.4608],[7.4542,47.452],[7.446,47.4869],[7.4674,47.4819]]],[[[7.3882,47.4333],[7.4063,47.4382],[7.4206,47.4509],[7.4435,47.4408],[7.4558,47.4251],[7.4404,47.4146],[7.3842,47.4131],[7.3882,47.4333]]],[[[7.559,47.3207],[7.5675,47.3211],[7.5675,47.3378],[7.5206,47.3679],[7.4371,47.3793],[7.4527,47.3958],[7.5068,47.3886],[7.5236,47.3935],[7.5383,47.4097],[7.576,47.4134],[7.5748,47.4283],[7.6029,47.4312],[7.6151,47.4397],[7.6266,47.4618],[7.6081,47.4728],[7.6145,47.4841],[7.6497,47.4834],[7.6563,47.492],[7.7134,47.4673],[7.6883,47.4457],[7.6839,47.4216],[7.6755,47.4145],[7.6379,47.4065],[7.6396,47.3849],[7.6538,47.3681],[7.7138,47.3662],[7.7861,47.3385],[7.8053,47.3636],[7.8705,47.3847],[7.882,47.4024],[7.9289,47.4078],[7.9478,47.4171],[7.9537,47.4223],[7.9449,47.4406],[7.9549,47.4577],[7.9791,47.4487],[7.9813,47.4312],[7.997,47.4099],[8.028,47.3981],[8.0291,47.3792],[7.9969,47.3345],[7.9816,47.3283],[7.9019,47.3383],[7.8575,47.3107],[7.8229,47.269],[7.7318,47.2615],[7.6863,47.2942],[7.6502,47.2832],[7.5834,47.2776],[7.5978,47.2659],[7.6029,47.2472],[7.6558,47.2102],[7.6752,47.1845],[7.6727,47.1724],[7.6374,47.1525],[7.5914,47.1535],[7.5645,47.1662],[7.5534,47.165],[7.5132,47.1296],[7.4686,47.1094],[7.4754,47.0915],[7.4647,47.0797],[7.4463,47.0754],[7.4368,47.098],[7.3976,47.0918],[7.3883,47.0962],[7.3765,47.1199],[7.43,47.1212],[7.4376,47.1243],[7.4364,47.1386],[7.4444,47.1498],[7.4554,47.156],[7.4767,47.1541],[7.491,47.1646],[7.4796,47.1733],[7.4759,47.1909],[7.4395,47.1811],[7.4092,47.1615],[7.3926,47.1613],[7.3814,47.1844],[7.3577,47.1942],[7.3462,47.2118],[7.3488,47.2166],[7.4238,47.2395],[7.4211,47.2465],[7.4423,47.2588],[7.5008,47.2864],[7.5428,47.298],[7.559,47.3207]]]]}},{"type":"Feature","properties":{"id":"CHE-160","code":"CH-JU","name":"Jura","name_ko":"쥐라","name_en":"Jura","name_ja":"ジュラ州","name_zh":"汝拉州","name_es":"Jura","name_fr":"Jura","name_de":"Kanton Jura","name_ru":"Юра","name_pt":"do Jura","name_vi":"Jura"},"geometry":{"type":"Polygon","coordinates":[[[7.0098,47.4992],[7.0539,47.4904],[7.1037,47.4963],[7.1537,47.4864],[7.1808,47.4883],[7.1626,47.4599],[7.1683,47.4436],[7.2194,47.4285],[7.2381,47.4168],[7.2826,47.4289],[7.3369,47.4319],[7.4112,47.3983],[7.4263,47.3793],[7.529,47.3638],[7.5545,47.344],[7.5382,47.3337],[7.5366,47.3239],[7.559,47.3207],[7.4966,47.3066],[7.3872,47.3126],[7.369,47.3247],[7.3553,47.3114],[7.3192,47.2947],[7.2782,47.2863],[7.1749,47.2971],[7.1723,47.2788],[7.1563,47.2677],[7.1599,47.251],[7.1547,47.2475],[7.0678,47.2423],[7.0402,47.2094],[6.9935,47.1844],[6.9604,47.1835],[6.894,47.1543],[6.8773,47.1637],[6.8381,47.1681],[6.8883,47.2113],[6.9562,47.2452],[6.9522,47.27],[6.9586,47.2906],[7.0065,47.3194],[7.0366,47.3295],[7.0443,47.3405],[7.004,47.3681],[6.9856,47.3621],[6.8666,47.3542],[6.884,47.3826],[6.9245,47.406],[6.9261,47.4249],[6.9523,47.4288],[6.9834,47.4438],[6.991,47.4522],[6.9733,47.4891],[7.0098,47.4992]]]}},{"type":"Feature","properties":{"id":"CHE-159","code":"CH-GE","name":"Genève","name_ko":"제네바","name_en":"Geneva","name_ja":"ジュネーヴ州","name_zh":"日內瓦州","name_es":"Ginebra","name_fr":"canton de Genève","name_de":"Kanton Genf","name_ru":"Женева","name_pt":"Genebra","name_vi":"Genève"},"geometry":{"type":"Polygon","coordinates":[[[6.0619,46.2412],[6.0897,46.2464],[6.094,46.253],[6.1007,46.3014],[6.1186,46.3318],[6.1742,46.3],[6.2166,46.3095],[6.2376,46.2679],[6.2523,46.2599],[6.276,46.2631],[6.2812,46.2401],[6.2554,46.2211],[6.1914,46.1917],[6.1403,46.1502],[6.1079,46.1386],[6.0739,46.1492],[6.0283,46.1479],[5.9588,46.1305],[5.9829,46.1708],[5.9548,46.1999],[5.9585,46.212],[6.0429,46.2431],[6.0619,46.2412]]]}},{"type":"Feature","properties":{"id":"CHE-3422","code":"CH-VD","name":"Vaud","name_ko":"보","name_en":"Vaud","name_ja":"ヴォー州","name_zh":"沃州","name_es":"Vaud","name_fr":"canton de Vaud","name_de":"Kanton Waadt","name_ru":"Во","name_pt":"Vaud","name_vi":"Vaud"},"geometry":{"type":"MultiPolygon","coordinates":[[[[6.1186,46.3318],[6.1364,46.3593],[6.1351,46.3704],[6.1082,46.3965],[6.0542,46.4194],[6.0676,46.4336],[6.0602,46.4599],[6.0642,46.4711],[6.1457,46.5516],[6.1215,46.5703],[6.1184,46.5835],[6.2663,46.6804],[6.3379,46.7074],[6.3742,46.7336],[6.4179,46.7511],[6.433,46.7691],[6.4326,46.786],[6.4171,46.8022],[6.4431,46.8515],[6.5218,46.8565],[6.6246,46.8923],[6.7255,46.939],[6.7264,46.917],[6.7457,46.8962],[6.7477,46.8746],[6.766,46.8453],[6.771,46.8191],[6.798,46.8003],[6.7935,46.7904],[6.8355,46.7802],[6.8678,46.7873],[6.8861,46.781],[6.9185,46.7862],[6.93,46.8049],[6.9112,46.8084],[6.9171,46.8356],[6.9299,46.8554],[6.901,46.8669],[6.9157,46.8751],[6.924,46.8718],[6.8751,46.9072],[6.9074,46.9255],[6.9665,46.8727],[6.9845,46.8814],[6.9899,46.8719],[6.9878,46.8496],[7.0014,46.8444],[6.9733,46.8192],[6.9693,46.7951],[6.9384,46.7653],[6.9214,46.7606],[6.9228,46.7551],[6.9437,46.7493],[6.94,46.741],[6.8762,46.6786],[6.8722,46.6643],[6.8092,46.6514],[6.807,46.5807],[6.8599,46.5831],[6.8872,46.5691],[6.9047,46.5693],[6.8666,46.5371],[6.8281,46.5429],[6.8196,46.531],[6.8379,46.5064],[6.8644,46.5051],[6.8948,46.5228],[6.9192,46.5189],[6.9747,46.4904],[6.9875,46.4593],[7.0003,46.4445],[7.0236,46.4523],[7.0326,46.467],[7.0598,46.4849],[7.1116,46.4959],[7.1552,46.5276],[7.2126,46.5396],[7.2425,46.5561],[7.2539,46.5386],[7.2526,46.5127],[7.234,46.486],[7.2351,46.4626],[7.2224,46.4474],[7.2032,46.4372],[7.2117,46.4092],[7.2004,46.3847],[7.2332,46.3641],[7.2267,46.3516],[7.2278,46.3314],[7.1985,46.3089],[7.196,46.2849],[7.1702,46.257],[7.1161,46.2198],[7.0449,46.1899],[6.9401,46.3076],[6.931,46.3343],[6.8945,46.3481],[6.8945,46.3748],[6.8666,46.4027],[6.8546,46.3977],[6.7881,46.405],[6.7777,46.4241],[6.7627,46.4293],[6.6137,46.4559],[6.547,46.4574],[6.4829,46.4486],[6.3977,46.4082],[6.3016,46.3945],[6.2691,46.375],[6.2195,46.3291],[6.2166,46.3095],[6.1742,46.3],[6.1186,46.3318]],[[6.7727,46.7189],[6.7918,46.7329],[6.7926,46.7478],[6.7868,46.7519],[6.7562,46.7354],[6.7727,46.7189]],[[6.8629,46.7271],[6.8778,46.7346],[6.8885,46.7519],[6.8596,46.7734],[6.8248,46.742],[6.7975,46.7304],[6.8149,46.7271],[6.8339,46.7362],[6.8629,46.7271]]],[[[7.0211,46.9897],[7.0624,46.9782],[7.0732,46.9373],[7.0941,46.9077],[7.1069,46.9009],[7.0952,46.8916],[7.0844,46.895],[7.0675,46.8658],[7.0415,46.8524],[7.0248,46.8763],[7.0135,46.8805],[6.9459,46.9472],[7.0211,46.9897]]]]}},{"type":"Feature","properties":{"id":"CHE-161","code":"CH-NE","name":"Neuchâtel","name_ko":"뇌샤텔","name_en":"Neuchâtel","name_ja":"ヌーシャテル州","name_zh":"纳沙泰尔州","name_es":"Neuchâtel","name_fr":"canton de Neuchâtel","name_de":"Kanton Neuenburg","name_ru":"Невшатель","name_pt":"Neuchâtel","name_vi":"Bang Neuchâtel"},"geometry":{"type":"Polygon","coordinates":[[[6.4431,46.8515],[6.4484,46.8716],[6.4278,46.9091],[6.4426,46.9442],[6.4911,46.9634],[6.5987,46.9865],[6.6654,47.0213],[6.6883,47.0438],[6.6763,47.0624],[6.6897,47.0783],[6.746,47.1039],[6.7448,47.1211],[6.7748,47.1282],[6.8381,47.1681],[6.8705,47.1574],[6.8878,47.1383],[6.8902,47.1223],[6.8773,47.0897],[7.0391,47.1234],[7.0398,47.1096],[7.0942,47.087],[7.0876,47.0812],[7.0911,47.0566],[7.0438,47.0359],[7.0211,46.9897],[6.766,46.8453],[6.7477,46.8746],[6.7457,46.8962],[6.7264,46.917],[6.7255,46.939],[6.6246,46.8923],[6.5218,46.8565],[6.4431,46.8515]]]}},{"type":"Feature","properties":{"id":"CHE-3424","code":"CH-BE","name":"Bern","name_ko":"베른","name_en":"Bern","name_ja":"ベルン州","name_zh":"伯恩州","name_es":"Berna","name_fr":"canton de Berne","name_de":"Kanton Bern","name_ru":"Берн","name_pt":"Berna","name_vi":"Bern"},"geometry":{"type":"MultiPolygon","coordinates":[[[[7.5545,47.344],[7.5675,47.3378],[7.5675,47.3211],[7.5366,47.3239],[7.5382,47.3337],[7.5545,47.344]]],[[[8.4462,46.7692],[8.4366,46.7506],[8.45,46.7138],[8.4481,46.6948],[8.4017,46.6887],[8.4094,46.6557],[8.3986,46.6545],[8.3795,46.6381],[8.3542,46.5785],[8.3124,46.553],[8.2664,46.5352],[8.1844,46.5218],[8.1734,46.5328],[8.1467,46.5348],[8.1142,46.5472],[8.0031,46.5574],[7.9652,46.54],[7.9729,46.5236],[7.9661,46.5157],[7.9019,46.4856],[7.8717,46.4789],[7.8449,46.4813],[7.7231,46.4202],[7.6244,46.4434],[7.5978,46.4226],[7.541,46.4056],[7.5599,46.3952],[7.5096,46.3757],[7.4623,46.381],[7.4042,46.3786],[7.3673,46.3572],[7.3296,46.3485],[7.3177,46.3519],[7.3171,46.3694],[7.3083,46.3716],[7.2725,46.3626],[7.2626,46.3457],[7.2278,46.3314],[7.2267,46.3516],[7.2332,46.3641],[7.2004,46.3847],[7.2117,46.4092],[7.2032,46.4372],[7.2315,46.4558],[7.234,46.486],[7.2526,46.5127],[7.2539,46.5386],[7.2425,46.5561],[7.283,46.5808],[7.3191,46.5876],[7.3234,46.6103],[7.3197,46.6396],[7.3307,46.6483],[7.3656,46.6457],[7.378,46.6556],[7.3827,46.6908],[7.3127,46.7227],[7.3044,46.7482],[7.3074,46.7902],[7.3191,46.8233],[7.3149,46.8559],[7.3222,46.8601],[7.3405,46.8531],[7.3557,46.8606],[7.3605,46.8688],[7.3557,46.8912],[7.2059,46.9062],[7.216,46.9296],[7.2036,46.9641],[7.2365,46.9856],[7.2252,47.0025],[7.1427,46.9837],[7.0624,46.9782],[7.0211,46.9897],[7.0438,47.0359],[7.0911,47.0566],[7.0903,47.0914],[7.0398,47.1096],[7.0391,47.1234],[6.8773,47.0897],[6.8902,47.133],[6.8705,47.1574],[6.8498,47.1651],[6.9018,47.1557],[6.9604,47.1835],[6.9935,47.1844],[7.0296,47.2021],[7.0678,47.2423],[7.1547,47.2475],[7.1599,47.251],[7.1563,47.2677],[7.1723,47.2788],[7.1749,47.2971],[7.2782,47.2863],[7.3192,47.2947],[7.3553,47.3114],[7.369,47.3247],[7.3872,47.3126],[7.4966,47.3066],[7.5563,47.3182],[7.5428,47.298],[7.4938,47.2835],[7.4211,47.2465],[7.4238,47.2395],[7.3462,47.2118],[7.3608,47.1915],[7.3814,47.1844],[7.3903,47.1624],[7.3988,47.1602],[7.4173,47.1645],[7.4395,47.1811],[7.4759,47.1909],[7.4796,47.1733],[7.491,47.1646],[7.4876,47.1593],[7.4444,47.1498],[7.4364,47.1386],[7.4376,47.1243],[7.43,47.1212],[7.3797,47.1207],[7.3749,47.1156],[7.3976,47.0918],[7.4368,47.098],[7.4463,47.0754],[7.4747,47.0858],[7.472,47.1123],[7.5132,47.1296],[7.5534,47.165],[7.5645,47.1662],[7.5914,47.1535],[7.6374,47.1525],[7.6753,47.1757],[7.6752,47.1845],[7.6558,47.2102],[7.6029,47.2472],[7.5978,47.2659],[7.5834,47.2776],[7.6502,47.2832],[7.6863,47.2942],[7.7318,47.2615],[7.8229,47.269],[7.8263,47.247],[7.8783,47.1688],[7.8871,47.1283],[7.8741,47.1014],[7.8733,47.0481],[7.894,47.0276],[7.8975,47.0115],[7.9525,47.0027],[7.9281,46.9462],[7.9112,46.9316],[7.8757,46.9244],[7.8752,46.8948],[7.8609,46.8779],[7.8705,46.8503],[7.9833,46.7777],[8.0234,46.7893],[8.0754,46.7872],[8.1581,46.759],[8.1987,46.7676],[8.28,46.7588],[8.3682,46.7895],[8.4011,46.7697],[8.4263,46.7741],[8.4462,46.7692]],[[7.2311,46.9335],[7.2374,46.9412],[7.2225,46.9383],[7.2311,46.9335]]]]}},{"type":"Feature","properties":{"id":"CHE-163","code":"CH-LU","name":"Lucerne","name_ko":"루체른","name_en":"Lucerne","name_ja":"ルツェルン州","name_zh":"卢塞恩州","name_es":"Lucerna","name_fr":"canton de Lucerne","name_de":"Kanton Luzern","name_ru":"Люцерн","name_pt":"Lucerna","name_vi":"Luzern"},"geometry":{"type":"Polygon","coordinates":[[[8.4056,47.1423],[8.418,47.1286],[8.4366,47.1241],[8.4424,47.1133],[8.4062,47.097],[8.4001,47.0807],[8.3877,47.0709],[8.3879,47.0622],[8.4043,47.0531],[8.4197,47.058],[8.4597,47.0508],[8.5018,47.023],[8.505,47.0181],[8.4982,47.0053],[8.4651,46.9933],[8.4461,47.0093],[8.4319,47.0113],[8.4122,46.9986],[8.3792,46.999],[8.366,47.0077],[8.3291,46.9973],[8.2681,46.9979],[8.2262,46.9883],[8.2223,46.9793],[8.2271,46.9716],[8.1716,46.968],[8.1548,46.9604],[8.1559,46.939],[8.1118,46.9054],[8.0882,46.9079],[8.0735,46.8934],[8.0465,46.8393],[8.06,46.8061],[8.0437,46.7883],[7.9771,46.7789],[7.9522,46.8024],[7.8705,46.8503],[7.8609,46.8779],[7.8752,46.8948],[7.8757,46.9244],[7.9112,46.9316],[7.9281,46.9462],[7.9525,47.0027],[7.8975,47.0115],[7.894,47.0276],[7.8733,47.0481],[7.8741,47.1014],[7.8871,47.1283],[7.8751,47.1767],[7.8393,47.2318],[7.9487,47.2466],[7.9556,47.2528],[7.9556,47.2754],[7.9827,47.2774],[7.9981,47.273],[8.0204,47.243],[8.0893,47.2612],[8.1042,47.2506],[8.1604,47.2429],[8.1545,47.2383],[8.1593,47.2299],[8.1835,47.2239],[8.1998,47.2321],[8.2437,47.2811],[8.2606,47.2823],[8.2886,47.2681],[8.3368,47.1733],[8.3514,47.1568],[8.3765,47.1431],[8.4056,47.1423]]]}},{"type":"Feature","properties":{"id":"CHE-177","code":"CH-ZG","name":"Zug","name_ko":"추크","name_en":"Zug","name_ja":"ツーク州","name_zh":"楚格州","name_es":"Zug","name_fr":"canton de Zoug","name_de":"Kanton Zug","name_ru":"Цуг","name_pt":"Zug","name_vi":"Bang Zug"},"geometry":{"type":"Polygon","coordinates":[[[8.4424,47.1133],[8.4366,47.1241],[8.418,47.1286],[8.4056,47.1423],[8.393,47.2195],[8.4074,47.2455],[8.416,47.2266],[8.4624,47.2148],[8.5316,47.2218],[8.5708,47.2173],[8.6316,47.1722],[8.6612,47.1634],[8.6835,47.1654],[8.7019,47.1567],[8.6485,47.1059],[8.5877,47.089],[8.5671,47.0874],[8.5493,47.0957],[8.4978,47.0926],[8.4803,47.1195],[8.4628,47.122],[8.4424,47.1133]]]}},{"type":"Feature","properties":{"id":"CHE-175","code":"CH-UR","name":"Uri","name_ko":"우리","name_en":"Uri","name_ja":"ウーリ州","name_zh":"乌里州","name_es":"Uri","name_fr":"canton d'Uri","name_de":"Kanton Uri","name_ru":"Ури","name_pt":"Uri","name_vi":"Bang Uri"},"geometry":{"type":"Polygon","coordinates":[[[8.591,46.9892],[8.5998,46.9861],[8.6092,46.9596],[8.6523,46.9469],[8.6874,46.9456],[8.7024,46.9244],[8.7612,46.9412],[8.8175,46.9332],[8.8203,46.9203],[8.8353,46.9121],[8.8449,46.8902],[8.9303,46.9222],[8.9456,46.9027],[8.9482,46.8805],[8.9373,46.8711],[8.9054,46.8641],[8.8718,46.8459],[8.8717,46.8154],[8.8256,46.7908],[8.8248,46.7706],[8.8076,46.7532],[8.8037,46.7372],[8.7488,46.733],[8.7156,46.705],[8.6726,46.6905],[8.6527,46.6388],[8.659,46.6259],[8.6734,46.6175],[8.6808,46.5972],[8.6779,46.5836],[8.6363,46.5712],[8.5487,46.585],[8.5297,46.5831],[8.5098,46.5509],[8.4769,46.5318],[8.4374,46.5466],[8.4116,46.5812],[8.4076,46.5932],[8.4217,46.6459],[8.4094,46.6557],[8.4017,46.6887],[8.4481,46.6948],[8.4507,46.7097],[8.4377,46.7554],[8.4462,46.7692],[8.4786,46.776],[8.4817,46.7859],[8.4706,46.8036],[8.483,46.8295],[8.5001,46.8476],[8.4951,46.8533],[8.4726,46.8557],[8.4689,46.8895],[8.4594,46.9047],[8.545,46.9432],[8.5618,46.9768],[8.5617,46.9881],[8.591,46.9892]]]}},{"type":"Feature","properties":{"id":"CHE-173","code":"CH-SZ","name":"Schwyz","name_ko":"슈비츠","name_en":"Schwyz","name_ja":"シュヴィーツ州","name_zh":"施维茨州","name_es":"Schwyz","name_fr":"canton de Schwytz","name_de":"Kanton Schwyz","name_ru":"Швиц","name_pt":"Schwyz","name_vi":"Bang Schwyz"},"geometry":{"type":"Polygon","coordinates":[[[8.6596,46.9461],[8.6092,46.9596],[8.5998,46.9861],[8.591,46.9892],[8.4895,46.9816],[8.4651,46.9933],[8.4982,47.0053],[8.505,47.0181],[8.4981,47.0266],[8.4597,47.0508],[8.3933,47.0572],[8.3877,47.0709],[8.4001,47.0807],[8.4062,47.097],[8.4628,47.122],[8.4803,47.1195],[8.4978,47.0926],[8.5493,47.0957],[8.5758,47.0872],[8.6375,47.1002],[8.6765,47.129],[8.6841,47.1437],[8.7019,47.1567],[8.6835,47.1654],[8.6751,47.1783],[8.6773,47.1867],[8.7321,47.2146],[8.7754,47.2206],[8.83,47.214],[8.9241,47.2205],[8.9553,47.2139],[8.9519,47.1957],[8.9851,47.1689],[8.956,47.1005],[8.9574,47.0803],[8.9395,47.0581],[8.8947,47.0376],[8.8899,47.0265],[8.9319,46.99],[8.9339,46.9767],[8.9586,46.9613],[8.9516,46.9296],[8.8449,46.8902],[8.8353,46.9121],[8.8203,46.9203],[8.8175,46.9332],[8.7612,46.9412],[8.7083,46.923],[8.6874,46.9456],[8.6596,46.9461]]]}},{"type":"Feature","properties":{"id":"CHE-169","code":"CH-GL","name":"Glarus","name_ko":"글라루스","name_en":"Glarus","name_ja":"グラールス州","name_zh":"格拉魯斯州","name_es":"Glaris","name_fr":"canton de Glaris","name_de":"Kanton Glarus","name_ru":"Гларус","name_pt":"Glarus","name_vi":"Glarus"},"geometry":{"type":"Polygon","coordinates":[[[8.9303,46.9222],[8.9516,46.9296],[8.9586,46.9613],[8.9339,46.9767],[8.9319,46.99],[8.8899,47.0265],[8.8947,47.0376],[8.9395,47.0581],[8.9574,47.0803],[8.956,47.1005],[8.9851,47.1689],[9.007,47.1747],[9.0747,47.1363],[9.1799,47.1222],[9.1693,47.0606],[9.1322,47.0417],[9.1578,47.0312],[9.2024,47.0385],[9.2187,47.0267],[9.2378,46.9923],[9.2302,46.9579],[9.2429,46.9297],[9.2409,46.9203],[9.196,46.8871],[9.1491,46.88],[9.115,46.864],[9.0968,46.8641],[9.0754,46.8744],[9.0424,46.8718],[9.0247,46.8354],[9.0032,46.8196],[8.9158,46.8004],[8.9077,46.8116],[8.8717,46.8154],[8.8701,46.8395],[8.8718,46.8459],[8.9054,46.8641],[8.9373,46.8711],[8.9482,46.8805],[8.9456,46.9027],[8.9303,46.9222]]]}},{"type":"Feature","properties":{"id":"CHE-164","code":"CH-NW","name":"Nidwalden","name_ko":"니트발덴","name_en":"Nidwalden","name_ja":"ニトヴァルデン準州","name_zh":"下瓦尔登州","name_es":"Nidwalden","name_fr":"canton de Nidwald","name_de":"Kanton Nidwalden","name_ru":"Нидвальден","name_pt":"Nidwald","name_vi":"Nidwalden"},"geometry":{"type":"Polygon","coordinates":[[[8.4651,46.9933],[8.4895,46.9816],[8.5617,46.9881],[8.5632,46.982],[8.5409,46.9399],[8.4594,46.9047],[8.4689,46.8895],[8.4726,46.8557],[8.424,46.8545],[8.4053,46.8675],[8.3761,46.8582],[8.377,46.8682],[8.364,46.8722],[8.3607,46.8638],[8.3728,46.8206],[8.3981,46.7954],[8.4225,46.7832],[8.3916,46.7751],[8.3474,46.798],[8.3268,46.8175],[8.3243,46.8411],[8.3334,46.9135],[8.2917,46.9367],[8.3076,46.9673],[8.2636,46.9794],[8.2271,46.9716],[8.2223,46.9793],[8.2262,46.9883],[8.251,46.9955],[8.3291,46.9973],[8.366,47.0077],[8.3792,46.999],[8.4122,46.9986],[8.4319,47.0113],[8.4461,47.0093],[8.4651,46.9933]]]}},{"type":"Feature","properties":{"id":"CHE-3421","code":"CH-FR","name":"Fribourg","name_ko":"프리부르","name_en":"Fribourg","name_ja":"フリブール州","name_zh":"弗里堡州","name_es":"Friburgo","name_fr":"canton de Fribourg","name_de":"Kanton Freiburg","name_ru":"Фрибур","name_pt":"Friburgo","name_vi":"Fribourg"},"geometry":{"type":"MultiPolygon","coordinates":[[[[7.2159,47.0042],[7.228,47.0001],[7.2365,46.9856],[7.2036,46.9641],[7.216,46.9296],[7.2059,46.9062],[7.3557,46.8912],[7.3605,46.8688],[7.3557,46.8606],[7.3405,46.8531],[7.3222,46.8601],[7.3149,46.8559],[7.3191,46.8233],[7.3074,46.7902],[7.3044,46.7482],[7.3127,46.7227],[7.3827,46.6908],[7.378,46.6556],[7.3656,46.6457],[7.335,46.6506],[7.3197,46.6396],[7.3234,46.6103],[7.3146,46.5834],[7.283,46.5808],[7.2126,46.5396],[7.1552,46.5276],[7.1116,46.4959],[7.0598,46.4849],[7.0326,46.467],[7.0236,46.4523],[7.0003,46.4445],[6.9875,46.4593],[6.9747,46.4904],[6.9192,46.5189],[6.8948,46.5228],[6.8644,46.5051],[6.8379,46.5064],[6.8196,46.531],[6.8281,46.5429],[6.8666,46.5371],[6.9047,46.5693],[6.8872,46.5691],[6.8599,46.5831],[6.807,46.5807],[6.8092,46.6514],[6.8722,46.6643],[6.8762,46.6786],[6.94,46.741],[6.9437,46.7493],[6.9228,46.7551],[6.9214,46.7606],[6.9384,46.7653],[6.9693,46.7951],[6.9733,46.8192],[7.0014,46.8444],[6.9878,46.8496],[6.9899,46.8719],[6.9845,46.8814],[6.9665,46.8727],[6.9074,46.9255],[6.9459,46.9472],[7.0135,46.8805],[7.0248,46.8763],[7.0415,46.8524],[7.0675,46.8658],[7.0844,46.895],[7.0952,46.8916],[7.1069,46.9009],[7.0941,46.9077],[7.0732,46.9373],[7.0624,46.9782],[7.1427,46.9837],[7.2159,47.0042]]],[[[7.2374,46.9412],[7.2311,46.9335],[7.2225,46.9383],[7.2374,46.9412]]],[[[6.8751,46.9072],[6.924,46.8718],[6.9157,46.8751],[6.901,46.8669],[6.9299,46.8554],[6.9171,46.8356],[6.9112,46.8084],[6.93,46.8049],[6.9185,46.7862],[6.8861,46.781],[6.8678,46.7873],[6.8355,46.7802],[6.7935,46.7904],[6.798,46.8003],[6.7746,46.8119],[6.766,46.8453],[6.8751,46.9072]]],[[[6.7868,46.7519],[6.7926,46.7478],[6.7918,46.7329],[6.7678,46.7205],[6.7562,46.7354],[6.7587,46.7404],[6.7868,46.7519]]],[[[6.8596,46.7734],[6.8885,46.7519],[6.8778,46.7346],[6.8629,46.7271],[6.8339,46.7362],[6.8,46.7263],[6.7975,46.7304],[6.8248,46.742],[6.8596,46.7734]]]]}},{"type":"Feature","properties":{"id":"CHE-3427","code":"CH-OW","name":"Obwalden","name_ko":"옵발덴","name_en":"Obwalden","name_ja":"オプヴァルデン準州","name_zh":"上瓦尔登州","name_es":"Obwalden","name_fr":"canton d'Obwald","name_de":"Kanton Obwalden","name_ru":"Обвальден","name_pt":"Obwald","name_vi":"Obwalden"},"geometry":{"type":"MultiPolygon","coordinates":[[[[8.3682,46.7895],[8.28,46.7588],[8.1987,46.7676],[8.1581,46.759],[8.0946,46.7843],[8.0437,46.7883],[8.06,46.8061],[8.0465,46.8393],[8.0767,46.8982],[8.093,46.9092],[8.1118,46.9054],[8.1559,46.939],[8.1548,46.9604],[8.1716,46.968],[8.2636,46.9794],[8.3076,46.9673],[8.2917,46.9367],[8.3334,46.9135],[8.3243,46.8411],[8.3268,46.8175],[8.3474,46.798],[8.3682,46.7895]]],[[[8.4011,46.7697],[8.3916,46.7751],[8.4225,46.7832],[8.3981,46.7954],[8.3728,46.8206],[8.3607,46.8638],[8.364,46.8722],[8.377,46.8682],[8.3761,46.8582],[8.4053,46.8675],[8.424,46.8545],[8.4831,46.8564],[8.4978,46.8515],[8.4988,46.8453],[8.483,46.8295],[8.4706,46.8036],[8.4817,46.7859],[8.4786,46.776],[8.4462,46.7692],[8.4263,46.7741],[8.4011,46.7697]]]]}},{"type":"Feature","properties":{"id":"CHE-166","code":"CH-AR","name":"Appenzell Ausserrhoden","name_ko":"아펜첼아우서로덴","name_en":"Appenzell Ausserrhoden","name_ja":"アッペンツェル・アウサーローデン準州","name_zh":"外阿彭策尔州","name_es":"Appenzell Rodas Exteriores","name_fr":"canton d'Appenzell Rhodes-Extérieures","name_de":"Kanton Appenzell Ausserrhoden","name_ru":"Аппенцелль-Ауссерроден","name_pt":"Appenzell Exterior","name_vi":"Appenzell Ausserrhoden"},"geometry":{"type":"Polygon","coordinates":[[[9.4866,47.3936],[9.4814,47.3685],[9.4882,47.3534],[9.4561,47.3541],[9.3498,47.388],[9.3434,47.3838],[9.3427,47.364],[9.3318,47.3476],[9.309,47.3329],[9.3028,47.3035],[9.3315,47.2531],[9.3084,47.2501],[9.2672,47.2671],[9.2174,47.2715],[9.1966,47.2811],[9.2083,47.2905],[9.2019,47.3193],[9.218,47.3369],[9.2134,47.3419],[9.1991,47.3402],[9.1861,47.3577],[9.226,47.4003],[9.2942,47.3992],[9.4094,47.4118],[9.4257,47.434],[9.4959,47.4532],[9.5223,47.4681],[9.6084,47.4498],[9.5484,47.4412],[9.5499,47.4351],[9.5815,47.4244],[9.5832,47.4152],[9.5405,47.3972],[9.5428,47.423],[9.5239,47.4331],[9.5112,47.426],[9.5118,47.4126],[9.4896,47.4049],[9.4866,47.3936]]]}},{"type":"Feature","properties":{"id":"CHE-3473","code":"CH-AI","name":"Appenzell Innerrhoden","name_ko":"아펜첼이너로덴","name_en":"Appenzell Innerrhoden","name_ja":"アッペンツェル・インナーローデン準州","name_zh":"内阿彭策尔州","name_es":"Appenzell Rodas Interiores","name_fr":"canton d'Appenzell Rhodes-Intérieures","name_de":"Kanton Appenzell Innerrhoden","name_ru":"Аппенцелль-Иннерроден","name_pt":"Appenzell Interior","name_vi":"Appenzell Innerrhoden"},"geometry":{"type":"MultiPolygon","coordinates":[[[[9.6084,47.4498],[9.5853,47.4342],[9.5815,47.4244],[9.5484,47.4372],[9.6084,47.4498]]],[[[9.4882,47.3534],[9.4711,47.2964],[9.4516,47.2715],[9.4038,47.247],[9.3755,47.2397],[9.3447,47.2466],[9.3315,47.2531],[9.3046,47.2949],[9.3056,47.327],[9.3374,47.3545],[9.3434,47.3838],[9.3498,47.388],[9.4561,47.3541],[9.4882,47.3534]]],[[[9.5405,47.3972],[9.5264,47.4021],[9.4866,47.3936],[9.4896,47.4049],[9.514,47.4147],[9.5084,47.4195],[9.5112,47.426],[9.5278,47.4337],[9.5428,47.423],[9.5405,47.3972]]]]}}]}