{"type":"FeatureCollection","features":[{"type":"Feature","properties":{"code":"-99-X02~","name":"Clipperton Island","name_ko":"클리퍼턴섬","name_en":"Clipperton Island","name_ja":"クリッパートン島","name_zh":"克利珀顿岛","name_es":"Isla Clipperton","name_fr":"île Clipperton","name_de":"Clipperton-Insel","name_ru":"Клиппертон","name_pt":"Ilha de Clipperton","name_vi":"Clipperton"},"geometry":{"type":"Polygon","coordinates":[[[-109.212,10.3027],[-109.2104,10.2887],[-109.2186,10.2816],[-109.2342,10.3079],[-109.2259,10.311],[-109.212,10.3027]]]}}]}