{"type":"FeatureCollection","features":[{"type":"Feature","properties":{"name":"Mangaia","name_ko":"망가이아","code":"CK-X03~"},"geometry":{"type":"Polygon","coordinates":[[[-157.9346,-21.8775],[-157.9103,-21.8917],[-157.8871,-21.9264],[-157.9277,-21.9389],[-157.9425,-21.9372],[-157.961,-21.9239],[-157.9687,-21.9123],[-157.9641,-21.9005],[-157.9346,-21.8775]]]}},{"type":"Feature","properties":{"name":"Mitiaro","name_ko":"미티아로","code":"CK-X05~"},"geometry":{"type":"Polygon","coordinates":[[[-157.708,-19.7672],[-157.7082,-19.8412],[-157.7217,-19.8559],[-157.7217,-19.8422],[-157.7396,-19.8185],[-157.7421,-19.8046],[-157.708,-19.7672]]]}},{"type":"Feature","properties":{"name":"Penrhyn Atoll","name_ko":"펜린","code":"CK-X11~"},"geometry":{"type":"Polygon","coordinates":[[[-157.9407,-8.9807],[-157.9786,-8.976],[-158.0083,-8.9529],[-158.0029,-8.9467],[-157.9407,-8.9745],[-157.9407,-8.9807]]]}},{"type":"Feature","properties":{"name":"Rarotonga","name_ko":"라로통가","code":"CK-X04~"},"geometry":{"type":"Polygon","coordinates":[[[-159.7978,-21.1861],[-159.7584,-21.1918],[-159.7427,-21.2016],[-159.736,-21.237],[-159.7432,-21.2543],[-159.7743,-21.2509],[-159.7933,-21.2416],[-159.8331,-21.2446],[-159.8463,-21.2338],[-159.8388,-21.2263],[-159.8314,-21.1956],[-159.8234,-21.1891],[-159.7978,-21.1861]]]}},{"type":"Feature","properties":{"name":"Mauke","name_ko":"마우케","code":"CK-X06~"},"geometry":{"type":"Polygon","coordinates":[[[-157.3128,-20.1552],[-157.318,-20.1718],[-157.3286,-20.1791],[-157.3403,-20.1757],[-157.3494,-20.1607],[-157.349,-20.1433],[-157.3386,-20.1374],[-157.3244,-20.1417],[-157.3128,-20.1552]]]}},{"type":"Feature","properties":{"name":"Atiu","name_ko":"아티우","code":"CK-X01~"},"geometry":{"type":"MultiPolygon","coordinates":[[[[-158.0783,-19.9942],[-158.0818,-20.0128],[-158.0965,-20.0197],[-158.1151,-20.0157],[-158.13,-20.0007],[-158.1352,-19.9765],[-158.1203,-19.9728],[-158.0783,-19.9942]]]]}},{"type":"Feature","properties":{"name":"Aitutaki","name_ko":"아이투타키","code":"CK-X02~"},"geometry":{"type":"Polygon","coordinates":[[[-158.9252,-19.2692],[-158.9556,-19.2453],[-158.9457,-19.2421],[-158.9322,-19.2643],[-158.9181,-19.2612],[-158.9252,-19.2692]]]}},{"type":"Feature","properties":{"name":"Pukapuka","name_ko":"푸카푸카","code":"CK-X08~"},"geometry":{"type":"Polygon","coordinates":[[[-165.8245,-10.8818],[-165.8077,-10.8813],[-165.8187,-10.8915],[-165.8245,-10.8818]]]}},{"type":"Feature","properties":{"name":"Manihiki","name_ko":"마니히키","code":"CK-X10~"},"geometry":{"type":"Polygon","coordinates":[[[-160.9862,-10.3821],[-160.9964,-10.3715],[-160.9381,-10.4228],[-160.9862,-10.3821]]]}},{"type":"Feature","properties":{"name":"Rakahanga","name_ko":"라카한가","code":"CK-X09~"},"geometry":{"type":"Polygon","coordinates":[[[-161.088,-10.0351],[-161.0701,-10.0274],[-161.0873,-10.0446],[-161.088,-10.0351]]]}},{"type":"Feature","properties":{"name":"Palmerston Island","name_ko":"파머스턴","code":"CK-X07~"},"geometry":{"type":"Polygon","coordinates":[[[-159.7851,-18.8308],[-159.7726,-18.829],[-159.762,-18.8373],[-159.7614,-18.8454],[-159.7697,-18.8343],[-159.7792,-18.8529],[-159.7765,-18.8782],[-159.7829,-18.888],[-159.7936,-18.8875],[-159.8023,-18.8658],[-159.7979,-18.8465],[-159.7851,-18.8308]]]}}]}