{"type":"FeatureCollection","features":[{"type":"Feature","properties":{"code":"KM-M","name":"Moûhîlî","name_ko":"모엘리섬","name_en":"Mohéli","name_ja":"モヘリ島","name_zh":"莫埃利岛","name_es":"Mohéli","name_fr":"Mohéli","name_de":"Mohéli","name_ru":"Мвали","name_pt":"Mohéli","name_vi":"Mohéli"},"geometry":{"type":"Polygon","coordinates":[[[43.7887,-12.308],[43.8501,-12.3461],[43.8616,-12.3634],[43.8582,-12.3714],[43.8193,-12.3735],[43.7515,-12.36],[43.6814,-12.3581],[43.6652,-12.3525],[43.6589,-12.3183],[43.634,-12.301],[43.6299,-12.2517],[43.6358,-12.2369],[43.6664,-12.2501],[43.7272,-12.2636],[43.7887,-12.308]]]}},{"type":"Feature","properties":{"code":"KM-A","name":"Andjouân","name_ko":"앙주앙섬","name_en":"Anjouan","name_ja":"アンジュアン島","name_zh":"昂儒昂岛","name_es":"Anjouan","name_fr":"Anjouan","name_de":"Anjouan","name_ru":"Анжуан","name_pt":"Anjouan","name_vi":"Anjouan"},"geometry":{"type":"Polygon","coordinates":[[[44.5291,-12.2328],[44.5285,-12.3547],[44.523,-12.3728],[44.5115,-12.3803],[44.4841,-12.358],[44.4733,-12.3298],[44.3996,-12.28],[44.3853,-12.2517],[44.3306,-12.2363],[44.2684,-12.205],[44.2064,-12.1606],[44.2225,-12.1601],[44.3231,-12.1879],[44.3435,-12.1742],[44.3735,-12.1804],[44.4001,-12.1565],[44.4153,-12.1193],[44.4118,-12.0855],[44.4671,-12.0644],[44.4841,-12.0855],[44.5291,-12.2328]]]}},{"type":"Feature","properties":{"code":"KM-G","name":"Andjazîdja","name_ko":"안자지자","name_en":"Andjazîdja","name_ja":"ンジャジジャ島","name_zh":"大葛摩岛","name_es":"Andjazîdja","name_fr":"Grande Comore","name_de":"Andjazîdja","name_ru":"Анджазиджа","name_pt":"Andjazîdja","name_vi":"Andjazîdja"},"geometry":{"type":"Polygon","coordinates":[[[43.4666,-11.8217],[43.4988,-11.8736],[43.4983,-11.882],[43.48,-11.9228],[43.4631,-11.9309],[43.4377,-11.9316],[43.426,-11.9116],[43.37,-11.8606],[43.3018,-11.8495],[43.271,-11.8282],[43.2542,-11.7907],[43.2178,-11.7503],[43.216,-11.716],[43.2442,-11.6729],[43.2406,-11.6398],[43.2544,-11.4631],[43.2468,-11.4406],[43.2765,-11.3796],[43.3557,-11.3613],[43.374,-11.3686],[43.3949,-11.4002],[43.3994,-11.4184],[43.3771,-11.6051],[43.3861,-11.6456],[43.4305,-11.7082],[43.4466,-11.7491],[43.4466,-11.7907],[43.4666,-11.8217]]]}}]}