{"type":"FeatureCollection","features":[{"type":"Feature","properties":{"id":"CPV-5041","code":"CV-BR","name":"Brava","name_ko":"브라바시","name_en":"Brava","name_ja":"ブラヴァ","name_zh":"布拉瓦岛县","name_es":"Brava","name_fr":"Brava","name_de":"Brava","name_ru":"Брава","name_pt":"Brava","name_vi":"Brava"},"geometry":{"type":"Polygon","coordinates":[[[-24.7043,14.9008],[-24.6868,14.8762],[-24.6833,14.8425],[-24.6869,14.8266],[-24.7106,14.8039],[-24.718,14.8039],[-24.7515,14.8388],[-24.7589,14.8319],[-24.7532,14.8494],[-24.7589,14.8666],[-24.7454,14.8666],[-24.7494,14.8855],[-24.7043,14.9008]]]}},{"type":"Feature","properties":{"id":"CPV-5044","code":"CV-CF","name":"Santa Catarina do Fogo","name_ko":"산타카타리나두포구시","name_en":"Santa Catarina do Fogo","name_ja":"サンタ・カタリナ・ド・フォゴ","name_zh":"福古圣卡塔琳娜县","name_es":"Santa Catarina do Fogo","name_fr":"Santa Catarina do Fogo","name_de":"Santa Catarina do Fogo","name_ru":"Санта-Катарина-до-Фого","name_pt":"Santa Catarina do Fogo","name_vi":"Santa Catarina do Fogo"},"geometry":{"type":"Polygon","coordinates":[[[-24.3015,14.9548],[-24.2958,14.9305],[-24.3015,14.9065],[-24.2982,14.8955],[-24.3209,14.8728],[-24.353,14.8696],[-24.3738,14.8856],[-24.3834,14.9081],[-24.374,14.9449],[-24.3015,14.9548]]]}},{"type":"Feature","properties":{"id":"CPV-5043","code":"CV-MO","name":"Mosteiros","name_ko":"모스테이루스시","name_en":"Mosteiros","name_ja":"モシュテイホシュ","name_zh":"莫什泰鲁什县","name_es":"Mosteiros","name_fr":"Mosteiros","name_de":"Mosteiros","name_ru":"Моштейруш","name_pt":"Mosteiros","name_vi":"Mosteiros"},"geometry":{"type":"Polygon","coordinates":[[[-24.4297,15.025],[-24.3856,15.0435],[-24.3433,15.0407],[-24.3201,15.013],[-24.3015,14.9548],[-24.374,14.9449],[-24.4297,15.025]]]}},{"type":"Feature","properties":{"id":"CPV-5042","code":"CV-SF","name":"São Filipe","name_ko":"상필리프시","name_en":"São Filipe","name_ja":"サン・フィリペ","name_zh":"圣菲利佩县","name_es":"São Filipe","name_fr":"São Filipe","name_de":"São Filipe","name_ru":"Сан-Фелипе","name_pt":"São Filipe","name_vi":"São Filipe"},"geometry":{"type":"Polygon","coordinates":[[[-24.2982,14.8955],[-24.2928,14.8729],[-24.3345,14.8319],[-24.3765,14.816],[-24.415,14.8209],[-24.4491,14.8381],[-24.5066,14.885],[-24.5262,14.9247],[-24.5206,14.9453],[-24.4889,14.9905],[-24.4297,15.025],[-24.374,14.9449],[-24.3834,14.9081],[-24.3738,14.8856],[-24.353,14.8696],[-24.3209,14.8728],[-24.2982,14.8955]]]}},{"type":"Feature","properties":{"id":"CPV-5045","code":"CV-TA","name":"Tarrafal","name_ko":"타하팔시","name_en":"Tarrafal","name_ja":"タラファル","name_zh":"塔拉法尔县","name_es":"Tarrafal","name_fr":"Tarrafal","name_de":"Tarrafal","name_ru":"Таррафал","name_pt":"Tarrafal","name_vi":"Tarrafal"},"geometry":{"type":"Polygon","coordinates":[[[-23.7701,15.184],[-23.7637,15.2163],[-23.7516,15.2335],[-23.7633,15.2698],[-23.7858,15.2918],[-23.7584,15.3049],[-23.7795,15.3117],[-23.7441,15.3328],[-23.7379,15.3117],[-23.7192,15.3229],[-23.7032,15.3135],[-23.6978,15.2963],[-23.7107,15.2844],[-23.6973,15.266],[-23.6485,15.2372],[-23.6859,15.1844],[-23.7246,15.18],[-23.7701,15.184]]]}},{"type":"Feature","properties":{"id":"CPV-5046","code":"CV-CA","name":"Santa Catarina","name_ko":"산타카타리나시","name_en":"Santa Catarina","name_ja":"サンタ・カタリナ","name_zh":"圣卡塔琳娜县","name_es":"Santa Catarina","name_fr":"Santa Catarina","name_de":"Santa Catarina","name_ru":"Санта-Катарина","name_pt":"Santa Catarina","name_vi":"Santa Catarina"},"geometry":{"type":"Polygon","coordinates":[[[-23.7151,14.9685],[-23.7305,14.9858],[-23.7307,15.0185],[-23.7721,15.038],[-23.7926,15.0858],[-23.7721,15.1273],[-23.7858,15.1745],[-23.7701,15.184],[-23.7246,15.18],[-23.6859,15.1844],[-23.687,15.1667],[-23.6504,15.1368],[-23.6482,15.1213],[-23.6405,15.1191],[-23.6266,15.1314],[-23.6206,15.1235],[-23.6183,15.1058],[-23.648,15.0819],[-23.6443,15.0631],[-23.6294,15.0393],[-23.6394,15.0283],[-23.6416,15.0139],[-23.6704,15.0072],[-23.6792,14.9939],[-23.6981,14.9862],[-23.7151,14.9685]]]}},{"type":"Feature","properties":{"id":"CPV-5052","code":"CV-RS","name":"Ribeira Grande de Santiago","name_ko":"히베이라그란드드산티아구시","name_en":"Ribeira Grande de Santiago","name_ja":"リベイラ・グランデ・デ・サンティアゴ","name_zh":"圣地亚哥大里贝拉县","name_es":"Ribeira Grande de Santiago","name_fr":"Ribeira Grande de Santiago","name_de":"Ribeira Grande de Santiago","name_ru":"Рибейра-Гранде-де-Сантьяго","name_pt":"Ribeira Grande de Santiago","name_vi":"Ribeira Grande de Santiago"},"geometry":{"type":"Polygon","coordinates":[[[-23.5393,14.9076],[-23.6241,14.9181],[-23.6765,14.9355],[-23.7151,14.9685],[-23.6981,14.9862],[-23.6792,14.9939],[-23.6704,15.0072],[-23.6416,15.0139],[-23.6394,15.0283],[-23.6294,15.0393],[-23.612,15.0409],[-23.6117,15.0249],[-23.584,14.995],[-23.5807,14.9685],[-23.5641,14.9607],[-23.5605,14.9418],[-23.5393,14.9076]]]}},{"type":"Feature","properties":{"id":"CPV-5053","code":"CV-PR","name":"Praia","name_ko":"프라이아시","name_en":"Praia","name_ja":"プライア市","name_zh":"普拉亚县","name_es":"Praia","name_fr":"Praia","name_de":"Praia","name_ru":"община Прая","name_pt":"Praia","name_vi":"Praia"},"geometry":{"type":"Polygon","coordinates":[[[-23.4715,14.9737],[-23.4779,14.9691],[-23.4704,14.9622],[-23.494,14.9187],[-23.5393,14.9076],[-23.5605,14.9418],[-23.5641,14.9607],[-23.491,14.9862],[-23.4715,14.9737]]]}},{"type":"Feature","properties":{"id":"CPV-5051","code":"CV-SD","name":"São Domingos","name_ko":"상도밍구스시","name_en":"São Domingos","name_ja":"サン・ドミンゴス","name_zh":"圣多明戈斯县","name_es":"São Domingos","name_fr":"São Domingos","name_de":"São Domingos","name_ru":"Сан-Домингос","name_pt":"São Domingos","name_vi":"Sao Domingos"},"geometry":{"type":"Polygon","coordinates":[[[-23.4847,15.064],[-23.4704,15.038],[-23.4431,15.0107],[-23.4547,14.9859],[-23.4715,14.9737],[-23.491,14.9862],[-23.5109,14.9829],[-23.5364,14.9663],[-23.5641,14.9607],[-23.5807,14.9685],[-23.584,14.995],[-23.5962,15.0117],[-23.543,15.0537],[-23.5264,15.0593],[-23.5043,15.046],[-23.491,15.0515],[-23.4847,15.064]]]}},{"type":"Feature","properties":{"id":"CPV-5048","code":"CV-CR","name":"Santa Cruz","name_ko":"산타크루스시","name_en":"Santa Cruz","name_ja":"サンタ・クルス","name_zh":"圣克鲁斯县","name_es":"Santa Cruz","name_fr":"Santa Cruz","name_de":"Santa Cruz","name_ru":"Санта-Круз","name_pt":"Santa Cruz","name_vi":"Santa Cruz"},"geometry":{"type":"Polygon","coordinates":[[[-23.5916,15.1702],[-23.5674,15.1521],[-23.5524,15.154],[-23.5273,15.1274],[-23.5114,15.1273],[-23.5114,15.113],[-23.4847,15.064],[-23.491,15.0515],[-23.5043,15.046],[-23.5496,15.0788],[-23.5642,15.0746],[-23.58,15.0816],[-23.5807,15.098],[-23.6183,15.1058],[-23.6266,15.1314],[-23.5916,15.1702]]]}},{"type":"Feature","properties":{"id":"CPV-5047","code":"CV-SM","name":"São Miguel","name_ko":"상미겔시","name_en":"São Miguel","name_ja":"サン・ミゲル","name_zh":"圣米戈尔县","name_es":"São Miguel","name_fr":"São Miguel","name_de":"São Miguel","name_ru":"Сан-Мигел","name_pt":"São Miguel","name_vi":"São Miguel"},"geometry":{"type":"Polygon","coordinates":[[[-23.6561,15.2297],[-23.6303,15.2192],[-23.5916,15.1702],[-23.6405,15.1191],[-23.6482,15.1213],[-23.6504,15.1368],[-23.687,15.1667],[-23.6859,15.1844],[-23.6561,15.2297]]]}},{"type":"Feature","properties":{"id":"CPV-5054","code":"CV-MA","name":"Maio","name_ko":"마이우시","name_en":"Maio","name_ja":"マイオ","name_zh":"马约岛县","name_es":"Maio","name_fr":"Maio","name_de":"Maio","name_ru":"Маю","name_pt":"Maio","name_vi":"Đảo Maio"},"geometry":{"type":"Polygon","coordinates":[[[-23.1278,15.3117],[-23.1105,15.1994],[-23.1119,15.1719],[-23.1278,15.1466],[-23.1551,15.1404],[-23.1688,15.1199],[-23.196,15.1221],[-23.2406,15.1501],[-23.2582,15.1745],[-23.2433,15.2113],[-23.2513,15.2229],[-23.2372,15.231],[-23.2309,15.244],[-23.2349,15.2548],[-23.2513,15.2564],[-23.2457,15.2711],[-23.2241,15.2867],[-23.2098,15.3117],[-23.2172,15.3192],[-23.1898,15.3328],[-23.1898,15.3192],[-23.1763,15.3328],[-23.1688,15.3253],[-23.1763,15.3192],[-23.1619,15.3126],[-23.1395,15.3178],[-23.1278,15.3117]]]}},{"type":"Feature","properties":{"id":"CPV-5055","code":"CV-BV","name":"Boa Vista","name_ko":"보아비스타시","name_en":"Boa Vista","name_ja":"ボア・ヴィスタ","name_zh":"博阿维斯塔岛县","name_es":"Boa Vista","name_fr":"Boa Vista","name_de":"Boa Vista","name_ru":"Боа-Виста","name_pt":"Boa Vista","name_vi":"Boa Vista"},"geometry":{"type":"Polygon","coordinates":[[[-22.6821,16.1136],[-22.6666,16.0915],[-22.6756,16.082],[-22.6798,16.0632],[-22.7511,16.0106],[-22.8061,15.9859],[-22.8739,15.9839],[-22.8978,16.0005],[-22.9455,16.0197],[-22.9578,16.0308],[-22.964,16.0522],[-22.9578,16.089],[-22.9136,16.1256],[-22.9244,16.213],[-22.9156,16.244],[-22.8951,16.2228],[-22.8525,16.2066],[-22.8294,16.204],[-22.8117,16.2284],[-22.7938,16.2314],[-22.7239,16.2126],[-22.7139,16.2058],[-22.7038,16.1796],[-22.6825,16.1686],[-22.6821,16.1136]]]}},{"type":"Feature","properties":{"id":"CPV-5057","code":"CV-RB","name":"Ribeira Brava","name_ko":"히베이라브라바시","name_en":"Ribeira Brava","name_ja":"リベイラ・ブラヴァ","name_zh":"里贝拉布拉瓦县","name_es":"Municipio de Ribeira Brava","name_fr":"Ribeira Brava","name_de":"Ribeira Brava","name_ru":"Рибейра-Брава","name_pt":"concelho de Ribeira Brava","name_vi":"Ribeira Brava"},"geometry":{"type":"Polygon","coordinates":[[[-24.3756,16.6771],[-24.3615,16.6816],[-24.3406,16.6754],[-24.2928,16.6418],[-24.2268,16.6496],[-24.1725,16.6291],[-24.09,16.6225],[-24.0374,16.593],[-24.0328,16.5968],[-24.0328,16.5624],[-24.1147,16.5593],[-24.192,16.5925],[-24.2333,16.6021],[-24.2723,16.5872],[-24.2864,16.5707],[-24.3153,16.5204],[-24.3247,16.4827],[-24.326,16.5126],[-24.3144,16.5813],[-24.3202,16.6128],[-24.3384,16.6277],[-24.3666,16.6294],[-24.3765,16.6426],[-24.3666,16.6559],[-24.3756,16.6771]]]}},{"type":"Feature","properties":{"id":"CPV-5058","code":"CV-TS","name":"Tarrafal de São Nicolau","name_ko":"타하팔드상니콜라우시","name_en":"Tarrafal de São Nicolau","name_ja":"タラファル・デ・サン・ニコラウ","name_zh":"圣尼古劳塔拉法尔县","name_es":"Tarrafal de São Nicolau","name_fr":"Tarrafal de São Nicolau","name_de":"Tarrafal de São Nicolau","name_ru":"Таррафал-де-Сан-Николау","name_pt":"Tarrafal de São Nicolau","name_vi":"Tarrafal de Sao Nicolau"},"geometry":{"type":"Polygon","coordinates":[[[-24.3247,16.4827],[-24.3475,16.532],[-24.3656,16.5556],[-24.3709,16.5871],[-24.4083,16.6002],[-24.4247,16.6171],[-24.4307,16.6395],[-24.4226,16.6623],[-24.3756,16.6771],[-24.3666,16.6559],[-24.3765,16.6426],[-24.3666,16.6294],[-24.3384,16.6277],[-24.3202,16.6128],[-24.3144,16.5813],[-24.326,16.5126],[-24.3247,16.4827]]]}},{"type":"Feature","properties":{"id":"CPV-5056","code":"CV-SL","name":"Sal","name_ko":"살시","name_en":"Sal","name_ja":"サル","name_zh":"萨尔县","name_es":"Sal","name_fr":"Sal","name_de":"Sal","name_ru":"Сал","name_pt":"Sal","name_vi":"Sal"},"geometry":{"type":"Polygon","coordinates":[[[-22.9292,16.5934],[-22.9414,16.6694],[-22.9565,16.6994],[-22.9776,16.689],[-22.9818,16.7035],[-22.9801,16.7411],[-22.9708,16.7579],[-22.9827,16.7614],[-22.9892,16.7709],[-22.9908,16.8157],[-22.9224,16.8603],[-22.8951,16.8293],[-22.9098,16.8034],[-22.9018,16.7951],[-22.9047,16.7358],[-22.9018,16.7169],[-22.8813,16.6927],[-22.8876,16.6514],[-22.9018,16.6344],[-22.8951,16.6139],[-22.9292,16.5934]]]}},{"type":"Feature","properties":{"id":"CPV-5059","code":"CV-SV","name":"São Vicente","name_ko":"상비센트시","name_en":"São Vicente","name_ja":"サン・ビセンテ","name_zh":"圣维森特县","name_es":"São Vicente","name_fr":"São Vicente","name_de":"São Vicente","name_ru":"Сан-Висенти","name_pt":"São Vicente","name_vi":"Sao Vicente"},"geometry":{"type":"MultiPolygon","coordinates":[[[[-24.9197,16.8951],[-24.9229,16.8908],[-24.9145,16.8814],[-24.8859,16.8677],[-24.8763,16.8498],[-24.8751,16.8262],[-24.8911,16.814],[-24.9681,16.7989],[-24.988,16.7851],[-25.0582,16.8096],[-25.0811,16.8323],[-25.0941,16.8262],[-25.0898,16.8475],[-25.0782,16.8651],[-25.0501,16.8814],[-25.006,16.8877],[-25.0122,16.9013],[-24.9781,16.923],[-24.9713,16.923],[-24.9652,16.9089],[-24.9377,16.923],[-24.9188,16.9083],[-24.9147,16.8992],[-24.9197,16.8951]]],[[[-24.5927,16.6243],[-24.5695,16.62],[-24.5753,16.6055],[-24.6013,16.6098],[-24.6042,16.6214],[-24.5927,16.6243]]],[[[-24.7735,16.8023],[-24.7489,16.7936],[-24.7258,16.7574],[-24.6838,16.756],[-24.6852,16.7429],[-24.7026,16.7357],[-24.7402,16.7343],[-24.7547,16.7545],[-24.788,16.7748],[-24.788,16.7892],[-24.7735,16.8023]]]]}},{"type":"Feature","properties":{"id":"CPV-5061","code":"CV-RG","name":"Ribeira Grande","name_ko":"히베이라그란드시","name_en":"Ribeira Grande","name_ja":"リベイラ・グランデ","name_zh":"大里贝拉县","name_es":"Ribeira Grande","name_fr":"Ribeira Grande","name_de":"Ribeira Grande","name_ru":"Рибейра-Гранде","name_pt":"Ribeira Grande","name_vi":"Ribeira Grande"},"geometry":{"type":"Polygon","coordinates":[[[-25.2454,17.1367],[-25.1026,17.1966],[-25.0795,17.1854],[-25.0395,17.1824],[-25.0263,17.1677],[-25.0259,17.1449],[-25.073,17.1136],[-25.1583,17.0858],[-25.2454,17.1367]]]}},{"type":"Feature","properties":{"id":"CPV-5060","code":"CV-PN","name":"Porto Novo","name_ko":"포르투노부시","name_en":"Porto Novo","name_ja":"ポルト・ノボ","name_zh":"波多诺伏县","name_es":"Porto Novo","name_fr":"Porto Novo","name_de":"Porto Novo","name_ru":"Порто-Ново","name_pt":"Porto Novo","name_vi":"Porto Novo"},"geometry":{"type":"Polygon","coordinates":[[[-24.9867,17.0789],[-25.0151,17.0491],[-25.1159,16.9975],[-25.163,16.9453],[-25.1879,16.9282],[-25.2897,16.9172],[-25.3108,16.9261],[-25.3139,17.005],[-25.3275,17.0282],[-25.3548,17.0385],[-25.3604,17.0552],[-25.3556,17.0696],[-25.3309,17.0968],[-25.3168,17.1061],[-25.2798,17.1073],[-25.2454,17.1367],[-25.1583,17.0858],[-25.073,17.1136],[-25.0283,17.1056],[-24.9867,17.0789]]]}},{"type":"Feature","properties":{"id":"CPV-5062","code":"CV-PA","name":"Paul","name_ko":"파울시","name_en":"Paul","name_ja":"パウル","name_zh":"保尔县","name_es":"Paul","name_fr":"Paul","name_de":"Paul","name_ru":"Пол","name_pt":"Paul","name_vi":"Paul"},"geometry":{"type":"Polygon","coordinates":[[[-25.0259,17.1449],[-24.9971,17.1342],[-24.975,17.1145],[-24.973,17.0966],[-24.9867,17.0789],[-25.0283,17.1056],[-25.073,17.1136],[-25.0259,17.1449]]]}},{"type":"Feature","properties":{"id":"CPV-5049","code":"CV-SS","name":"São Salvador do Mundo","name_ko":"상살바도르두문두시","name_en":"São Salvador do Mundo","name_ja":"サン・サルバドル・ド・ムンド","name_zh":"圣萨尔瓦多蒙多县","name_es":"São Salvador do Mundo","name_fr":"São Salvador do Mundo","name_de":"São Salvador do Mundo","name_ru":"Сан-Сальвадор-до-Мундо","name_pt":"São Salvador do Mundo","name_vi":"São Salvador do Mundo"},"geometry":{"type":"Polygon","coordinates":[[[-23.6183,15.1058],[-23.5807,15.098],[-23.5785,15.0881],[-23.5851,15.056],[-23.605,15.0416],[-23.6294,15.0393],[-23.6443,15.0631],[-23.648,15.0819],[-23.6183,15.1058]]]}},{"type":"Feature","properties":{"id":"CPV-5050","code":"CV-SO","name":"São Lourenço dos Órgãos","name_ko":"상로렌수두스오르강스시","name_en":"São Lourenço dos Órgãos","name_ja":"サン・ローレンソ・ドス・オルガンス","name_zh":"圣洛伦索县","name_es":"São Lourenço dos Órgãos","name_fr":"São Lourenço dos Órgãos","name_de":"São Lourenço dos Órgãos","name_ru":"Сан-Лоренсу-душ-Оргауш","name_pt":"São Lourenço dos Órgãos","name_vi":"Sao Lourenco dos Orgaos"},"geometry":{"type":"Polygon","coordinates":[[[-23.612,15.0409],[-23.5851,15.056],[-23.58,15.0816],[-23.5642,15.0746],[-23.5496,15.0788],[-23.5264,15.0593],[-23.543,15.0537],[-23.5962,15.0117],[-23.6117,15.0249],[-23.612,15.0409]]]}}]}