{"type":"FeatureCollection","features":[{"type":"Feature","properties":{"name":"Cayman Islands","name_ko":"케이맨 아일랜즈","code":"KY-X01~"},"geometry":{"type":"MultiPolygon","coordinates":[[[[-81.1361,19.3549],[-81.0995,19.3473],[-81.0895,19.3354],[-81.0866,19.3099],[-81.1067,19.2953],[-81.1351,19.2907],[-81.1695,19.2996],[-81.2335,19.2892],[-81.2665,19.2661],[-81.3579,19.2741],[-81.3757,19.2723],[-81.3875,19.2639],[-81.3979,19.2742],[-81.3855,19.3389],[-81.3903,19.3523],[-81.4165,19.37],[-81.4083,19.3902],[-81.3941,19.3948],[-81.3757,19.389],[-81.3786,19.3758],[-81.3606,19.3401],[-81.364,19.3199],[-81.3497,19.3021],[-81.3035,19.3091],[-81.2938,19.3344],[-81.2733,19.3276],[-81.2795,19.3418],[-81.2733,19.3344],[-81.278,19.3441],[-81.2733,19.348],[-81.2863,19.3685],[-81.2118,19.348],[-81.1361,19.3549]]],[[[-80.0378,19.704],[-80.0087,19.704],[-79.981,19.7143],[-79.9643,19.7049],[-80.078,19.654],[-80.1132,19.6587],[-80.0986,19.6769],[-80.0621,19.7007],[-80.0378,19.704]]],[[[-79.8719,19.7046],[-79.7459,19.7576],[-79.7315,19.7521],[-79.7266,19.7371],[-79.7739,19.7134],[-79.8938,19.6797],[-79.8719,19.7046]]]]}}]}