{"type":"FeatureCollection","features":[{"type":"Feature","properties":{"id":"DMA-1439","code":"DM-09","name":"Saint Patrick","name_ko":"세인트패트릭구","name_en":"Saint Patrick","name_ja":"セント・パトリック","name_zh":"圣帕特里克堂区","name_es":"Parroquia de Saint Patrick","name_fr":"Saint-Patrick","name_de":"Saint Patrick","name_ru":"Приход Сент-Патрик","name_pt":"Saint Patrick","name_vi":"Giáo xứ Saint Patrick"},"geometry":{"type":"Polygon","coordinates":[[[-61.2541,15.3327],[-61.2567,15.2853],[-61.2772,15.2502],[-61.2893,15.2436],[-61.3182,15.2434],[-61.3464,15.2117],[-61.3566,15.2538],[-61.3427,15.2743],[-61.3166,15.2922],[-61.3002,15.3236],[-61.2541,15.3327]]]}},{"type":"Feature","properties":{"id":"DMA-1433","code":"DM-03","name":"Saint David","name_ko":"세인트데이비드구","name_en":"Saint David","name_ja":"セント・デイヴィッド郡","name_zh":"圣戴维堂区","name_es":"Parroquia de Saint David","name_fr":"Saint-David","name_de":"Saint David","name_ru":"Приход Сент-Дэвид","name_pt":"Saint David","name_vi":"Giáo xứ Saint David"},"geometry":{"type":"Polygon","coordinates":[[[-61.2686,15.5099],[-61.2577,15.4726],[-61.256,15.4359],[-61.2629,15.4079],[-61.2493,15.4011],[-61.2541,15.3327],[-61.2964,15.3255],[-61.3082,15.3167],[-61.3079,15.3322],[-61.3276,15.3455],[-61.3274,15.3878],[-61.3346,15.405],[-61.3174,15.4449],[-61.2749,15.4758],[-61.2758,15.4994],[-61.2686,15.5099]]]}},{"type":"Feature","properties":{"id":"DMA-1432","code":"DM-02","name":"Saint Andrew","name_ko":"세인트앤드루구","name_en":"Saint Andrew","name_ja":"セント・アンドルー","name_zh":"圣安德鲁区","name_es":"Parroquia de Saint Andrew","name_fr":"Saint-Andrew","name_de":"Saint Andrew","name_ru":"ПриходСент-Эндрю","name_pt":"Saint Andrew","name_vi":"Giáo xứ Saint Andrew"},"geometry":{"type":"Polygon","coordinates":[[[-61.4492,15.6331],[-61.4259,15.6285],[-61.3846,15.5884],[-61.3573,15.5983],[-61.3077,15.5793],[-61.2686,15.5099],[-61.2758,15.4994],[-61.2749,15.4758],[-61.3174,15.4449],[-61.3229,15.4583],[-61.344,15.4734],[-61.3929,15.4821],[-61.4057,15.4945],[-61.4114,15.5276],[-61.418,15.5328],[-61.4192,15.5785],[-61.4403,15.5951],[-61.4492,15.6331]]]}},{"type":"Feature","properties":{"id":"DMA-1435","code":"DM-05","name":"Saint John","name_ko":"세인트존구","name_en":"Saint John","name_ja":"セント・ジョン郡","name_zh":"圣约翰堂区","name_es":"Parroquia de Saint John","name_fr":"Saint-John","name_de":"Saint John","name_ru":"Сент-Джон","name_pt":"Saint John","name_vi":"Giáo xứ Saint John"},"geometry":{"type":"Polygon","coordinates":[[[-61.484,15.5296],[-61.4889,15.5451],[-61.4621,15.573],[-61.4889,15.5793],[-61.469,15.6339],[-61.4492,15.6331],[-61.4403,15.5951],[-61.4192,15.5785],[-61.418,15.5328],[-61.4114,15.5276],[-61.4077,15.503],[-61.4632,15.5318],[-61.4795,15.5342],[-61.484,15.5296]]]}},{"type":"Feature","properties":{"id":"DMA-1441","code":"DM-11","name":"Saint Peter","name_ko":"세인트피터구","name_en":"Saint Peter","name_ja":"セント・ピーター","name_zh":"圣彼得堂区","name_es":"Parroquia de Saint Peter","name_fr":"Saint-Peter","name_de":"Saint Peter","name_ru":"Приход Сент-Питер","name_pt":"Saint Peter","name_vi":"Giáo xứ Saint Peter"},"geometry":{"type":"Polygon","coordinates":[[[-61.4553,15.4663],[-61.4721,15.4814],[-61.4752,15.5178],[-61.484,15.5296],[-61.4795,15.5342],[-61.4632,15.5318],[-61.4077,15.503],[-61.4057,15.4945],[-61.4307,15.4889],[-61.4553,15.4663]]]}},{"type":"Feature","properties":{"id":"DMA-1436","code":"DM-06","name":"Saint Joseph","name_ko":"세인트조지프구","name_en":"Saint Joseph","name_ja":"セント・ジョゼフ教区","name_zh":"圣约瑟夫堂区","name_es":"Parroquia de Saint Joseph","name_fr":"Saint-Joseph","name_de":"Saint Joseph","name_ru":"Прход Сент-Джозеф","name_pt":"Saint Joseph","name_vi":"Giáo xứ Saint Joseph"},"geometry":{"type":"Polygon","coordinates":[[[-61.416,15.3901],[-61.4212,15.4147],[-61.4442,15.4368],[-61.4553,15.4663],[-61.4307,15.4889],[-61.4057,15.4945],[-61.3893,15.4799],[-61.3681,15.4816],[-61.3229,15.4583],[-61.3174,15.4449],[-61.3346,15.405],[-61.368,15.3897],[-61.416,15.3901]]]}},{"type":"Feature","properties":{"id":"DMA-1440","code":"DM-10","name":"Saint Paul","name_ko":"세인트폴구","name_en":"Saint Paul","name_ja":"セント・ポール","name_zh":"圣保罗堂区","name_es":"Parroquia de Saint Paul","name_fr":"Saint-Paul","name_de":"Saint Paul","name_ru":"Приход Сент-Пол","name_pt":"Saint Paul","name_vi":"Giáo xứ Saint Paul"},"geometry":{"type":"Polygon","coordinates":[[[-61.3936,15.3136],[-61.3996,15.3511],[-61.416,15.3901],[-61.368,15.3897],[-61.3346,15.405],[-61.3274,15.3878],[-61.3276,15.3455],[-61.3688,15.3249],[-61.3741,15.3135],[-61.3936,15.3136]]]}},{"type":"Feature","properties":{"id":"DMA-1434","code":"DM-04","name":"Saint George","name_ko":"세인트조지구","name_en":"Saint George","name_ja":"セント・ジョージ","name_zh":"圣乔治堂区","name_es":"Parroquia de Saint George","name_fr":"Saint-George","name_de":"Saint George","name_ru":"Сент-Джордж","name_pt":"Saint George","name_vi":"Giáo xứ Saint George"},"geometry":{"type":"Polygon","coordinates":[[[-61.3732,15.2603],[-61.3728,15.2707],[-61.3909,15.2963],[-61.3936,15.3136],[-61.3741,15.3135],[-61.3688,15.3249],[-61.3276,15.3455],[-61.3112,15.3352],[-61.3043,15.312],[-61.3166,15.2922],[-61.3427,15.2743],[-61.3566,15.2538],[-61.3732,15.2603]]]}},{"type":"Feature","properties":{"id":"DMA-1437","code":"DM-07","name":"Saint Luke","name_ko":"세인트루크구","name_en":"Saint Luke","name_ja":"セント・ルーク","name_zh":"圣卢克堂区","name_es":"Parroquia de Saint Luke","name_fr":"Saint-Luke","name_de":"Saint Luke","name_ru":"Приход Сент-Люк","name_pt":"Saint Luke","name_vi":"Giáo xứ Saint Luke"},"geometry":{"type":"Polygon","coordinates":[[[-61.3728,15.2372],[-61.3732,15.2603],[-61.3566,15.2538],[-61.3557,15.2438],[-61.3728,15.2372]]]}},{"type":"Feature","properties":{"id":"DMA-1438","code":"DM-08","name":"Saint Mark","name_ko":"세인트마크구","name_en":"Saint Mark","name_ja":"セント・マーク","name_zh":"圣马克堂区","name_es":"Parroquia de Saint Mark","name_fr":"Saint-Mark","name_de":"Saint Mark","name_ru":"Приход Сент-Марк","name_pt":"Saint Mark","name_vi":"Giáo xứ Saint Mark"},"geometry":{"type":"Polygon","coordinates":[[[-61.3464,15.2117],[-61.3629,15.2018],[-61.3741,15.2048],[-61.3728,15.2372],[-61.3557,15.2438],[-61.3464,15.2117]]]}}]}