{"type":"FeatureCollection","features":[{"type":"Feature","properties":{"name":"Dhekelia","name_ko":"데켈리아","code":"-99-X16~"},"geometry":{"type":"Polygon","coordinates":[[[33.7779,34.9847],[33.7592,34.9887],[33.7809,34.9763],[33.7604,34.9797],[33.7015,34.9729],[33.7029,34.9879],[33.7115,34.9856],[33.7154,34.9973],[33.6997,35.0027],[33.7022,35.0223],[33.6756,35.037],[33.6789,35.0558],[33.7147,35.0668],[33.7194,35.0628],[33.7076,35.0293],[33.7397,35.0472],[33.7661,35.0316],[33.7755,35.0402],[33.7944,35.0402],[33.7983,35.0526],[33.824,35.0668],[33.8427,35.0566],[33.8669,35.0668],[33.8769,35.0768],[33.8716,35.0855],[33.8762,35.119],[33.8894,35.119],[33.9059,35.0909],[33.9136,35.0909],[33.9215,35.0807],[33.9144,35.0731],[33.8981,35.0613],[33.8801,35.0731],[33.8551,35.0534],[33.8412,35.0511],[33.8271,35.0613],[33.8044,35.0495],[33.799,35.0385],[33.8302,35.023],[33.8294,35.0012],[33.8403,34.9934],[33.859,34.9918],[33.859,34.9747],[33.8381,34.9637],[33.8918,34.9581],[33.8745,34.9412],[33.8623,34.9379],[33.8042,34.9726],[33.7818,34.9762],[33.7944,34.9778],[33.7779,34.9847]],[[33.7428,35.0012],[33.7521,35.0043],[33.7521,35.0144],[33.7413,35.0137],[33.7428,35.0012]]]}}]}