{"type":"FeatureCollection","features":[{"type":"Feature","properties":{"code":"FM-KSA","name":"Kosrae","name_ko":"코스라에","name_en":"Kosrae","name_ja":"コスラエ州","name_zh":"科斯雷","name_es":"Kosrae","name_fr":"Kosrae","name_de":"Kosrae","name_ru":"Кусаие","name_pt":"Kosrae","name_vi":"Kosrae"},"geometry":{"type":"Polygon","coordinates":[[[163.0261,5.3409],[163.0466,5.3236],[163.0192,5.2727],[163.0055,5.2698],[162.9162,5.2869],[162.9121,5.3042],[162.9241,5.321],[162.9907,5.3748],[163.0106,5.3797],[163.0261,5.3688],[163.0261,5.3409]]]}},{"type":"Feature","properties":{"code":"FM-PNI","name":"Pohnpei","name_ko":"폰페이","name_en":"Pohnpei State","name_ja":"ポンペイ州","name_zh":"波纳佩州","name_es":"Pohnpei","name_fr":"Pohnpei","name_de":"Bundesstaat Pohnpei","name_ru":"Понпеи","name_pt":"Pohnpei","name_vi":"Bang Pohnpei"},"geometry":{"type":"MultiPolygon","coordinates":[[[[158.2908,6.938],[158.3047,6.9244],[158.325,6.9311],[158.3382,6.8791],[158.3386,6.8691],[158.3045,6.866],[158.3176,6.8247],[158.3138,6.8087],[158.2925,6.7951],[158.2445,6.7883],[158.2254,6.7895],[158.2151,6.8008],[158.1935,6.7934],[158.1802,6.8025],[158.1605,6.8281],[158.166,6.854],[158.1531,6.8759],[158.1605,6.8902],[158.133,6.8919],[158.1258,6.9074],[158.1325,6.9414],[158.1419,6.951],[158.1782,6.956],[158.1809,6.9789],[158.2083,6.9653],[158.218,6.9709],[158.2766,6.9653],[158.3035,6.9429],[158.2908,6.938]]],[[[154.8081,0.9278],[154.8176,0.9222],[154.8018,0.9182],[154.7986,0.9245],[154.8081,0.9278]]],[[[154.7149,0.9656],[154.7329,0.967],[154.7268,0.9606],[154.7149,0.9656]]],[[[154.7931,0.9721],[154.7923,0.9629],[154.7782,0.9688],[154.7844,0.9755],[154.7931,0.9721]]],[[[154.8792,3.7519],[154.8767,3.768],[154.8919,3.7788],[154.8943,3.7628],[154.8792,3.7519]]],[[[154.7893,3.7918],[154.7918,3.7766],[154.7737,3.7663],[154.7713,3.7815],[154.7893,3.7918]]],[[[157.9364,6.7172],[157.9392,6.7274],[157.9489,6.7317],[157.9364,6.7172]]],[[[154.2997,8.1751],[154.3097,8.1671],[154.3133,8.1375],[154.3084,8.119],[154.2959,8.1059],[154.2793,8.126],[154.2385,8.1434],[154.2498,8.1732],[154.2598,8.1801],[154.291,8.1851],[154.2997,8.1751]]]]}},{"type":"Feature","properties":{"code":"FM-TRK","name":"Chuuk","name_ko":"추크","name_en":"Chuuk State","name_ja":"チューク州","name_zh":"丘克州","name_es":"Estado de Chuuk","name_fr":"Chuuk","name_de":"Bundesstaat Chuuk","name_ru":"Трук","name_pt":"Chuuk","name_vi":"Chuuk"},"geometry":{"type":"MultiPolygon","coordinates":[[[[151.5886,7.3836],[151.6224,7.3918],[151.6364,7.3871],[151.6502,7.3694],[151.6445,7.3361],[151.6343,7.3279],[151.6227,7.3427],[151.6074,7.3361],[151.5681,7.3427],[151.6174,7.359],[151.6227,7.3659],[151.6184,7.3759],[151.5969,7.3727],[151.5886,7.3836]]],[[[151.8767,7.4587],[151.8838,7.4636],[151.9177,7.4587],[151.8906,7.4352],[151.8562,7.4246],[151.863,7.4656],[151.8767,7.4587]]],[[[153.6677,5.286],[153.6853,5.3097],[153.7009,5.317],[153.7107,5.3146],[153.7077,5.3054],[153.6677,5.286]]],[[[149.3158,6.6969],[149.3235,6.7195],[149.3247,6.7071],[149.3158,6.6969]]],[[[151.8568,7.3166],[151.8545,7.3701],[151.8656,7.3507],[151.8568,7.3166]]],[[[150.4075,8.5755],[150.4046,8.586],[150.4094,8.5847],[150.4075,8.5755]]],[[[149.6687,8.5747],[149.6678,8.6042],[149.6755,8.6164],[149.6873,8.616],[149.6888,8.6073],[149.6687,8.5747]]],[[[150.1182,8.9763],[150.1243,8.9855],[150.133,8.9861],[150.1182,8.9763]]]]}},{"type":"Feature","properties":{"code":"FM-YAP","name":"Yap","name_ko":"야프","name_en":"Yap State","name_ja":"ヤップ州","name_zh":"雅浦州","name_es":"Estado de Yap","name_fr":"Yap","name_de":"Bundesstaat Yap","name_ru":"Яп","name_pt":"Yap","name_vi":"Yap"},"geometry":{"type":"MultiPolygon","coordinates":[[[[138.1924,9.5759],[138.1817,9.5587],[138.1843,9.5444],[138.1975,9.539],[138.219,9.5486],[138.2024,9.5212],[138.178,9.5002],[138.1641,9.5048],[138.1566,9.5258],[138.1438,9.5213],[138.0681,9.4121],[138.0638,9.4361],[138.073,9.4704],[138.0891,9.5012],[138.113,9.5215],[138.1262,9.566],[138.1411,9.5744],[138.1472,9.5674],[138.1501,9.5412],[138.1644,9.5759],[138.1936,9.5889],[138.1924,9.5759]]],[[[140.5142,9.7678],[140.5217,9.7747],[140.5329,9.7719],[140.5154,9.7612],[140.5142,9.7678]]]]}}]}