{"type":"FeatureCollection","features":[{"type":"Feature","properties":{"id":"GGY+00?","code":"GG-X01~","name":"Sark","name_ko":"사크","name_en":"Sark","name_ja":"サーク","name_zh":"萨克岛","name_es":"Sark","name_fr":"Sercq","name_de":"Sark","name_ru":"Сарк","name_pt":"Sark","name_vi":"Sark"},"geometry":{"type":"MultiPolygon","coordinates":[[[[-2.5802,49.4936],[-2.5182,49.5155],[-2.5017,49.5067],[-2.5221,49.48],[-2.5328,49.4389],[-2.542,49.4309],[-2.5521,49.4267],[-2.6735,49.4335],[-2.663,49.4438],[-2.6518,49.4452],[-2.6566,49.4594],[-2.6503,49.4637],[-2.6246,49.4657],[-2.5802,49.4936]]],[[[-2.3638,49.4468],[-2.3544,49.4278],[-2.3781,49.4127],[-2.3755,49.4355],[-2.3638,49.4468]]],[[[-2.1745,49.7314],[-2.1703,49.7232],[-2.1879,49.7106],[-2.2169,49.703],[-2.2262,49.7078],[-2.2185,49.7187],[-2.1745,49.7314]]]]}}]}