{"type":"FeatureCollection","features":[{"type":"Feature","properties":{"code":"GQ-LI","name":"Litoral","name_ko":"리토랄","name_en":"Litoral","name_ja":"リトラル県","name_zh":"海岸省","name_es":"Litoral","name_fr":"Litoral","name_de":"Litoral","name_ru":"Литорал","name_pt":"Litoral","name_vi":"Tỉnh Litoral"},"geometry":{"type":"Polygon","coordinates":[[[9.7996,2.3417],[9.8111,2.3249],[9.8109,2.2649],[9.8721,2.2112],[9.9075,2.2005],[9.9707,2.1689],[9.991,2.1656],[10.19,2.1656],[10.1977,2.1103],[10.1966,2.0625],[10.1874,2.0324],[10.1328,1.9784],[10.1152,1.9434],[10.1061,1.8174],[10.0976,1.7975],[10.0617,1.7499],[9.9816,1.6146],[9.9323,1.596],[9.9179,1.5771],[9.9298,1.558],[10.0641,1.5203],[10.1114,1.4916],[10.1157,1.4817],[10.0982,1.4465],[10.0982,1.4211],[10.1055,1.4054],[10.1342,1.3865],[10.1381,1.3756],[10.1409,1.3102],[10.1494,1.2749],[10.1835,1.2583],[10.1859,1.2236],[10.2083,1.1678],[10.2296,1.1608],[10.2574,1.1784],[10.2715,1.1642],[10.2763,1.1396],[10.2641,1.1143],[10.2198,1.0908],[10.1633,1.0816],[10.0968,1.0902],[10.0325,1.0608],[10.0161,1.0423],[10.0004,0.9997],[9.9808,0.9972],[9.9718,0.9398],[9.96,0.9284],[9.9441,0.9249],[9.9086,0.9351],[9.8496,0.9892],[9.8044,0.9984],[9.7991,1.0582],[9.8198,1.0689],[9.8475,1.0725],[9.7551,1.1059],[9.7035,1.0998],[9.6994,1.1098],[9.7038,1.1206],[9.7178,1.1333],[9.6764,1.1054],[9.6421,1.0616],[9.5843,1.043],[9.5597,1.1028],[9.5408,1.1251],[9.5065,1.1376],[9.4053,1.1059],[9.3602,1.147],[9.3596,1.1649],[9.3467,1.1817],[9.374,1.1999],[9.4076,1.2838],[9.4343,1.2998],[9.4483,1.3191],[9.464,1.3598],[9.4653,1.4145],[9.4928,1.4266],[9.5527,1.4865],[9.5942,1.5722],[9.6148,1.588],[9.6592,1.5653],[9.6859,1.5688],[9.7445,1.6],[9.7243,1.599],[9.6834,1.5714],[9.6657,1.5756],[9.6223,1.6168],[9.6073,1.6444],[9.6175,1.6715],[9.6898,1.7502],[9.7181,1.7718],[9.743,1.8157],[9.7468,1.8399],[9.7637,1.8661],[9.7991,1.9011],[9.8097,1.935],[9.8058,1.9764],[9.7644,2.0963],[9.7781,2.124],[9.7864,2.2481],[9.7669,2.3105],[9.7996,2.3417]]]}},{"type":"Feature","properties":{"code":"GQ-KN","name":"Kié-Ntem","name_ko":"키에은템","name_en":"Kié-Ntem","name_ja":"キエンテム県","name_zh":"基埃恩特姆省","name_es":"Kié-Ntem","name_fr":"Kié-Ntem","name_de":"Kié-Ntem","name_ru":"Ке-Нтем","name_pt":"Kié-Ntem","name_vi":"Tỉnh Kié-Ntem"},"geometry":{"type":"Polygon","coordinates":[[[10.4097,2.1657],[11.3221,2.1658],[11.3297,2.1274],[11.332,1.7326],[11.2277,1.7465],[11.1608,1.7328],[11.097,1.7396],[11.0353,1.732],[11.0019,1.7415],[10.9884,1.7624],[10.9591,1.9495],[10.9547,1.963],[10.9392,1.9745],[10.9256,1.9691],[10.89,1.9367],[10.8601,1.9302],[10.8171,1.9404],[10.7024,1.9892],[10.6652,1.9956],[10.629,1.9815],[10.5174,1.9149],[10.4939,1.9257],[10.4405,1.9236],[10.4275,1.9346],[10.4211,1.9562],[10.4372,2.0265],[10.4112,2.1159],[10.4097,2.1657]]]}},{"type":"Feature","properties":{"code":"GQ-CS","name":"Centro Sur","name_ko":"중남부","name_en":"Centro Sur","name_ja":"中南部県","name_zh":"中南省","name_es":"Centro Sur","name_fr":"Centro-Sur","name_de":"Centro Sur","name_ru":"Центро-Сур","name_pt":"Centro Sur","name_vi":"Tỉnh Centro Sur"},"geometry":{"type":"Polygon","coordinates":[[[10.19,2.1656],[10.4097,2.1657],[10.4112,2.1159],[10.4372,2.0265],[10.4211,1.9562],[10.4275,1.9346],[10.4405,1.9236],[10.5119,1.9215],[10.5432,1.8838],[10.6104,1.8302],[10.6158,1.8138],[10.602,1.7484],[10.5722,1.6958],[10.5904,1.6523],[10.585,1.6242],[10.5735,1.6037],[10.5749,1.5872],[10.6079,1.5712],[10.6663,1.5601],[10.6928,1.5626],[10.7661,1.5907],[10.8028,1.5829],[10.8274,1.5969],[10.8407,1.573],[10.8824,1.6003],[10.896,1.5787],[10.9119,1.574],[10.9627,1.5655],[10.981,1.573],[10.9748,1.5563],[10.918,1.5294],[10.8728,1.4805],[10.7901,1.3537],[10.7755,1.3113],[10.7853,1.2818],[10.8502,1.2098],[10.904,1.1824],[10.9155,1.1685],[10.942,1.0826],[10.951,1.0653],[10.9799,1.0431],[10.9797,1.0234],[10.9638,1.0004],[10.0004,0.9997],[10.0217,1.0503],[10.0558,1.0736],[10.1061,1.0915],[10.1633,1.0816],[10.2198,1.0908],[10.2641,1.1143],[10.2763,1.1396],[10.2715,1.1642],[10.2574,1.1784],[10.2296,1.1608],[10.2083,1.1678],[10.1859,1.2236],[10.1835,1.2583],[10.1494,1.2749],[10.1409,1.3102],[10.1381,1.3756],[10.1342,1.3865],[10.1055,1.4054],[10.0982,1.4211],[10.0982,1.4465],[10.1157,1.4817],[10.1114,1.4916],[10.0641,1.5203],[9.9298,1.558],[9.9179,1.5771],[9.9323,1.596],[9.9816,1.6146],[10.0617,1.7499],[10.0976,1.7975],[10.1061,1.8174],[10.1115,1.9254],[10.1212,1.9592],[10.1419,1.989],[10.1801,2.0226],[10.1925,2.045],[10.1977,2.1103],[10.19,2.1656]]]}},{"type":"Feature","properties":{"code":"GQ-WN","name":"Wele-Nzás","name_ko":"웰레은사스","name_en":"Wele-Nzas","name_ja":"ウェレンザス県","name_zh":"韦莱恩萨斯省","name_es":"Wele-Nzas","name_fr":"Wele-Nzas","name_de":"Wele-Nzas","name_ru":"Веле-Нзас","name_pt":"Wele-Nzas","name_vi":"Tỉnh Wele-Nzas"},"geometry":{"type":"Polygon","coordinates":[[[11.332,1.7326],[11.3363,0.9992],[10.9638,1.0004],[10.9797,1.0234],[10.9799,1.0431],[10.951,1.0653],[10.942,1.0826],[10.9155,1.1685],[10.904,1.1824],[10.8502,1.2098],[10.7853,1.2818],[10.7755,1.3113],[10.7901,1.3537],[10.8728,1.4805],[10.918,1.5294],[10.9748,1.5563],[10.981,1.573],[10.9627,1.5655],[10.9119,1.574],[10.896,1.5787],[10.8824,1.6003],[10.8407,1.573],[10.8274,1.5969],[10.8028,1.5829],[10.7661,1.5907],[10.6928,1.5626],[10.6663,1.5601],[10.6079,1.5712],[10.5749,1.5872],[10.5735,1.6037],[10.585,1.6242],[10.5904,1.6523],[10.5722,1.6958],[10.602,1.7484],[10.6158,1.8138],[10.6104,1.8302],[10.5432,1.8838],[10.5174,1.9149],[10.629,1.9815],[10.6652,1.9956],[10.7024,1.9892],[10.8171,1.9404],[10.8601,1.9302],[10.89,1.9367],[10.9256,1.9691],[10.9392,1.9745],[10.9547,1.963],[10.9591,1.9495],[10.9884,1.7624],[11.0019,1.7415],[11.0353,1.732],[11.097,1.7396],[11.1608,1.7328],[11.2277,1.7465],[11.332,1.7326]]]}},{"type":"Feature","properties":{"code":"GQ-AN","name":"Annobón","name_ko":"안노본","name_en":"Annobón","name_ja":"アンノボン県","name_zh":"安诺本省","name_es":"Annobón","name_fr":"Annobón","name_de":"Annobón","name_ru":"Провинция Аннобон","name_pt":"Annobón","name_vi":"Tỉnh Annobón"},"geometry":{"type":"Polygon","coordinates":[[[5.6262,-1.4562],[5.6187,-1.433],[5.6331,-1.4158],[5.6463,-1.4384],[5.6428,-1.4628],[5.6289,-1.4757],[5.612,-1.4636],[5.6262,-1.4562]]]}},{"type":"Feature","properties":{"code":"GQ-BN","name":"Bioko Norte","name_ko":"북비오코","name_en":"Bioko Norte","name_ja":"北ビオコ県","name_zh":"北比奥科省","name_es":"Bioko Norte","name_fr":"Bioko-Norte","name_de":"Bioko Norte","name_ru":"Северный Биоко","name_pt":"Bioko Norte","name_vi":"Tỉnh Bioko Norte"},"geometry":{"type":"Polygon","coordinates":[[[8.6268,3.6331],[8.641,3.6835],[8.6672,3.7263],[8.7024,3.7609],[8.7434,3.7724],[8.7372,3.7582],[8.7682,3.7517],[8.7819,3.751],[8.7918,3.7582],[8.8467,3.7464],[8.8806,3.7473],[8.9085,3.7582],[8.9227,3.7507],[8.9492,3.7179],[8.9631,3.6797],[8.9512,3.6274],[8.907,3.5821],[8.8967,3.5544],[8.8635,3.5151],[8.8477,3.5542],[8.8328,3.5685],[8.7926,3.5789],[8.7392,3.5813],[8.6686,3.625],[8.6268,3.6331]]]}},{"type":"Feature","properties":{"code":"GQ-BS","name":"Bioko Sur","name_ko":"남비오코","name_en":"Bioko Sur","name_ja":"南ビオコ県","name_zh":"南比奥科省","name_es":"Bioko Sur","name_fr":"Bioko-Sur","name_de":"Bioko Sur","name_ru":"Южный Биоко","name_pt":"Bioko Sur","name_vi":"Tỉnh Bioko Sur"},"geometry":{"type":"Polygon","coordinates":[[[8.8635,3.5151],[8.8407,3.4581],[8.8234,3.4444],[8.8159,3.4155],[8.7849,3.3951],[8.7809,3.3329],[8.7747,3.3166],[8.7297,3.2648],[8.6862,3.1973],[8.6484,3.22],[8.6276,3.2226],[8.5999,3.238],[8.5596,3.2306],[8.5277,3.2488],[8.4694,3.258],[8.4502,3.2729],[8.4377,3.3131],[8.422,3.3393],[8.4421,3.4213],[8.4553,3.4465],[8.4739,3.4631],[8.4976,3.4565],[8.5103,3.4638],[8.5628,3.4565],[8.5796,3.4633],[8.5851,3.4793],[8.5733,3.5118],[8.6014,3.5297],[8.6211,3.5559],[8.6268,3.6331],[8.6686,3.625],[8.7392,3.5813],[8.7926,3.5789],[8.8328,3.5685],[8.8477,3.5542],[8.8635,3.5151]]]}}]}