{"type":"FeatureCollection","features":[{"type":"Feature","properties":{"name":"Saint George","name_ko":"세인트조지구","code":"GD-03"},"geometry":{"type":"Polygon","coordinates":[[[-61.683,12.0254],[-61.6949,12.0028],[-61.7296,12.0158],[-61.7569,12.0034],[-61.7905,12.0084],[-61.7495,12.0363],[-61.746,12.0509],[-61.7564,12.0878],[-61.751,12.1101],[-61.6864,12.1109],[-61.6765,12.0846],[-61.6897,12.0805],[-61.6963,12.041],[-61.683,12.0254]]]}},{"type":"Feature","properties":{"name":"Saint David","name_ko":"세인트데이비드구","code":"GD-02"},"geometry":{"type":"Polygon","coordinates":[[[-61.6245,12.069],[-61.6316,12.0441],[-61.6744,12.022],[-61.6744,12.0295],[-61.683,12.0254],[-61.6963,12.041],[-61.6897,12.0805],[-61.6584,12.0895],[-61.6245,12.069]]]}},{"type":"Feature","properties":{"name":"Saint Andrew","name_ko":"세인트앤드루구","code":"GD-01"},"geometry":{"type":"Polygon","coordinates":[[[-61.6032,12.1767],[-61.6063,12.1338],[-61.6198,12.1046],[-61.6138,12.0804],[-61.6245,12.069],[-61.6584,12.0895],[-61.6765,12.0846],[-61.688,12.1216],[-61.6625,12.1586],[-61.6559,12.1792],[-61.6032,12.1767]]]}},{"type":"Feature","properties":{"name":"Saint Patrick","name_ko":"세인트패트릭구","code":"GD-06"},"geometry":{"type":"Polygon","coordinates":[[[-61.6821,12.2233],[-61.6715,12.2361],[-61.6277,12.2367],[-61.606,12.2234],[-61.6129,12.2144],[-61.6032,12.1767],[-61.6559,12.1792],[-61.6592,12.1997],[-61.6821,12.2233]]]}},{"type":"Feature","properties":{"name":"Saint Mark","name_ko":"세인트마크구","code":"GD-05"},"geometry":{"type":"Polygon","coordinates":[[[-61.7151,12.1839],[-61.6821,12.2233],[-61.6592,12.1997],[-61.6559,12.1792],[-61.6625,12.1586],[-61.7151,12.1839]]]}},{"type":"Feature","properties":{"name":"Saint John","name_ko":"세인트존구","code":"GD-04"},"geometry":{"type":"Polygon","coordinates":[[[-61.751,12.1101],[-61.7303,12.1493],[-61.7296,12.1667],[-61.7151,12.1839],[-61.6625,12.1586],[-61.688,12.1216],[-61.6864,12.1109],[-61.751,12.1101]]]}},{"type":"Feature","properties":{"name":"Carriacou and Petite Martinique","name_ko":"카리아쿠 프티마르티니크","code":"GD-10"},"geometry":{"type":"Polygon","coordinates":[[[-61.428,12.4547],[-61.4457,12.4598],[-61.4962,12.4404],[-61.4827,12.4683],[-61.4962,12.4683],[-61.4889,12.482],[-61.4673,12.4756],[-61.4435,12.5165],[-61.428,12.5297],[-61.4216,12.5134],[-61.428,12.4547]]]}}]}