{"type":"FeatureCollection","features":[{"type":"Feature","properties":{"id":"GTM-1962","code":"GT-JU","name":"Jutiapa","name_ko":"후티아파","name_en":"Jutiapa","name_ja":"フティアパ県","name_zh":"胡蒂亚帕省","name_es":"Jutiapa","name_fr":"Jutiapa","name_de":"Jutiapa","name_ru":"Хутьяпа","name_pt":"Jutiapa","name_vi":"Jutiapa"},"geometry":{"type":"Polygon","coordinates":[[[-89.748,14.0449],[-89.7476,14.0376],[-89.7623,14.03],[-89.803,14.0555],[-89.8211,14.0601],[-89.8801,14.0427],[-90.023,13.937],[-90.0474,13.8943],[-90.0871,13.8705],[-90.107,13.8441],[-90.1143,13.7963],[-90.0983,13.7314],[-90.2406,13.7887],[-90.2308,13.85],[-90.2585,13.9207],[-90.2714,13.9334],[-90.2786,13.9747],[-90.292,13.9952],[-90.2902,14.0133],[-90.266,14.0227],[-90.2185,13.991],[-90.1567,13.9768],[-90.1411,13.9873],[-90.1192,14.027],[-90.0771,14.0454],[-90.0505,14.0951],[-90.0583,14.1697],[-90.1245,14.2277],[-90.1766,14.2427],[-90.1911,14.2529],[-90.1555,14.3389],[-90.14,14.3518],[-90.1052,14.3585],[-90.082,14.3548],[-90.084,14.3769],[-90.0699,14.3785],[-90.0519,14.4335],[-89.9886,14.4343],[-89.9607,14.4693],[-89.9426,14.4738],[-89.9298,14.4706],[-89.8853,14.4365],[-89.88,14.4709],[-89.8716,14.4829],[-89.8157,14.5195],[-89.7891,14.5234],[-89.7623,14.5005],[-89.6784,14.5422],[-89.6855,14.5776],[-89.6452,14.5732],[-89.6305,14.5672],[-89.5982,14.5241],[-89.5194,14.5259],[-89.4963,14.5019],[-89.5117,14.4455],[-89.4961,14.4229],[-89.5414,14.3815],[-89.5442,14.4001],[-89.5552,14.4108],[-89.5699,14.412],[-89.5841,14.4018],[-89.5906,14.386],[-89.5761,14.3531],[-89.5984,14.328],[-89.5922,14.3138],[-89.5586,14.3028],[-89.5449,14.2618],[-89.5247,14.2474],[-89.5245,14.2318],[-89.5309,14.2256],[-89.6383,14.2006],[-89.6898,14.17],[-89.7099,14.1487],[-89.7526,14.0752],[-89.7545,14.0594],[-89.748,14.0449]]]}},{"type":"Feature","properties":{"id":"GTM-1960","code":"GT-CQ","name":"Chiquimula","name_ko":"치키물라","name_en":"Chiquimula","name_ja":"チキムラ県","name_zh":"奇基穆拉省","name_es":"Chiquimula","name_fr":"Chiquimula","name_de":"Chiquimula","name_ru":"Чикимула","name_pt":"Chiquimula","name_vi":"Chiquimula"},"geometry":{"type":"Polygon","coordinates":[[[-89.3616,14.4155],[-89.3906,14.436],[-89.3969,14.426],[-89.3982,14.4454],[-89.4311,14.4187],[-89.4468,14.4155],[-89.4853,14.4274],[-89.4961,14.4229],[-89.5117,14.4455],[-89.4963,14.5019],[-89.5131,14.5237],[-89.5945,14.523],[-89.6326,14.569],[-89.6996,14.5776],[-89.6602,14.6957],[-89.6689,14.7213],[-89.667,14.7599],[-89.676,14.7786],[-89.7364,14.7799],[-89.7127,14.8214],[-89.7104,14.8673],[-89.6704,14.9011],[-89.5926,14.8675],[-89.5243,14.8632],[-89.5091,14.8667],[-89.4487,14.9138],[-89.4293,14.9192],[-89.3854,14.9035],[-89.3198,14.9197],[-89.2862,14.9058],[-89.2255,14.9464],[-89.2126,14.9493],[-89.2032,14.9414],[-89.1892,14.9131],[-89.2236,14.879],[-89.2314,14.8673],[-89.2324,14.8485],[-89.1894,14.783],[-89.1705,14.7388],[-89.1445,14.7083],[-89.1452,14.6834],[-89.1594,14.666],[-89.1552,14.6156],[-89.1604,14.5813],[-89.1721,14.5704],[-89.2211,14.5801],[-89.2457,14.573],[-89.323,14.4875],[-89.3555,14.4754],[-89.3638,14.4466],[-89.3616,14.4155]]]}},{"type":"Feature","properties":{"id":"GTM-1944","code":"GT-PE","name":"Petén","name_ko":"페텐","name_en":"Petén","name_ja":"ペテン県","name_zh":"贝登省","name_es":"Petén","name_fr":"Petén","name_de":"Petén","name_ru":"Петен","name_pt":"El Petén","name_vi":"Khu vực hành chính Petén"},"geometry":{"type":"Polygon","coordinates":[[[-89.1507,17.321],[-89.1492,17.0363],[-89.1844,16.4959],[-89.236,15.9065],[-89.266,15.9147],[-89.358,15.9129],[-89.3695,15.9016],[-89.3807,15.8716],[-89.3963,15.8613],[-89.4384,15.8486],[-89.4633,15.8583],[-89.5124,15.8421],[-89.5155,15.8952],[-89.5206,15.8993],[-89.5612,15.8922],[-89.634,15.8997],[-89.6504,15.8882],[-89.6692,15.8877],[-89.7162,15.9188],[-89.7485,15.9319],[-89.7748,15.9257],[-89.7922,15.9118],[-89.8553,15.9126],[-89.8873,15.9627],[-89.9047,15.9642],[-89.9222,15.9757],[-89.9291,15.9703],[-89.9405,15.9726],[-89.9574,15.9851],[-89.9611,16.0095],[-89.9728,16.0143],[-89.9725,15.9998],[-89.9858,15.9953],[-90.0085,15.9995],[-90.0192,16.0101],[-90.0467,15.9995],[-90.2168,16.0521],[-90.4208,16.0824],[-90.4478,16.0797],[-90.4345,16.1072],[-90.4556,16.0997],[-90.4595,16.1168],[-90.4353,16.1363],[-90.4481,16.1544],[-90.4261,16.1631],[-90.4327,16.1732],[-90.4618,16.1891],[-90.4656,16.2081],[-90.4585,16.2218],[-90.4345,16.2363],[-90.4578,16.2491],[-90.4594,16.2591],[-90.4481,16.2711],[-90.4277,16.2636],[-90.4413,16.2854],[-90.4345,16.2916],[-90.4141,16.2878],[-90.414,16.2984],[-90.4202,16.296],[-90.4449,16.3084],[-90.4195,16.3178],[-90.4047,16.3315],[-90.3988,16.3476],[-90.4072,16.3605],[-90.4208,16.353],[-90.4182,16.3672],[-90.4087,16.3723],[-90.3799,16.3673],[-90.3914,16.386],[-90.3949,16.4192],[-90.4208,16.4151],[-90.4444,16.4268],[-90.4758,16.4307],[-90.4823,16.4561],[-90.4978,16.468],[-90.5089,16.4711],[-90.5329,16.4599],[-90.5437,16.4902],[-90.5847,16.4802],[-90.6047,16.4862],[-90.6331,16.4833],[-90.6121,16.5076],[-90.6126,16.5181],[-90.6482,16.5296],[-90.64,16.5448],[-90.6435,16.561],[-90.6338,16.5922],[-90.6474,16.6001],[-90.6536,16.5901],[-90.6672,16.587],[-90.654,16.6166],[-90.6677,16.6526],[-90.7353,16.7466],[-90.8004,16.7868],[-90.797,16.8054],[-90.8106,16.8129],[-90.82,16.8053],[-90.8317,16.8054],[-90.9191,16.8363],[-90.9482,16.8647],[-90.9689,16.8744],[-90.9528,16.8909],[-90.9552,16.8988],[-90.9862,16.9011],[-90.9833,16.8786],[-90.9931,16.8744],[-91.0167,16.8948],[-91.0549,16.908],[-91.0669,16.9182],[-91.0769,16.9495],[-91.1122,16.9905],[-91.1266,17.0246],[-91.1712,17.028],[-91.2068,17.0654],[-91.2296,17.114],[-91.2592,17.1243],[-91.2795,17.1801],[-91.2904,17.1891],[-91.3649,17.1898],[-91.3729,17.2136],[-91.4425,17.238],[-91.4383,17.2537],[-91.4308,17.255],[-90.992,17.2519],[-90.9909,17.802],[-90.9828,17.8105],[-90.9622,17.816],[-89.1605,17.8143],[-89.1507,17.321]]]}},{"type":"Feature","properties":{"id":"GTM-1947","code":"GT-SM","name":"San Marcos","name_ko":"산마르코스","name_en":"San Marcos","name_ja":"サン・マルコス県","name_zh":"圣马科斯省","name_es":"San Marcos","name_fr":"San Marcos","name_de":"San Marcos","name_ru":"Сан-Маркос","name_pt":"San Marcos","name_vi":"San Marcos"},"geometry":{"type":"Polygon","coordinates":[[[-92.2463,14.5463],[-92.2261,14.5493],[-92.2081,14.5705],[-92.1608,14.6835],[-92.1617,14.7023],[-92.1794,14.7516],[-92.1794,14.7812],[-92.1917,14.8353],[-92.166,14.8708],[-92.1547,14.9008],[-92.1542,14.9959],[-92.1424,15.0075],[-92.1038,15.0179],[-92.0738,15.0737],[-92.2109,15.2534],[-92.2047,15.2895],[-92.1059,15.4545],[-92.0998,15.4336],[-92.0825,15.4126],[-92.0676,15.4071],[-92.0552,15.2885],[-92.0441,15.2802],[-91.993,15.2779],[-91.9429,15.3274],[-91.9102,15.3298],[-91.8562,15.3607],[-91.8068,15.3366],[-91.7856,15.335],[-91.7157,15.3501],[-91.6794,15.2859],[-91.6213,15.2343],[-91.6161,15.2209],[-91.6207,15.2019],[-91.6617,15.1684],[-91.6991,15.1224],[-91.7084,15.0925],[-91.6964,15.0648],[-91.6774,15.0493],[-91.6733,15.0332],[-91.6797,14.9904],[-91.6916,14.9695],[-91.7365,14.9338],[-91.7558,14.8607],[-91.7953,14.783],[-91.8168,14.7648],[-91.8321,14.7385],[-91.8507,14.729],[-91.9515,14.7361],[-92.0608,14.7075],[-92.0997,14.6804],[-92.1341,14.6421],[-92.1368,14.633],[-92.1251,14.6269],[-92.0495,14.6164],[-92.0166,14.5309],[-92.0552,14.5198],[-92.074,14.5036],[-92.1075,14.5082],[-92.1385,14.4897],[-92.1624,14.4873],[-92.2463,14.5463]]]}},{"type":"Feature","properties":{"id":"GTM-1943","code":"GT-HU","name":"Huehuetenango","name_ko":"우에우에테낭고","name_en":"Huehuetenango","name_ja":"ウェウェテナンゴ県","name_zh":"韦韦特南戈省","name_es":"Huehuetenango","name_fr":"Huehuetenango","name_de":"Huehuetenango","name_ru":"Уэуэтенанго","name_pt":"Huehuetenango","name_vi":"Huehuetenango"},"geometry":{"type":"Polygon","coordinates":[[[-92.1059,15.4545],[-91.7398,16.061],[-91.7238,16.0688],[-90.9948,16.0699],[-91.1923,15.6878],[-91.2133,15.6671],[-91.21,15.6564],[-91.2284,15.6516],[-91.2594,15.6276],[-91.3034,15.611],[-91.3311,15.523],[-91.3299,15.5025],[-91.3022,15.4658],[-91.2986,15.4413],[-91.2824,15.4163],[-91.2636,15.3993],[-91.2247,15.4018],[-91.1844,15.3868],[-91.1822,15.3688],[-91.1908,15.3329],[-91.1791,15.2922],[-91.2033,15.2879],[-91.2368,15.2919],[-91.3029,15.2769],[-91.3154,15.2632],[-91.3528,15.2628],[-91.3925,15.2412],[-91.4458,15.2288],[-91.4735,15.1927],[-91.477,15.1618],[-91.5188,15.156],[-91.5384,15.179],[-91.5414,15.1981],[-91.5489,15.204],[-91.6161,15.2209],[-91.6213,15.2343],[-91.6794,15.2859],[-91.7157,15.3501],[-91.7856,15.335],[-91.8068,15.3366],[-91.8562,15.3607],[-91.9102,15.3298],[-91.9429,15.3274],[-91.993,15.2779],[-92.0441,15.2802],[-92.0552,15.2885],[-92.0676,15.4071],[-92.0825,15.4126],[-92.0998,15.4336],[-92.1059,15.4545]]]}},{"type":"Feature","properties":{"id":"GTM-3467","code":"GT-QC","name":"Quiché","name_ko":"키체","name_en":"Quiché","name_ja":"キチェ県","name_zh":"基切省","name_es":"Quiché","name_fr":"Quiché","name_de":"Quiché","name_ru":"Киче","name_pt":"El Quiché","name_vi":"Quiché"},"geometry":{"type":"Polygon","coordinates":[[[-90.9948,16.0699],[-90.4857,16.0707],[-90.4482,16.0793],[-90.4364,16.0733],[-90.4315,16.0655],[-90.442,16.0448],[-90.436,16.034],[-90.4403,16.0248],[-90.4505,16.0207],[-90.4625,16.025],[-90.4693,16.0107],[-90.4874,16.018],[-90.5067,16.0062],[-90.524,16.0107],[-90.531,16.004],[-90.5382,16.0107],[-90.5416,16.0043],[-90.5444,16.0107],[-90.5581,15.9977],[-90.5903,16.0184],[-90.6071,16.0175],[-90.6071,16.025],[-90.5928,16.0312],[-90.5928,16.0386],[-90.6055,16.0429],[-90.6133,16.0312],[-90.6201,16.0312],[-90.6343,16.0452],[-90.6601,16.0398],[-90.7027,16.0175],[-90.6953,16.0039],[-90.7042,15.9982],[-90.7058,15.9803],[-90.7128,15.9763],[-90.7232,15.9902],[-90.7635,15.9697],[-90.7505,15.9493],[-90.7437,15.9561],[-90.7362,15.9493],[-90.7538,15.921],[-90.7635,15.8878],[-90.7386,15.8853],[-90.7326,15.8681],[-90.743,15.8486],[-90.7672,15.8394],[-90.7846,15.7984],[-90.8181,15.7506],[-90.7933,15.7508],[-90.7772,15.737],[-90.7915,15.7295],[-90.7915,15.7233],[-90.771,15.709],[-90.7845,15.6997],[-90.7882,15.6884],[-90.7806,15.6789],[-90.689,15.6544],[-90.6716,15.6608],[-90.6543,15.6544],[-90.6617,15.6476],[-90.6327,15.6229],[-90.6319,15.6086],[-90.6406,15.5924],[-90.6255,15.5821],[-90.597,15.526],[-90.6145,15.5032],[-90.6481,15.4763],[-90.6401,15.4589],[-90.7056,15.4423],[-90.7098,15.4266],[-90.7027,15.3944],[-90.682,15.375],[-90.6508,15.3631],[-90.4935,15.3397],[-90.4776,15.331],[-90.4785,15.3106],[-90.4972,15.2709],[-90.5413,15.2125],[-90.6916,15.2149],[-90.8657,15.2568],[-90.8719,15.1485],[-90.7972,15.0549],[-90.7073,15.0002],[-90.7122,14.9738],[-90.6735,14.939],[-90.6576,14.9039],[-90.7367,14.926],[-90.8051,14.9282],[-90.8529,14.9419],[-90.9772,14.9386],[-91.0246,14.9166],[-91.0535,14.8449],[-91.0874,14.8263],[-91.1039,14.832],[-91.1149,14.8113],[-91.1241,14.8071],[-91.1319,14.8149],[-91.1333,14.831],[-91.1185,14.8605],[-91.1563,14.8753],[-91.1708,14.9051],[-91.2147,14.9349],[-91.2069,14.9577],[-91.2102,14.9696],[-91.2266,14.9807],[-91.243,15.0174],[-91.2744,15.0413],[-91.2685,15.0664],[-91.2378,15.078],[-91.2346,15.0972],[-91.2477,15.1107],[-91.2638,15.1576],[-91.3152,15.2016],[-91.3202,15.2171],[-91.3154,15.2632],[-91.3029,15.2769],[-91.2368,15.2919],[-91.2033,15.2879],[-91.1791,15.2922],[-91.1908,15.3329],[-91.1822,15.3688],[-91.1844,15.3868],[-91.2247,15.4018],[-91.2636,15.3993],[-91.2944,15.4317],[-91.3005,15.4627],[-91.3252,15.4937],[-91.3322,15.5171],[-91.3034,15.611],[-91.2594,15.6276],[-91.2284,15.6516],[-91.21,15.6564],[-91.2133,15.6671],[-91.1923,15.6878],[-90.9948,16.0699]]]}},{"type":"Feature","properties":{"id":"GTM-1948","code":"GT-AV","name":"Alta Verapaz","name_ko":"알타베라파스","name_en":"Alta Verapaz","name_ja":"アルタ・ベラパス県","name_zh":"上维拉帕斯省","name_es":"Alta Verapaz","name_fr":"Alta Verapaz","name_de":"Alta Verapaz","name_ru":"Альта-Верапас","name_pt":"Alta Verapaz","name_vi":"Alta Verapaz"},"geometry":{"type":"Polygon","coordinates":[[[-90.4482,16.0793],[-90.4208,16.0824],[-90.2168,16.0521],[-90.0467,15.9995],[-90.0192,16.0101],[-90.0085,15.9995],[-89.9858,15.9953],[-89.9725,15.9998],[-89.9708,16.0138],[-89.9597,16.0076],[-89.9574,15.9851],[-89.9405,15.9726],[-89.9291,15.9703],[-89.9222,15.9757],[-89.9047,15.9642],[-89.8873,15.9627],[-89.852,15.9115],[-89.7922,15.9118],[-89.7748,15.9257],[-89.7485,15.9319],[-89.7162,15.9188],[-89.6692,15.8877],[-89.6504,15.8882],[-89.634,15.8997],[-89.5612,15.8922],[-89.5206,15.8993],[-89.5155,15.8952],[-89.5124,15.8421],[-89.4633,15.8583],[-89.4384,15.8486],[-89.3963,15.8613],[-89.4238,15.8258],[-89.4593,15.8123],[-89.4814,15.7743],[-89.5306,15.748],[-89.6614,15.5609],[-89.5881,15.4812],[-89.6078,15.4412],[-89.6383,15.4229],[-89.6473,15.3057],[-89.6462,15.2873],[-89.6265,15.2507],[-89.6298,15.2193],[-89.6055,15.1799],[-89.6747,15.1643],[-89.7066,15.1664],[-89.7703,15.157],[-89.817,15.1724],[-89.8401,15.1732],[-89.9072,15.1524],[-89.973,15.1565],[-89.9288,15.2179],[-89.9181,15.2471],[-89.9217,15.2666],[-89.9521,15.2885],[-89.997,15.2849],[-90.0388,15.2702],[-90.078,15.2688],[-90.2488,15.2957],[-90.2598,15.2822],[-90.2686,15.2451],[-90.2962,15.2129],[-90.3103,15.2071],[-90.3789,15.2543],[-90.4005,15.261],[-90.5038,15.2622],[-90.4785,15.3106],[-90.4776,15.331],[-90.4935,15.3397],[-90.6508,15.3631],[-90.682,15.375],[-90.7027,15.3944],[-90.7098,15.4266],[-90.7056,15.4423],[-90.6401,15.4589],[-90.6481,15.4763],[-90.6145,15.5032],[-90.597,15.526],[-90.6255,15.5821],[-90.6406,15.5924],[-90.6319,15.6086],[-90.6327,15.6229],[-90.6617,15.6476],[-90.6543,15.6544],[-90.6716,15.6608],[-90.689,15.6544],[-90.7806,15.6789],[-90.7882,15.6884],[-90.7845,15.6997],[-90.771,15.709],[-90.7915,15.7233],[-90.7915,15.7295],[-90.7772,15.737],[-90.7933,15.7508],[-90.8181,15.7506],[-90.7846,15.7984],[-90.7672,15.8394],[-90.743,15.8486],[-90.7326,15.8681],[-90.7386,15.8853],[-90.7635,15.8878],[-90.7538,15.921],[-90.7362,15.9424],[-90.7437,15.9561],[-90.7505,15.9493],[-90.7635,15.9697],[-90.7232,15.9902],[-90.7128,15.9763],[-90.7058,15.9803],[-90.7042,15.9982],[-90.6953,16.0039],[-90.7027,16.0175],[-90.6601,16.0398],[-90.6343,16.0452],[-90.6201,16.0312],[-90.6133,16.0312],[-90.6055,16.0429],[-90.5928,16.0386],[-90.5928,16.0312],[-90.6071,16.025],[-90.6071,16.0175],[-90.5903,16.0184],[-90.5581,15.9977],[-90.5444,16.0107],[-90.5416,16.0043],[-90.5382,16.0107],[-90.531,16.004],[-90.524,16.0107],[-90.5067,16.0062],[-90.4874,16.018],[-90.4693,16.0107],[-90.4625,16.025],[-90.4505,16.0207],[-90.436,16.034],[-90.442,16.0448],[-90.4315,16.0655],[-90.4482,16.0793]]]}},{"type":"Feature","properties":{"id":"GTM-1959","code":"GT-IZ","name":"Izabal","name_ko":"이사발","name_en":"Izabal","name_ja":"イサバル県","name_zh":"伊萨瓦尔省","name_es":"Izabal","name_fr":"Izabal","name_de":"Izabal","name_ru":"Исабаль","name_pt":"Izabal","name_vi":"Izabal"},"geometry":{"type":"Polygon","coordinates":[[[-88.2209,15.7257],[-88.2326,15.7214],[-88.2416,15.6882],[-88.2478,15.6957],[-88.2956,15.675],[-88.3167,15.6746],[-88.3526,15.6169],[-88.399,15.5728],[-88.9734,15.1404],[-89.1098,15.0915],[-89.1469,15.0713],[-89.1812,15.1026],[-89.1982,15.1997],[-89.1972,15.2104],[-89.1806,15.218],[-89.1737,15.2283],[-89.1716,15.269],[-89.1837,15.2835],[-89.2099,15.2976],[-89.2505,15.3029],[-89.2737,15.298],[-89.3143,15.2721],[-89.4313,15.2264],[-89.5647,15.1846],[-89.6055,15.1799],[-89.6298,15.2193],[-89.6274,15.2549],[-89.6471,15.2907],[-89.6383,15.4229],[-89.6078,15.4412],[-89.5881,15.4812],[-89.6614,15.5609],[-89.5306,15.748],[-89.4814,15.7743],[-89.4569,15.8143],[-89.434,15.818],[-89.4238,15.8258],[-89.3963,15.8613],[-89.3807,15.8716],[-89.3695,15.9016],[-89.358,15.9129],[-89.2425,15.9115],[-89.2282,15.8808],[-89.1774,15.9003],[-89.1009,15.8968],[-89.0403,15.9017],[-88.9519,15.8797],[-88.914,15.8939],[-88.8662,15.8603],[-88.8316,15.8686],[-88.7873,15.8591],[-88.7533,15.8398],[-88.7495,15.8188],[-88.7268,15.8152],[-88.626,15.7539],[-88.6362,15.7021],[-88.6092,15.7021],[-88.5984,15.7061],[-88.5952,15.7147],[-88.6055,15.7431],[-88.5822,15.745],[-88.5743,15.77],[-88.5503,15.7983],[-88.5577,15.8529],[-88.5503,15.8529],[-88.5503,15.8393],[-88.5321,15.8468],[-88.503,15.8414],[-88.4888,15.8467],[-88.5248,15.877],[-88.5433,15.8852],[-88.5645,15.915],[-88.6076,15.9384],[-88.6199,15.9533],[-88.6055,15.9696],[-88.5503,15.9423],[-88.5212,15.9127],[-88.4479,15.8587],[-88.3448,15.812],[-88.2563,15.7404],[-88.2209,15.7257]]]}},{"type":"Feature","properties":{"id":"GTM-1963","code":"GT-ZA","name":"Zacapa","name_ko":"사카파","name_en":"Zacapa","name_ja":"サカパ県","name_zh":"萨卡帕省","name_es":"Zacapa","name_fr":"Zacapa","name_de":"Zacapa","name_ru":"Сакапа","name_pt":"Zacapa","name_vi":"Zacapa"},"geometry":{"type":"Polygon","coordinates":[[[-89.1469,15.0713],[-89.1728,15.0422],[-89.1886,14.9961],[-89.1691,14.9784],[-89.1692,14.9521],[-89.1892,14.9131],[-89.2126,14.9493],[-89.2475,14.9355],[-89.2743,14.9096],[-89.2862,14.9058],[-89.3198,14.9197],[-89.3854,14.9035],[-89.4293,14.9192],[-89.4487,14.9138],[-89.5091,14.8667],[-89.5243,14.8632],[-89.5926,14.8675],[-89.6704,14.9011],[-89.7104,14.8673],[-89.7127,14.8214],[-89.7364,14.7799],[-89.7904,14.7853],[-89.8417,14.8598],[-89.8116,14.9011],[-89.7687,14.9095],[-89.7646,14.934],[-89.7971,14.9482],[-89.8518,15.0228],[-89.8439,15.0289],[-89.7956,15.0298],[-89.7966,15.0433],[-89.878,15.1599],[-89.8401,15.1732],[-89.817,15.1724],[-89.7703,15.157],[-89.7066,15.1664],[-89.6747,15.1643],[-89.5647,15.1846],[-89.4313,15.2264],[-89.3143,15.2721],[-89.2737,15.298],[-89.2505,15.3029],[-89.2199,15.2999],[-89.1866,15.2853],[-89.1716,15.269],[-89.1737,15.2283],[-89.1806,15.218],[-89.1972,15.2104],[-89.1982,15.1997],[-89.1812,15.1026],[-89.1469,15.0713]]]}},{"type":"Feature","properties":{"id":"GTM-1946","code":"GT-RE","name":"Retalhuleu","name_ko":"레탈룰레우","name_en":"Retalhuleu","name_ja":"レタルレウ県","name_zh":"雷塔卢莱乌省","name_es":"Retalhuleu","name_fr":"Retalhuleu","name_de":"Retalhuleu","name_ru":"Реталулеу","name_pt":"Retalhuleu","name_vi":"Retalhuleu"},"geometry":{"type":"Polygon","coordinates":[[[-91.6585,14.1173],[-91.7626,14.1802],[-91.9082,14.2838],[-92.0496,14.408],[-92.1607,14.4901],[-92.1385,14.4897],[-92.1075,14.5082],[-92.074,14.5036],[-92.0552,14.5198],[-92.0009,14.5391],[-91.9267,14.5117],[-91.8558,14.5235],[-91.8148,14.5799],[-91.761,14.6965],[-91.7252,14.7135],[-91.6943,14.7395],[-91.6811,14.7344],[-91.6997,14.6716],[-91.6739,14.6624],[-91.666,14.662],[-91.6483,14.6803],[-91.63,14.6765],[-91.6046,14.7067],[-91.5757,14.7009],[-91.5384,14.7204],[-91.5105,14.713],[-91.5659,14.6583],[-91.5689,14.6156],[-91.6084,14.5371],[-91.6162,14.4661],[-91.5993,14.428],[-91.6031,14.3357],[-91.6278,14.2778],[-91.6356,14.2088],[-91.6652,14.1654],[-91.6585,14.1173]]]}},{"type":"Feature","properties":{"id":"GTM-1952","code":"GT-SU","name":"Suchitepéquez","name_ko":"수치테페케스","name_en":"Suchitepéquez","name_ja":"スチテペケス県","name_zh":"苏奇特佩克斯省","name_es":"Suchitepéquez","name_fr":"Suchitepéquez","name_de":"Suchitepéquez","name_ru":"Сучитепекес","name_pt":"Suchitepéquez","name_vi":"Suchitepéquez"},"geometry":{"type":"Polygon","coordinates":[[[-91.5519,14.0573],[-91.6585,14.1173],[-91.6652,14.1654],[-91.6356,14.2088],[-91.6278,14.2778],[-91.6031,14.3357],[-91.5993,14.428],[-91.6162,14.4661],[-91.6084,14.5371],[-91.5689,14.6156],[-91.5697,14.6494],[-91.5632,14.6623],[-91.5105,14.713],[-91.4697,14.7396],[-91.4481,14.688],[-91.4766,14.6299],[-91.4619,14.6162],[-91.403,14.6065],[-91.3966,14.6462],[-91.3779,14.6588],[-91.3552,14.6513],[-91.343,14.6376],[-91.3026,14.6405],[-91.2586,14.5993],[-91.2542,14.5554],[-91.2288,14.5571],[-91.2011,14.5713],[-91.1819,14.5721],[-91.1531,14.5595],[-91.1141,14.5304],[-91.0972,14.513],[-91.0972,14.4676],[-91.1462,14.3569],[-91.1515,14.2994],[-91.1711,14.272],[-91.2941,14.282],[-91.2891,14.3059],[-91.3,14.3164],[-91.3263,14.2919],[-91.3466,14.2943],[-91.358,14.3043],[-91.3571,14.3247],[-91.3652,14.3392],[-91.3564,14.3612],[-91.3729,14.3807],[-91.4142,14.3554],[-91.4236,14.3304],[-91.4154,14.2937],[-91.4327,14.2865],[-91.448,14.3065],[-91.4599,14.297],[-91.4569,14.1899],[-91.5298,14.0822],[-91.5285,14.0483],[-91.5519,14.0573]]]}},{"type":"Feature","properties":{"id":"GTM-1950","code":"GT-ES","name":"Escuintla","name_ko":"에스쿠인틀라","name_en":"Escuintla","name_ja":"エスクィントラ県","name_zh":"埃斯昆特拉省","name_es":"Escuintla","name_fr":"Escuintla","name_de":"Escuintla","name_ru":"Эскуинтла","name_pt":"Escuintla","name_vi":"Escuintla"},"geometry":{"type":"Polygon","coordinates":[[[-90.6273,13.9207],[-90.7073,13.9289],[-90.9103,13.9111],[-91.0437,13.9136],[-91.1658,13.9267],[-91.3165,13.9557],[-91.5519,14.0573],[-91.5285,14.0483],[-91.5298,14.0822],[-91.4569,14.1899],[-91.4622,14.2779],[-91.4583,14.3003],[-91.448,14.3065],[-91.4299,14.2857],[-91.4154,14.2937],[-91.4231,14.3241],[-91.4212,14.345],[-91.3811,14.3782],[-91.3691,14.3792],[-91.3583,14.3662],[-91.3563,14.3574],[-91.3652,14.3392],[-91.3571,14.3247],[-91.358,14.3043],[-91.3466,14.2943],[-91.3263,14.2919],[-91.3,14.3164],[-91.2891,14.3059],[-91.2941,14.282],[-91.1711,14.272],[-91.1515,14.2994],[-91.1462,14.3569],[-91.1113,14.4304],[-91.0857,14.4153],[-91.0469,14.4284],[-91.016,14.4087],[-90.9907,14.4216],[-90.9785,14.3828],[-90.9713,14.3863],[-90.9381,14.4494],[-90.8905,14.4893],[-90.8531,14.4561],[-90.8202,14.4049],[-90.7736,14.4533],[-90.7485,14.4593],[-90.7378,14.4702],[-90.7272,14.4695],[-90.7147,14.444],[-90.6505,14.4687],[-90.6377,14.4315],[-90.623,14.4189],[-90.5964,14.4151],[-90.5922,14.4018],[-90.5863,14.3173],[-90.5649,14.2562],[-90.5857,14.2311],[-90.5872,14.2124],[-90.5607,14.2071],[-90.532,14.2138],[-90.5157,14.2025],[-90.5443,14.1722],[-90.5785,14.1613],[-90.5784,14.1474],[-90.5562,14.1182],[-90.5824,14.0965],[-90.593,14.0726],[-90.6208,14.0651],[-90.6271,14.0559],[-90.6273,13.9207]]]}},{"type":"Feature","properties":{"id":"GTM-1957","code":"GT-SR","name":"Santa Rosa","name_ko":"산타로사","name_en":"Santa Rosa","name_ja":"サンタ・ローサ県","name_zh":"圣罗萨省","name_es":"Santa Rosa","name_fr":"Santa Rosa","name_de":"Santa Rosa","name_ru":"Санта-Роса","name_pt":"Santa Rosa","name_vi":"Santa Rosa"},"geometry":{"type":"Polygon","coordinates":[[[-90.2406,13.7887],[-90.5002,13.8947],[-90.6273,13.9207],[-90.6271,14.0559],[-90.6208,14.0651],[-90.593,14.0726],[-90.5824,14.0965],[-90.5562,14.1182],[-90.5784,14.1474],[-90.5785,14.1613],[-90.5443,14.1722],[-90.5157,14.2025],[-90.532,14.2138],[-90.5607,14.2071],[-90.5872,14.2124],[-90.5797,14.2424],[-90.5097,14.2884],[-90.474,14.3024],[-90.4438,14.3286],[-90.4478,14.3879],[-90.4294,14.4335],[-90.3883,14.4965],[-90.3596,14.5025],[-90.3498,14.4781],[-90.3141,14.5059],[-90.2852,14.5143],[-90.2646,14.4948],[-90.128,14.5191],[-90.114,14.4818],[-90.0519,14.4335],[-90.0699,14.3785],[-90.084,14.3769],[-90.082,14.3548],[-90.1052,14.3585],[-90.14,14.3518],[-90.1555,14.3389],[-90.1911,14.2529],[-90.1766,14.2427],[-90.1245,14.2277],[-90.0583,14.1697],[-90.0505,14.0951],[-90.0771,14.0454],[-90.1192,14.027],[-90.1411,13.9873],[-90.1567,13.9768],[-90.2185,13.991],[-90.266,14.0227],[-90.2902,14.0133],[-90.292,13.9952],[-90.2786,13.9747],[-90.2714,13.9334],[-90.2585,13.9207],[-90.2308,13.85],[-90.2406,13.7887]]]}},{"type":"Feature","properties":{"id":"GTM-1949","code":"GT-CM","name":"Chimaltenango","name_ko":"치말테낭고","name_en":"Chimaltenango","name_ja":"チマルテナンゴ県","name_zh":"奇马尔特南戈省","name_es":"Chimaltenango","name_fr":"Chimaltenango","name_de":"Chimaltenango","name_ru":"Чимальтенанго","name_pt":"Chimaltenango","name_vi":"Khu vực hành chính Chimaltenango"},"geometry":{"type":"Polygon","coordinates":[[[-90.7652,14.7779],[-90.7838,14.7377],[-90.7719,14.6709],[-90.7941,14.6307],[-90.8193,14.6129],[-90.8644,14.5642],[-90.8861,14.5237],[-90.8905,14.4893],[-90.945,14.4409],[-90.9713,14.3863],[-90.9785,14.3828],[-90.9828,14.3883],[-90.9907,14.4216],[-91.016,14.4087],[-91.0469,14.4284],[-91.0857,14.4153],[-91.1113,14.4304],[-91.0972,14.4676],[-91.0954,14.5032],[-91.0972,14.513],[-91.1141,14.5304],[-91.1057,14.6324],[-91.0741,14.7004],[-91.0762,14.7219],[-91.0688,14.7448],[-91.0874,14.8263],[-91.0535,14.8449],[-91.0246,14.9166],[-90.9772,14.9386],[-90.8529,14.9419],[-90.8051,14.9282],[-90.7367,14.926],[-90.6576,14.9039],[-90.6685,14.875],[-90.7318,14.8449],[-90.7469,14.8051],[-90.7652,14.7779]]]}},{"type":"Feature","properties":{"id":"GTM-1953","code":"GT-SA","name":"Sacatepéquez","name_ko":"사카테페케스","name_en":"Sacatepéquez","name_ja":"サカテペケス県","name_zh":"萨卡特佩克斯省","name_es":"Sacatepéquez","name_fr":"Sacatepéquez","name_de":"Sacatepéquez","name_ru":"Сакатепекес","name_pt":"Sacatepéquez","name_vi":"Sacatepéquez"},"geometry":{"type":"Polygon","coordinates":[[[-90.8905,14.4893],[-90.8861,14.5237],[-90.8644,14.5642],[-90.8193,14.6129],[-90.7941,14.6307],[-90.7719,14.6709],[-90.7838,14.7377],[-90.7652,14.7779],[-90.7288,14.7498],[-90.6916,14.7488],[-90.6513,14.702],[-90.6425,14.6734],[-90.6182,14.6453],[-90.6211,14.6079],[-90.6346,14.5866],[-90.6505,14.4687],[-90.7147,14.444],[-90.7272,14.4695],[-90.7378,14.4702],[-90.7485,14.4593],[-90.7736,14.4533],[-90.8202,14.4049],[-90.8531,14.4561],[-90.8905,14.4893]]]}},{"type":"Feature","properties":{"id":"GTM-1951","code":"GT-GU","name":"Guatemala","name_ko":"과테말라","name_en":"Guatemala","name_ja":"グアテマラ県","name_zh":"瓜地马拉省","name_es":"Guatemala","name_fr":"Guatemala","name_de":"Guatemala","name_ru":"Гватемала","name_pt":"Guatemala","name_vi":"Guatemala"},"geometry":{"type":"Polygon","coordinates":[[[-90.7098,14.7475],[-90.7288,14.7498],[-90.7652,14.7779],[-90.7469,14.8051],[-90.7318,14.8449],[-90.6685,14.875],[-90.6576,14.9039],[-90.622,14.8913],[-90.6071,14.8941],[-90.5942,14.8835],[-90.564,14.8849],[-90.4972,14.9078],[-90.4898,14.9078],[-90.4775,14.8942],[-90.4563,14.8941],[-90.4431,14.8975],[-90.4284,14.914],[-90.4121,14.917],[-90.3999,14.899],[-90.4176,14.8709],[-90.4133,14.8559],[-90.4006,14.8512],[-90.3574,14.8573],[-90.344,14.8436],[-90.3311,14.7941],[-90.3446,14.7658],[-90.3388,14.751],[-90.3085,14.7223],[-90.2502,14.7017],[-90.2091,14.6743],[-90.2228,14.6448],[-90.2658,14.6115],[-90.2721,14.5721],[-90.2827,14.5502],[-90.2852,14.5143],[-90.3141,14.5059],[-90.3498,14.4781],[-90.3596,14.5025],[-90.3883,14.4965],[-90.4294,14.4335],[-90.4478,14.3879],[-90.4438,14.3286],[-90.474,14.3024],[-90.5097,14.2884],[-90.5364,14.2662],[-90.5649,14.2562],[-90.5863,14.3173],[-90.5856,14.3504],[-90.5964,14.4151],[-90.623,14.4189],[-90.6377,14.4315],[-90.6505,14.4687],[-90.6346,14.5866],[-90.6211,14.6079],[-90.6182,14.6453],[-90.6425,14.6734],[-90.6513,14.702],[-90.6815,14.7395],[-90.6916,14.7488],[-90.7098,14.7475]]]}},{"type":"Feature","properties":{"id":"GTM-1961","code":"GT-JA","name":"Jalapa","name_ko":"할라파","name_en":"Jalapa","name_ja":"ハラパ県","name_zh":"哈拉帕省","name_es":"Jalapa","name_fr":"Jalapa","name_de":"Jalapa","name_ru":"Халапа","name_pt":"Jalapa","name_vi":"Jalapa"},"geometry":{"type":"Polygon","coordinates":[[[-90.2852,14.5143],[-90.2827,14.5502],[-90.2721,14.5721],[-90.2658,14.6115],[-90.2228,14.6448],[-90.2091,14.6743],[-90.1842,14.6869],[-90.1775,14.707],[-90.1135,14.7303],[-90.0735,14.7224],[-90.0386,14.7826],[-89.9818,14.7932],[-89.9224,14.8193],[-89.874,14.8738],[-89.834,14.8765],[-89.8417,14.8598],[-89.7937,14.7857],[-89.689,14.7823],[-89.6708,14.7706],[-89.665,14.7484],[-89.6689,14.7213],[-89.6602,14.6957],[-89.6996,14.5776],[-89.6855,14.5776],[-89.6784,14.5422],[-89.7623,14.5005],[-89.7891,14.5234],[-89.8157,14.5195],[-89.8716,14.4829],[-89.88,14.4709],[-89.8853,14.4365],[-89.9298,14.4706],[-89.9426,14.4738],[-89.9607,14.4693],[-89.9886,14.4343],[-90.0519,14.4335],[-90.114,14.4818],[-90.128,14.5191],[-90.2646,14.4948],[-90.2852,14.5143]]]}},{"type":"Feature","properties":{"id":"GTM-1956","code":"GT-PR","name":"El Progreso","name_ko":"엘프로그레소","name_en":"El Progreso","name_ja":"エル・プログレソ県","name_zh":"普罗格雷索省","name_es":"El Progreso","name_fr":"El Progreso","name_de":"El Progreso","name_ru":"Эль-Прогресо","name_pt":"El Progreso","name_vi":"El Progreso"},"geometry":{"type":"Polygon","coordinates":[[[-90.4006,14.8512],[-90.4133,14.8559],[-90.4176,14.8709],[-90.3999,14.899],[-90.3874,14.8873],[-90.3543,14.8815],[-90.3034,14.8896],[-90.2826,14.9545],[-89.973,15.1565],[-89.9238,15.1511],[-89.878,15.1599],[-89.7966,15.0433],[-89.7956,15.0298],[-89.8439,15.0289],[-89.8518,15.0228],[-89.7971,14.9482],[-89.7646,14.934],[-89.7687,14.9095],[-89.8116,14.9011],[-89.834,14.8765],[-89.874,14.8738],[-89.9224,14.8193],[-89.9818,14.7932],[-90.0386,14.7826],[-90.0735,14.7224],[-90.1135,14.7303],[-90.1472,14.7193],[-90.1775,14.707],[-90.1842,14.6869],[-90.2091,14.6743],[-90.2502,14.7017],[-90.3085,14.7223],[-90.3388,14.751],[-90.3446,14.7658],[-90.3311,14.7941],[-90.3501,14.8549],[-90.4006,14.8512]]]}},{"type":"Feature","properties":{"id":"GTM-1954","code":"GT-SO","name":"Sololá","name_ko":"솔롤라","name_en":"Sololá","name_ja":"ソロラ県","name_zh":"索洛拉省","name_es":"Sololá","name_fr":"Sololá","name_de":"Sololá","name_ru":"Солола","name_pt":"Sololá","name_vi":"Sololá"},"geometry":{"type":"Polygon","coordinates":[[[-91.0874,14.8263],[-91.0688,14.7448],[-91.0762,14.7219],[-91.0741,14.7004],[-91.1057,14.6324],[-91.1141,14.5304],[-91.1531,14.5595],[-91.1819,14.5721],[-91.2011,14.5713],[-91.2288,14.5571],[-91.2542,14.5554],[-91.2586,14.5993],[-91.3055,14.6413],[-91.343,14.6376],[-91.3552,14.6513],[-91.384,14.6568],[-91.3966,14.6462],[-91.403,14.6065],[-91.4619,14.6162],[-91.4766,14.6299],[-91.4481,14.688],[-91.4697,14.7396],[-91.4405,14.7785],[-91.4283,14.8176],[-91.3787,14.8588],[-91.3581,14.8633],[-91.3131,14.854],[-91.2787,14.8626],[-91.2407,14.8567],[-91.2296,14.86],[-91.183,14.9107],[-91.1708,14.9051],[-91.1563,14.8753],[-91.1167,14.8573],[-91.1333,14.831],[-91.1271,14.8074],[-91.1165,14.8095],[-91.1039,14.832],[-91.0874,14.8263]]]}},{"type":"Feature","properties":{"id":"GTM-1945","code":"GT-QZ","name":"Quezaltenango","name_ko":"케트살테낭고","name_en":"Quetzaltenango","name_ja":"ケツァルテナンゴ県","name_zh":"克萨尔特南戈省","name_es":"Quetzaltenango","name_fr":"Quetzaltenango","name_de":"Quetzaltenango","name_ru":"Кесальтенанго","name_pt":"Quetzaltenango","name_vi":"Quetzaltenango"},"geometry":{"type":"Polygon","coordinates":[[[-91.4283,14.8176],[-91.4405,14.7785],[-91.4697,14.7396],[-91.5105,14.713],[-91.5384,14.7204],[-91.5757,14.7009],[-91.6046,14.7067],[-91.63,14.6765],[-91.6483,14.6803],[-91.666,14.662],[-91.6997,14.6716],[-91.6826,14.7222],[-91.6839,14.739],[-91.7001,14.7369],[-91.7252,14.7135],[-91.761,14.6965],[-91.8148,14.5799],[-91.8558,14.5235],[-91.9267,14.5117],[-92.0009,14.5391],[-92.0166,14.5309],[-92.0495,14.6164],[-92.1198,14.6255],[-92.138,14.636],[-92.0997,14.6804],[-92.0608,14.7075],[-91.9515,14.7361],[-91.8607,14.728],[-91.8321,14.7385],[-91.8168,14.7648],[-91.7929,14.7867],[-91.7558,14.8607],[-91.7365,14.9338],[-91.7208,14.9418],[-91.6834,14.9802],[-91.6733,15.0332],[-91.6774,15.0493],[-91.6964,15.0648],[-91.7084,15.0925],[-91.6991,15.1224],[-91.6799,15.1494],[-91.6207,15.2019],[-91.6161,15.2209],[-91.5489,15.204],[-91.5414,15.1981],[-91.5384,15.179],[-91.5188,15.156],[-91.5919,15.1285],[-91.5888,15.0914],[-91.5602,14.9859],[-91.536,14.9616],[-91.5365,14.9316],[-91.5178,14.9093],[-91.4705,14.9102],[-91.4589,14.8607],[-91.4283,14.8176]]]}},{"type":"Feature","properties":{"id":"GTM-1942","code":"GT-BV","name":"Baja Verapaz","name_ko":"바하베라파스","name_en":"Baja Verapaz","name_ja":"バハ・ベラパス県","name_zh":"下维拉帕斯省","name_es":"Baja Verapaz","name_fr":"Baja Verapaz","name_de":"Baja Verapaz","name_ru":"Баха-Верапас","name_pt":"Baja Verapaz","name_vi":"Baja Verapaz"},"geometry":{"type":"Polygon","coordinates":[[[-90.3999,14.899],[-90.4121,14.917],[-90.4284,14.914],[-90.4431,14.8975],[-90.4563,14.8941],[-90.4775,14.8942],[-90.4898,14.9078],[-90.4972,14.9078],[-90.5388,14.89],[-90.5942,14.8835],[-90.6071,14.8941],[-90.622,14.8913],[-90.6576,14.9039],[-90.6735,14.939],[-90.7122,14.9738],[-90.7073,15.0002],[-90.7972,15.0549],[-90.8719,15.1485],[-90.8657,15.2568],[-90.6916,15.2149],[-90.5744,15.21],[-90.5413,15.2125],[-90.5038,15.2622],[-90.4005,15.261],[-90.3789,15.2543],[-90.3103,15.2071],[-90.2962,15.2129],[-90.2686,15.2451],[-90.2598,15.2822],[-90.2488,15.2957],[-90.078,15.2688],[-90.0388,15.2702],[-89.997,15.2849],[-89.9521,15.2885],[-89.9217,15.2666],[-89.9181,15.2471],[-89.9288,15.2179],[-89.973,15.1565],[-90.2826,14.9545],[-90.3034,14.8896],[-90.3543,14.8815],[-90.3874,14.8873],[-90.3999,14.899]]]}},{"type":"Feature","properties":{"id":"GTM-1955","code":"GT-TO","name":"Totonicapán","name_ko":"토토니카판","name_en":"Totonicapán","name_ja":"トトニカパン県","name_zh":"托托尼卡潘省","name_es":"Totonicapán","name_fr":"Totonicapán","name_de":"Totonicapán","name_ru":"Тотоникапан","name_pt":"Totonicapán","name_vi":"Totonicapán"},"geometry":{"type":"Polygon","coordinates":[[[-91.5111,14.9072],[-91.5365,14.9316],[-91.536,14.9616],[-91.5602,14.9859],[-91.5888,15.0914],[-91.5919,15.1285],[-91.5188,15.156],[-91.477,15.1618],[-91.4735,15.1927],[-91.4508,15.2264],[-91.3925,15.2412],[-91.3528,15.2628],[-91.3154,15.2632],[-91.3202,15.2171],[-91.3152,15.2016],[-91.2638,15.1576],[-91.2477,15.1107],[-91.2346,15.0972],[-91.2378,15.078],[-91.2685,15.0664],[-91.2744,15.0413],[-91.243,15.0174],[-91.2266,14.9807],[-91.2102,14.9696],[-91.2069,14.9577],[-91.2147,14.9349],[-91.183,14.9107],[-91.2296,14.86],[-91.2526,14.8558],[-91.2925,14.8626],[-91.3131,14.854],[-91.37,14.8617],[-91.4283,14.8176],[-91.4589,14.8607],[-91.4705,14.9102],[-91.5111,14.9072]]]}}]}