{"type":"FeatureCollection","features":[{"type":"Feature","properties":{"code":"HK-X16~","name":"North","name_ko":"노스","name_en":"North District","name_ja":"ノース","name_zh":"北","name_es":"Norte","name_fr":"Nord","name_de":"Norden","name_ru":"Северный район","name_pt":"Norte","name_vi":"Quận Bắc"},"geometry":{"type":"Polygon","coordinates":[[[114.1732,22.5639],[114.183,22.5562],[114.2347,22.5562],[114.21,22.5345],[114.2093,22.5237],[114.2304,22.5329],[114.242,22.5502],[114.2546,22.551],[114.2533,22.5395],[114.2592,22.5408],[114.27,22.5256],[114.278,22.5299],[114.2777,22.5117],[114.2892,22.5052],[114.2985,22.501],[114.3328,22.5119],[114.2972,22.4907],[114.2371,22.4907],[114.2278,22.4993],[114.2145,22.5001],[114.1825,22.4845],[114.1654,22.4845],[114.1638,22.4767],[114.1396,22.4681],[114.131,22.4735],[114.1021,22.4704],[114.0912,22.5196],[114.0824,22.5294],[114.1084,22.5344],[114.1171,22.5276],[114.1289,22.5381],[114.1487,22.5381],[114.162,22.5605],[114.1732,22.5639]]]}},{"type":"Feature","properties":{"code":"HK-X18~","name":"Islands","name_ko":"아일랜즈","name_en":"Lantau Island","name_ja":"アイランズ","name_zh":"群岛","name_es":"Islas","name_fr":"Islands","name_de":"Islands","name_ru":"район Айлендс","name_pt":"Islands","name_vi":"Li Đảo"},"geometry":{"type":"MultiPolygon","coordinates":[[[[114.1374,22.1788],[114.1109,22.1771],[114.1141,22.2161],[114.1043,22.216],[114.1067,22.2358],[114.1257,22.2134],[114.1328,22.2161],[114.1257,22.2052],[114.1546,22.2036],[114.1391,22.1911],[114.1454,22.1787],[114.1374,22.1788]]],[[[113.8464,22.1971],[113.8392,22.2049],[113.8392,22.2342],[113.8492,22.2342],[113.8492,22.2441],[113.8568,22.246],[113.8506,22.2567],[113.8768,22.2723],[113.8925,22.2927],[113.9215,22.2919],[113.9284,22.2849],[113.9619,22.3012],[113.9767,22.2981],[113.9956,22.3158],[114.0305,22.3162],[114.0296,22.309],[114.0127,22.3113],[114.0127,22.2981],[114.0221,22.3019],[114.0189,22.2646],[113.9954,22.2678],[114.0073,22.2521],[113.9924,22.2412],[114.015,22.2271],[114.0002,22.2161],[113.9819,22.2082],[113.9806,22.2373],[113.9456,22.2373],[113.9215,22.224],[113.9183,22.2192],[113.9284,22.2169],[113.9284,22.2108],[113.9191,22.205],[113.9063,22.204],[113.8925,22.2224],[113.8464,22.1971]]]]}},{"type":"Feature","properties":{"code":"HK-X04~","name":"Southern","name_ko":"사우던","name_en":"Southern District","name_ja":"サザン","name_zh":"南区","name_es":"Meridional","name_fr":"Sud","name_de":"Southern","name_ru":"Южный район","name_pt":"Sul","name_vi":"Quận Nam"},"geometry":{"type":"Polygon","coordinates":[[[114.2515,22.2489],[114.2453,22.2419],[114.2561,22.2036],[114.2437,22.2013],[114.2328,22.2115],[114.2295,22.2336],[114.2227,22.2388],[114.2168,22.2343],[114.2227,22.2325],[114.2227,22.2248],[114.2118,22.2161],[114.2195,22.1919],[114.2077,22.1896],[114.2093,22.2075],[114.2066,22.2124],[114.1914,22.2099],[114.1937,22.2255],[114.1827,22.2325],[114.1838,22.241],[114.1649,22.2279],[114.161,22.2404],[114.1291,22.2489],[114.1126,22.2715],[114.1271,22.2714],[114.1497,22.2574],[114.2309,22.2574],[114.2515,22.2489]]]}},{"type":"Feature","properties":{"code":"HK-X01~","name":"Central and Western","name_ko":"센트럴 앤 웨스턴","name_en":"Central and Western District","name_ja":"中西区","name_zh":"中西区","name_es":"Central y Occidental","name_fr":"Central and Western District","name_de":"Zentraler und westlicher Teil von Hong Kong Island","name_ru":"Центральный и западный","name_pt":"Distrito Central e Ocidental","name_vi":"Quận Trung Tây"},"geometry":{"type":"Polygon","coordinates":[[[114.1126,22.2715],[114.1157,22.2794],[114.1391,22.2887],[114.1657,22.2794],[114.1625,22.2582],[114.1497,22.2574],[114.1271,22.2714],[114.1126,22.2715]]]}},{"type":"Feature","properties":{"code":"HK-X02~","name":"Wan Chai","name_ko":"완 차이","name_en":"Wan Chai","name_ja":"湾仔","name_zh":"湾仔","name_es":"Wan Chai","name_fr":"Wan Chai","name_de":"Wan Chai","name_ru":"Ваньчай","name_pt":"Wan Chai","name_vi":"Loan Tể"},"geometry":{"type":"Polygon","coordinates":[[[114.1657,22.2794],[114.195,22.2738],[114.1888,22.2594],[114.1625,22.2582],[114.1657,22.2794]]]}},{"type":"Feature","properties":{"code":"HK-X03~","name":"Eastern","name_ko":"이스턴","name_en":"Siu Ma Shan","name_ja":"イースタン","name_zh":"东区","name_es":"Oriental","name_fr":"Este","name_de":"Östlicher Teil von Hong Kong Island","name_pt":"Leste","name_vi":"Quận Đông"},"geometry":{"type":"Polygon","coordinates":[[[114.1789,22.2794],[114.1968,22.2919],[114.2359,22.2778],[114.2515,22.2591],[114.2515,22.2489],[114.2309,22.2574],[114.1888,22.2594],[114.195,22.2738],[114.1789,22.2794]]]}},{"type":"Feature","properties":{"code":"HK-X13~","name":"Tsuen Wan","name_ko":"취엔 완","name_en":"Tsuen Wan","name_ja":"荃湾","name_zh":"荃湾","name_es":"Tsuen Wan","name_fr":"Tsuen Wan","name_de":"Tsuen Wan","name_ru":"Чхюньвань","name_pt":"Tsuen Wan","name_vi":"Thuyên Loan"},"geometry":{"type":"MultiPolygon","coordinates":[[[[113.9956,22.3158],[114.0173,22.3355],[114.0205,22.3285],[114.0438,22.3458],[114.0549,22.3363],[114.0502,22.3199],[114.0314,22.3246],[114.0305,22.3162],[113.9956,22.3158]]],[[[114.1125,22.3577],[114.1048,22.3699],[114.0975,22.363],[114.0791,22.366],[114.0205,22.3504],[114.0304,22.3635],[114.0218,22.3721],[114.0358,22.3822],[114.1708,22.4178],[114.1732,22.3963],[114.1505,22.3666],[114.1419,22.3799],[114.1341,22.3768],[114.1384,22.3637],[114.1125,22.3577]]]]}},{"type":"Feature","properties":{"code":"HK-X17~","name":"Tai Po","name_ko":"타이 포","name_en":"Tai Po","name_ja":"タイポー","name_zh":"大埔","name_es":"Tai Po","name_fr":"Tai Po","name_de":"Tai Po","name_ru":"Тайпоу","name_pt":"Tai Po","name_vi":"Đại Bộ"},"geometry":{"type":"MultiPolygon","coordinates":[[[[114.3328,22.5119],[114.3351,22.5064],[114.3054,22.483],[114.2804,22.4729],[114.2538,22.4518],[114.2459,22.4518],[114.2312,22.4698],[114.2118,22.4706],[114.2171,22.4479],[114.2022,22.4581],[114.1675,22.4481],[114.2053,22.4249],[114.1373,22.4119],[114.1256,22.4517],[114.1396,22.4681],[114.1638,22.4767],[114.1654,22.4845],[114.1825,22.4845],[114.2145,22.5001],[114.2278,22.4993],[114.2371,22.4907],[114.2972,22.4907],[114.3328,22.5119]]],[[[114.2515,22.4307],[114.2672,22.4307],[114.2726,22.4097],[114.2765,22.4198],[114.289,22.426],[114.2765,22.444],[114.3016,22.4565],[114.3008,22.465],[114.3237,22.48],[114.3307,22.4741],[114.325,22.4643],[114.3357,22.4617],[114.3381,22.4464],[114.3328,22.44],[114.3374,22.4316],[114.3428,22.4377],[114.3476,22.4229],[114.3523,22.4237],[114.3516,22.441],[114.3599,22.4612],[114.3678,22.455],[114.3643,22.4119],[114.3503,22.4033],[114.3183,22.4189],[114.2816,22.4002],[114.2512,22.3955],[114.2515,22.4307]]]]}},{"type":"Feature","properties":{"code":"HK-X11~","name":"Sha Tin","name_ko":"샤틴","name_en":"Sha Tin","name_ja":"沙田","name_zh":"沙田","name_es":"Sha Tin","name_fr":"Sha Tin","name_de":"Sha Tin","name_ru":"Шатин","name_pt":"Sha Tin","name_vi":"Sa Điền"},"geometry":{"type":"Polygon","coordinates":[[[114.2053,22.4249],[114.2149,22.4089],[114.2093,22.3987],[114.2382,22.4354],[114.2515,22.4307],[114.2512,22.3955],[114.2231,22.3557],[114.1595,22.3419],[114.1505,22.3666],[114.1732,22.3963],[114.1708,22.4178],[114.2053,22.4249]]]}},{"type":"Feature","properties":{"code":"HK-X10~","name":"Sai Kung","name_ko":"사이 쿵","name_en":"Sai Kung","name_ja":"西貢","name_zh":"西贡","name_es":"Sai Kung","name_fr":"Sai Kung","name_de":"Sai Kung","name_ru":"Сайкун","name_pt":"Sai Kung","name_vi":"Tây Công"},"geometry":{"type":"Polygon","coordinates":[[[114.3674,22.4463],[114.3702,22.44],[114.3998,22.4361],[114.4013,22.4127],[114.3818,22.4191],[114.3702,22.398],[114.375,22.4005],[114.3849,22.3874],[114.3897,22.366],[114.3764,22.3706],[114.3756,22.3535],[114.3609,22.3458],[114.3576,22.3324],[114.3523,22.3519],[114.342,22.3458],[114.3328,22.3598],[114.3343,22.3753],[114.3204,22.3808],[114.3186,22.3894],[114.3001,22.3816],[114.278,22.391],[114.2687,22.3784],[114.2798,22.355],[114.2765,22.348],[114.2672,22.3558],[114.2664,22.366],[114.2555,22.3559],[114.2658,22.3463],[114.2726,22.3207],[114.2913,22.3166],[114.2921,22.3052],[114.3039,22.3067],[114.3116,22.2973],[114.2977,22.2856],[114.289,22.2872],[114.2896,22.2739],[114.3001,22.277],[114.3032,22.2622],[114.2967,22.2583],[114.2783,22.2705],[114.2734,22.2958],[114.2648,22.3019],[114.2664,22.316],[114.2555,22.3223],[114.253,22.2958],[114.2434,22.2862],[114.2364,22.3011],[114.2418,22.3198],[114.2231,22.3557],[114.2512,22.3955],[114.2816,22.4002],[114.3183,22.4189],[114.3503,22.4033],[114.3643,22.4119],[114.3674,22.4463]]]}},{"type":"Feature","properties":{"code":"HK-X09~","name":"Kwun Tong","name_ko":"쿤 통","name_en":"Kwun Tong","name_ja":"観塘","name_zh":"观塘","name_es":"Kwun Tong","name_fr":"Kwun Tong","name_de":"Kwun Tong","name_ru":"Куньтхон","name_pt":"Kwun Tong","name_vi":"Quan Đường"},"geometry":{"type":"Polygon","coordinates":[[[114.2434,22.2862],[114.2389,22.2817],[114.2118,22.3106],[114.2052,22.3345],[114.234,22.3331],[114.2418,22.3198],[114.2364,22.3011],[114.2434,22.2862]]]}},{"type":"Feature","properties":{"code":"HK-X06~","name":"Kowloon City","name_ko":"코룽 시티","name_en":"Kowloon City","name_ja":"九龍市","name_zh":"九龙城","name_es":"Ciudad de Kowloon","name_fr":"Kowloon City","name_de":"Kowloon City","name_ru":"Коулун-Сити","name_pt":"Cidade de Kowloon","name_vi":"Cửu Long Thành"},"geometry":{"type":"Polygon","coordinates":[[[114.2118,22.3106],[114.2149,22.3012],[114.1955,22.3183],[114.1865,22.3087],[114.1914,22.2989],[114.1837,22.3019],[114.1765,22.2911],[114.1763,22.3362],[114.17,22.3448],[114.1856,22.348],[114.1934,22.3331],[114.2052,22.3345],[114.2118,22.3106]]]}},{"type":"Feature","properties":{"code":"HK-X05~","name":"Yau Tsim Mong","name_ko":"야우 침 몽","name_en":"Yau Tsim Mong","name_ja":"油尖旺区","name_zh":"油尖旺","name_es":"Yau Tsim Mong","name_fr":"Yau Tsim Mong","name_de":"Yau Tsim Mong","name_ru":"Яучимво́н","name_pt":"Yau Tsim Mong","name_vi":"Du Tiêm Vượng"},"geometry":{"type":"Polygon","coordinates":[[[114.1765,22.2911],[114.1672,22.2942],[114.1595,22.3223],[114.1753,22.3231],[114.1765,22.2911]]]}},{"type":"Feature","properties":{"code":"HK-X07~","name":"Sham Shui Po","name_ko":"샴 수이 포","name_en":"Sham Shui Po","name_ja":"深水埗","name_zh":"深水埗","name_es":"Sham Shui Po","name_fr":"Sham Shui Po","name_de":"Sham Shui Po","name_ru":"Шам Шуй По","name_pt":"Sham Shui Po","name_vi":"Thâm Thủy Bộ"},"geometry":{"type":"Polygon","coordinates":[[[114.1595,22.3223],[114.1457,22.332],[114.1483,22.3388],[114.17,22.3448],[114.1763,22.3362],[114.1753,22.3231],[114.1595,22.3223]]]}},{"type":"Feature","properties":{"code":"HK-X12~","name":"Kwai Tsing","name_ko":"콰이 칭","name_en":"Kwai Tsing","name_ja":"葵青区","name_zh":"葵青","name_es":"Kwai Tsing","name_fr":"Kwai Tsing","name_de":"Kwai Tsing","name_ru":"Кхуайчхин","name_pt":"Kwai Tsing","name_vi":"Quỳ Thanh"},"geometry":{"type":"Polygon","coordinates":[[[114.1457,22.332],[114.1244,22.3422],[114.1235,22.3371],[114.1125,22.3577],[114.1384,22.3637],[114.1341,22.3768],[114.1419,22.3799],[114.1595,22.3419],[114.1457,22.332]]]}},{"type":"Feature","properties":{"code":"HK-X14~","name":"Tuen Mun","name_ko":"툰 문","name_en":"Tuen Mun","name_ja":"屯門","name_zh":"屯门","name_es":"Tuen Mun","name_fr":"Tuen Mun","name_de":"Tuen Mun","name_ru":"Тхюньмунь","name_pt":"Tuen Mun","name_vi":"Truân Môn"},"geometry":{"type":"Polygon","coordinates":[[[114.0205,22.3504],[114.015,22.359],[113.9827,22.3668],[113.9706,22.3871],[113.9644,22.3807],[113.9746,22.3721],[113.9549,22.3699],[113.9448,22.3621],[113.926,22.3691],[113.9144,22.3761],[113.9183,22.3878],[113.897,22.4088],[113.9094,22.4186],[113.9307,22.4198],[113.941,22.4268],[113.9882,22.4041],[114.035,22.4041],[114.0358,22.3822],[114.0218,22.3721],[114.0304,22.3635],[114.0205,22.3504]]]}},{"type":"Feature","properties":{"code":"HK-X15~","name":"Yuen Long","name_ko":"위엔 롱","name_en":"Yuen Long","name_ja":"元朗","name_zh":"元朗","name_es":"Yuen Long","name_fr":"Yuen Long","name_de":"Yuen Long","name_ru":"Юньлон","name_pt":"Yuen Long","name_vi":"Nguyên Lãng"},"geometry":{"type":"Polygon","coordinates":[[[113.941,22.4268],[113.9541,22.4495],[113.9776,22.4588],[113.9986,22.4886],[114.0127,22.4861],[114.0112,22.4729],[114.0299,22.4783],[114.0306,22.4955],[114.0853,22.5229],[114.0912,22.5196],[114.1021,22.4704],[114.131,22.4735],[114.1396,22.4681],[114.1256,22.4517],[114.1373,22.4119],[114.0358,22.3822],[114.035,22.4041],[113.9882,22.4041],[113.941,22.4268]]]}},{"type":"Feature","properties":{"code":"HK-X08~","name":"Wong Tai Sin","name_ko":"웡 타이 신","name_en":"Wong Tai Sin District","name_ja":"黄大仙","name_zh":"黄大仙","name_es":"Wong Tai Sin","name_fr":"Wong Tai Sin","name_de":"Wong Tai Sin District","name_ru":"Вонтайсинь","name_pt":"Wong Tai Sin","name_vi":"Hoàng Đại Tiên"},"geometry":{"type":"Polygon","coordinates":[[[114.1934,22.3331],[114.1856,22.348],[114.2231,22.3557],[114.234,22.3331],[114.1934,22.3331]]]}}]}