{"type":"FeatureCollection","features":[{"type":"Feature","properties":{"id":"HMD+00?","code":"HM-X01~","name":"Heard Island and McDonald Islands","name_ko":"허드 아일랜드 앤 맥도날드 아일랜즈","name_en":"Heard Island and McDonald Islands","name_ja":"ハード島とマクドナルド諸島","name_zh":"赫德岛和麦克唐纳群岛","name_es":"Islas Heard y McDonald","name_fr":"Îles Heard et McDonald","name_de":"Heard und McDonaldinseln","name_ru":"остров Херд и острова́ Макдо́нальд","name_pt":"Ilha Heard e Ilhas McDonald","name_vi":"Đảo Heard và Quần đảo McDonald"},"geometry":{"type":"Polygon","coordinates":[[[73.7351,-53.1124],[73.7619,-53.1189],[73.8122,-53.1185],[73.6616,-53.1467],[73.6095,-53.1799],[73.5808,-53.1876],[73.4734,-53.1892],[73.4402,-53.1733],[73.4041,-53.1393],[73.3638,-53.0748],[73.3713,-53.0646],[73.3533,-53.0517],[73.3644,-53.0373],[73.3289,-53.0251],[73.271,-53.0217],[73.2537,-53.0151],[73.2417,-53.0022],[73.236,-52.982],[73.2694,-52.9753],[73.2969,-52.9616],[73.3775,-53.017],[73.3996,-52.991],[73.4265,-53.0032],[73.4129,-53.0094],[73.4256,-53.0253],[73.447,-53.0281],[73.488,-53.0094],[73.5077,-53.0153],[73.5642,-53.0168],[73.6326,-53.0441],[73.6995,-53.1008],[73.7351,-53.1124]]]}}]}