{"type":"FeatureCollection","features":[{"type":"Feature","properties":{"name":"Cocos","name_ko":"코코스 제도","code":"-99-X15~"},"geometry":{"type":"MultiPolygon","coordinates":[[[[96.8631,-12.1817],[96.8694,-12.1879],[96.8452,-12.1977],[96.8306,-12.1799],[96.8215,-12.1266],[96.8284,-12.1266],[96.8362,-12.1821],[96.8477,-12.1872],[96.8631,-12.1817]]],[[[96.9022,-12.2],[96.8885,-12.1874],[96.909,-12.1821],[96.9162,-12.1618],[96.9202,-12.185],[96.9022,-12.2]]]]}},{"type":"Feature","properties":{"name":"Christmas Island","name_ko":"크리스마스섬","code":"-99-X14~"},"geometry":{"type":"Polygon","coordinates":[[[105.7041,-10.4308],[105.7147,-10.4372],[105.6946,-10.5649],[105.6787,-10.566],[105.6641,-10.5185],[105.6282,-10.509],[105.585,-10.5164],[105.5818,-10.5048],[105.5923,-10.4985],[105.5996,-10.4806],[105.5942,-10.454],[105.6271,-10.4689],[105.6546,-10.4699],[105.6852,-10.4404],[105.7041,-10.4308]]]}}]}