{"type":"FeatureCollection","features":[{"type":"Feature","properties":{"id":"IOT+00?","code":"IO-X01~","name":"British Indian Ocean Territory","name_ko":"브리티시 인디안 오션 테리토리","name_en":"British Indian Ocean Territory","name_ja":"イギリス領インド洋地域","name_zh":"英属印度洋领地","name_es":"Territorio Británico del Océano Índico","name_fr":"Territoire britannique de l'océan Indien","name_de":"Britisches Territorium im Indischen Ozean","name_ru":"Британская территория в Индийском океане","name_pt":"Território Britânico do Oceano Índico","name_vi":"Lãnh thổ Anh tại Ấn Độ Dương"},"geometry":{"type":"MultiPolygon","coordinates":[[[[72.4675,-7.3839],[72.4803,-7.3647],[72.4846,-7.3759],[72.4806,-7.3906],[72.4329,-7.4322],[72.4269,-7.404],[72.4329,-7.3468],[72.426,-7.3229],[72.3792,-7.2968],[72.3577,-7.2683],[72.3709,-7.2702],[72.4329,-7.3161],[72.439,-7.3403],[72.4329,-7.4254],[72.4675,-7.3839]]],[[[72.4842,-7.2783],[72.4946,-7.2962],[72.4738,-7.34],[72.479,-7.3619],[72.468,-7.3406],[72.4865,-7.3024],[72.4772,-7.2784],[72.4397,-7.2267],[72.4842,-7.2783]]],[[[71.2614,-6.3886],[71.2673,-6.37],[71.2676,-6.3827],[71.2614,-6.3886]]],[[[71.3384,-6.1959],[71.347,-6.1822],[71.3605,-6.1773],[71.3511,-6.2003],[71.3447,-6.2048],[71.3384,-6.1959]]],[[[71.7732,-5.4402],[71.7624,-5.4317],[71.7717,-5.4334],[71.7732,-5.4402]]]]}}]}