{"type":"FeatureCollection","features":[{"type":"Feature","properties":{"code":"IL-D","name":"HaDarom","name_ko":"남부구","name_en":"Southern","name_ja":"南部地区","name_zh":"南部区","name_es":"Meridional","name_fr":"sud","name_de":"Südbezirk","name_ru":"Южный округ","name_pt":"Sul","name_vi":"Quận Nam"},"geometry":{"type":"Polygon","coordinates":[[[34.2484,31.2114],[34.3159,31.2569],[34.3509,31.2893],[34.3538,31.3064],[34.3458,31.3577],[34.3673,31.3928],[34.556,31.5398],[34.4812,31.5831],[34.6096,31.7655],[34.6659,31.8739],[34.6805,31.878],[34.7086,31.8739],[34.7113,31.8675],[34.7032,31.8319],[34.6745,31.8296],[34.6743,31.8216],[34.6905,31.8083],[34.6728,31.7941],[34.6737,31.7864],[34.7058,31.7801],[34.7273,31.7916],[34.7135,31.8069],[34.7383,31.8142],[34.7665,31.8014],[34.7865,31.7658],[34.8278,31.792],[34.8726,31.7521],[34.8729,31.6591],[34.9532,31.6083],[34.9373,31.582],[34.9268,31.4944],[34.8817,31.4299],[34.8672,31.3964],[34.8788,31.3628],[34.9009,31.3485],[34.9274,31.3449],[35.0402,31.3632],[35.1649,31.3623],[35.2233,31.381],[35.3323,31.4588],[35.3901,31.4871],[35.4585,31.4916],[35.4529,31.4008],[35.4165,31.3318],[35.4239,31.3246],[35.4223,31.303],[35.3957,31.2577],[35.4107,31.2046],[35.4362,31.1595],[35.4432,31.1322],[35.4385,31.1037],[35.3916,31.0239],[35.3853,30.9633],[35.3741,30.9451],[35.3349,30.9126],[35.3222,30.89],[35.3166,30.8228],[35.2795,30.7802],[35.2638,30.7198],[35.2053,30.6171],[35.14,30.4302],[35.14,30.4062],[35.1621,30.3614],[35.1418,30.314],[35.1252,30.2447],[35.1248,30.2161],[35.1453,30.1549],[35.1453,30.1234],[35.129,30.0897],[35.0863,30.034],[35.0541,29.9234],[35.049,29.8423],[35.0025,29.7331],[34.9898,29.652],[34.967,29.6081],[34.9513,29.5456],[34.9108,29.4899],[34.8867,29.4901],[34.8553,29.5457],[34.8482,29.5696],[34.8501,29.6388],[34.8244,29.7417],[34.7414,29.9402],[34.7332,30.0126],[34.5995,30.3445],[34.5269,30.4096],[34.5265,30.4387],[34.5362,30.4822],[34.5104,30.5133],[34.5044,30.5303],[34.5022,30.5717],[34.4804,30.6512],[34.3295,30.9945],[34.2484,31.2114]]]}},{"type":"Feature","properties":{"code":"IL-Z","name":"HaZafon","name_ko":"북부구","name_en":"Northern","name_ja":"北部地区","name_zh":"北部区","name_es":"Norte","name_fr":"nord","name_de":"Nordbezirk","name_ru":"Северный округ Израиля","name_pt":"Norte","name_vi":"Quận Bắc"},"geometry":{"type":"Polygon","coordinates":[[[35.561,32.3847],[35.4069,32.4148],[35.4018,32.471],[35.3929,32.4945],[35.3631,32.5101],[35.2704,32.5105],[35.2522,32.5159],[35.172,32.5732],[35.1186,32.529],[35.0823,32.5345],[35.0521,32.5541],[35.0539,32.5728],[35.0348,32.5851],[35.0249,32.6102],[35.0496,32.6096],[35.0357,32.6283],[35.0433,32.6423],[35.0752,32.6387],[35.0911,32.6618],[35.1081,32.6706],[35.1062,32.7062],[35.1208,32.6991],[35.1307,32.7059],[35.1324,32.7207],[35.1399,32.7272],[35.1389,32.7462],[35.1547,32.778],[35.1409,32.8124],[35.1426,32.8321],[35.102,32.8509],[35.1012,32.8723],[35.0874,32.8889],[35.0755,32.8931],[35.0778,32.9179],[35.0654,32.9231],[35.0785,32.9988],[35.0962,33.0504],[35.0921,33.0677],[35.1065,33.0808],[35.0996,33.0876],[35.1052,33.089],[35.1853,33.084],[35.2072,33.0948],[35.2345,33.0909],[35.2837,33.1012],[35.3058,33.0894],[35.3319,33.0572],[35.3452,33.0556],[35.4494,33.0852],[35.4801,33.0874],[35.5123,33.1474],[35.52,33.2222],[35.5495,33.281],[35.5612,33.2821],[35.585,33.2522],[35.6039,33.2401],[35.6181,33.2561],[35.6201,33.2695],[35.6521,33.2767],[35.6985,33.3227],[35.7437,33.3312],[35.7694,33.3426],[35.8211,33.4067],[35.8099,33.36],[35.7638,33.3344],[35.8021,33.3125],[35.7686,33.2727],[35.8036,33.2485],[35.8077,33.2017],[35.8302,33.19],[35.8334,33.1611],[35.8115,33.1268],[35.8115,33.1119],[35.8489,33.0987],[35.8458,33.0854],[35.859,32.9902],[35.8881,32.9449],[35.8497,32.8958],[35.8381,32.866],[35.8419,32.8536],[35.8342,32.8279],[35.7576,32.7443],[35.6852,32.7112],[35.636,32.6791],[35.6123,32.6816],[35.5605,32.6409],[35.5641,32.6255],[35.5725,32.6212],[35.5656,32.6075],[35.58,32.5604],[35.5744,32.5544],[35.5725,32.5604],[35.5656,32.5461],[35.5594,32.553],[35.5656,32.5256],[35.552,32.5256],[35.552,32.5188],[35.5614,32.5192],[35.58,32.4977],[35.5594,32.4704],[35.5725,32.4642],[35.5725,32.4567],[35.5594,32.4505],[35.5656,32.4437],[35.552,32.4362],[35.5594,32.4294],[35.552,32.4294],[35.5591,32.414],[35.5451,32.4096],[35.561,32.3847]]]}},{"type":"Feature","properties":{"code":"IL-HA","name":"Haifa","name_ko":"하이파구","name_en":"Haifa","name_ja":"ハイファ地区","name_zh":"海法区","name_es":"Haifa","name_fr":"Haïfa","name_de":"Bezirk Haifa","name_ru":"Хайфский округ","name_pt":"Haifa","name_vi":"Quận Haifa"},"geometry":{"type":"Polygon","coordinates":[[[35.2104,32.5419],[35.1908,32.5417],[35.1517,32.5079],[35.0644,32.4631],[35.0447,32.4341],[35.0327,32.3822],[35.0145,32.3826],[34.9825,32.4055],[34.8678,32.4075],[34.9421,32.7245],[34.9475,32.8142],[34.9556,32.8344],[34.9705,32.8414],[35.0034,32.8275],[35.0277,32.8266],[35.0628,32.8583],[35.0755,32.8931],[35.0874,32.8889],[35.1012,32.8723],[35.102,32.8509],[35.1426,32.8321],[35.1409,32.8124],[35.1547,32.778],[35.1389,32.7462],[35.1399,32.7272],[35.1324,32.7207],[35.1323,32.7087],[35.1225,32.6992],[35.1072,32.7075],[35.1081,32.6706],[35.0911,32.6618],[35.0752,32.6387],[35.0433,32.6423],[35.0357,32.6283],[35.0496,32.6096],[35.0298,32.6127],[35.0249,32.6079],[35.0348,32.5851],[35.0539,32.5728],[35.0521,32.5541],[35.0823,32.5345],[35.1226,32.5304],[35.172,32.5732],[35.2104,32.5419]]]}},{"type":"Feature","properties":{"code":"IL-M","name":"HaMerkaz","name_ko":"중부구","name_en":"Central","name_ja":"中央地区","name_zh":"中央区","name_es":"Central","name_fr":"centre","name_de":"Zentralbezirk","name_ru":"Центральный округ","name_pt":"Central","name_vi":"Quận Trung"},"geometry":{"type":"Polygon","coordinates":[[[35.0327,32.3822],[35.0216,32.3446],[35.0007,32.3357],[34.9966,32.323],[34.9899,32.2785],[35.0094,32.2676],[35.0076,32.2444],[35.0003,32.232],[34.9614,32.2016],[34.9582,32.1865],[34.9869,32.124],[34.9842,32.0896],[35.0072,32.0208],[34.9968,32.0111],[34.9978,31.9788],[34.9867,31.9672],[35.0077,31.9449],[35.0054,31.9338],[35.0299,31.9244],[35.039,31.9086],[35.0343,31.8611],[34.9592,31.854],[34.9213,31.8407],[34.8949,31.8094],[34.8278,31.792],[34.7865,31.7658],[34.7665,31.8014],[34.7383,31.8142],[34.7135,31.8069],[34.7273,31.7916],[34.7058,31.7801],[34.6737,31.7864],[34.6728,31.7941],[34.6905,31.8083],[34.6743,31.8216],[34.6745,31.8296],[34.7032,31.8319],[34.7113,31.8675],[34.7086,31.8739],[34.6846,31.878],[34.6659,31.8739],[34.7119,31.9516],[34.7339,32.0133],[34.7479,32.002],[34.8005,31.998],[34.8351,32.0209],[34.8557,32.0131],[34.8843,32.0254],[34.8683,32.0369],[34.861,32.0671],[34.8436,32.0841],[34.8471,32.1076],[34.8661,32.1393],[34.8647,32.1702],[34.836,32.1894],[34.8044,32.1925],[34.8377,32.2807],[34.8678,32.4075],[34.9825,32.4055],[35.0145,32.3826],[35.0327,32.3822]]]}},{"type":"Feature","properties":{"code":"IL-JM","name":"Jerusalem","name_ko":"예루살렘구","name_en":"Jerusalem","name_ja":"エルサレム地区","name_zh":"耶路撒冷区","name_es":"Jerusalén","name_fr":"Jérusalem","name_de":"Bezirk Jerusalem","name_ru":"Иерусалимский округ","name_pt":"Jerusalém","name_vi":"Quận Jerusalem"},"geometry":{"type":"Polygon","coordinates":[[[35.1862,31.8087],[35.1836,31.8251],[35.2158,31.8201],[35.2053,31.8773],[35.222,31.8792],[35.2334,31.8426],[35.25,31.8444],[35.2572,31.8386],[35.2516,31.8313],[35.2649,31.8263],[35.2559,31.8122],[35.2629,31.7897],[35.2527,31.7697],[35.2628,31.7486],[35.2525,31.7381],[35.2424,31.7109],[35.2053,31.7232],[35.1794,31.7201],[35.1667,31.7321],[35.149,31.7373],[35.1257,31.7331],[35.1142,31.7177],[35.0592,31.6768],[34.9736,31.6304],[34.9532,31.6083],[34.8729,31.6591],[34.8726,31.7521],[34.8278,31.792],[34.8887,31.8063],[34.9213,31.8407],[34.9713,31.8549],[34.9985,31.8538],[34.9774,31.8334],[35.0016,31.8285],[35.0275,31.8327],[35.056,31.8533],[35.0763,31.8542],[35.1125,31.824],[35.1214,31.8248],[35.137,31.8143],[35.1862,31.8087]]]}},{"type":"Feature","properties":{"code":"IL-TA","name":"Tel Aviv","name_ko":"텔아비브구","name_en":"Tel Aviv","name_ja":"テルアビブ地区","name_zh":"特拉维夫区","name_es":"Tel Aviv","name_fr":"Tel Aviv","name_de":"Bezirk Tel Aviv","name_ru":"Тель-Авивский округ","name_pt":"Tel Aviv","name_vi":"Quận Tel Aviv"},"geometry":{"type":"Polygon","coordinates":[[[34.7339,32.0133],[34.7433,32.0399],[34.7433,32.0604],[34.757,32.0666],[34.8044,32.1925],[34.836,32.1894],[34.8626,32.1728],[34.8661,32.1393],[34.8471,32.1076],[34.8436,32.0841],[34.861,32.0671],[34.8683,32.0369],[34.8843,32.0254],[34.8557,32.0131],[34.8351,32.0209],[34.8005,31.998],[34.7479,32.002],[34.7339,32.0133]]]}}]}