{"type":"FeatureCollection","features":[{"type":"Feature","properties":{"id":"KAB+00?","code":"-99-X05~","name":"Baykonur lease in Qyzylorda","name_ko":"바이코누르","name_en":"Baikonur","name_ja":"バイコヌール","name_zh":"拜科努尔","name_es":"Baikonur","name_fr":"Baïkonour","name_de":"Baikonur","name_ru":"Байконур","name_pt":"Baikonur","name_vi":"Baikonur"},"geometry":{"type":"Polygon","coordinates":[[[63.3839,46.3908],[63.5015,46.3824],[63.6109,46.3584],[63.6619,46.341],[63.7549,46.2967],[63.834,46.2407],[63.8967,46.175],[63.9409,46.101],[63.9641,46.0205],[63.9641,45.9362],[63.9409,45.8557],[63.8967,45.7817],[63.8676,45.7477],[63.7963,45.6866],[63.7099,45.6363],[63.6109,45.5983],[63.5015,45.5742],[63.3839,45.5658],[63.2664,45.5742],[63.1569,45.5983],[63.0578,45.6363],[62.9715,45.6866],[62.9003,45.7477],[62.8465,45.8178],[62.8125,45.8952],[62.8006,45.9783],[62.8036,46.0205],[62.8269,46.101],[62.871,46.175],[62.9339,46.2407],[63.0129,46.2967],[63.1059,46.341],[63.2105,46.3723],[63.3243,46.3887],[63.3839,46.3908]]]}}]}