{"type":"FeatureCollection","features":[{"type":"Feature","properties":{"id":"KAS+00?","code":"-99-X06~","name":"Kashmir","name_ko":"카슈미르","name_en":"Kashmir","name_ja":"カシミール","name_zh":"克什米尔","name_es":"Cachemira","name_fr":"Kashmir","name_de":"Kaschmir","name_ru":"Кашмир","name_pt":"Caxemira","name_vi":"Kashmir"},"geometry":{"type":"Polygon","coordinates":[[[77.049,35.1104],[76.7774,35.6461],[76.8246,35.6478],[76.843,35.6413],[76.8805,35.6007],[76.915,35.5832],[76.9764,35.5787],[77.039,35.585],[77.0582,35.5801],[77.1053,35.538],[77.1413,35.5254],[77.2811,35.528],[77.3837,35.472],[77.4128,35.4694],[77.5122,35.4785],[77.6606,35.4581],[77.6897,35.4627],[77.7603,35.4981],[77.8003,35.4954],[77.049,35.1104]]]}}]}