{"type":"FeatureCollection","features":[{"type":"Feature","properties":{"name":"Saint Paul Charlestown","name_ko":"세인트폴찰스타운구","code":"KN-10"},"geometry":{"type":"Polygon","coordinates":[[[-62.6216,17.1283],[-62.6264,17.1407],[-62.5968,17.1384],[-62.5786,17.1455],[-62.5922,17.1325],[-62.6216,17.1283]]]}},{"type":"Feature","properties":{"name":"Saint John Figtree","name_ko":"세인트존피그트리구","code":"KN-07"},"geometry":{"type":"Polygon","coordinates":[[[-62.5657,17.1005],[-62.6122,17.1042],[-62.6216,17.1283],[-62.5922,17.1325],[-62.5786,17.1455],[-62.5657,17.1005]]]}},{"type":"Feature","properties":{"name":"Saint George Gingerland","name_ko":"세인트조지진절랜드구","code":"KN-04"},"geometry":{"type":"Polygon","coordinates":[[[-62.537,17.1384],[-62.5436,17.1089],[-62.5657,17.1005],[-62.5786,17.1455],[-62.5624,17.15],[-62.537,17.1384]]]}},{"type":"Feature","properties":{"name":"Saint James Windward","name_ko":"세인트제임스윈드워드구","code":"KN-05"},"geometry":{"type":"Polygon","coordinates":[[[-62.6125,17.1891],[-62.5992,17.2029],[-62.5604,17.1967],[-62.5465,17.1838],[-62.537,17.1384],[-62.5624,17.15],[-62.5786,17.1455],[-62.5955,17.1773],[-62.6125,17.1891]]]}},{"type":"Feature","properties":{"name":"Saint Thomas Lowland","name_ko":"세인트토머스롤런드구","code":"KN-12"},"geometry":{"type":"Polygon","coordinates":[[[-62.6264,17.1407],[-62.6186,17.1828],[-62.6125,17.1891],[-62.5955,17.1773],[-62.5786,17.1455],[-62.5968,17.1384],[-62.6264,17.1407]]]}},{"type":"Feature","properties":{"name":"Saint Paul Capisterre","name_ko":"세인트폴카피스테르구","code":"KN-09"},"geometry":{"type":"Polygon","coordinates":[[[-62.8566,17.3804],[-62.8492,17.3981],[-62.8223,17.4101],[-62.818,17.3803],[-62.8076,17.3667],[-62.8362,17.3726],[-62.8349,17.3797],[-62.8407,17.3823],[-62.8446,17.3771],[-62.8566,17.3804]]]}},{"type":"Feature","properties":{"name":"Saint Anne Sandy Point","name_ko":"세인트앤샌디포인트구","code":"KN-02"},"geometry":{"type":"Polygon","coordinates":[[[-62.8316,17.3301],[-62.8611,17.3623],[-62.8566,17.3804],[-62.8446,17.3771],[-62.8407,17.3823],[-62.8349,17.3797],[-62.8362,17.3726],[-62.8076,17.3667],[-62.8316,17.3301]]]}},{"type":"Feature","properties":{"name":"Saint Thomas Middle Island","name_ko":"세인트토머스미들아일랜드구","code":"KN-13"},"geometry":{"type":"Polygon","coordinates":[[[-62.7716,17.298],[-62.8316,17.3301],[-62.8076,17.3667],[-62.7791,17.3356],[-62.7544,17.331],[-62.7716,17.298]]]}},{"type":"Feature","properties":{"name":"Trinity Palmetto Point","name_ko":"트리니티팰머토포인트구","code":"KN-14"},"geometry":{"type":"Polygon","coordinates":[[[-62.7238,17.2917],[-62.7716,17.298],[-62.7544,17.331],[-62.7382,17.3304],[-62.7238,17.2917]]]}},{"type":"Feature","properties":{"name":"Saint George Basseterre","name_ko":"세인트조지바스테르구","code":"KN-03"},"geometry":{"type":"Polygon","coordinates":[[[-62.6812,17.2994],[-62.6669,17.2735],[-62.6368,17.2582],[-62.6248,17.2418],[-62.6247,17.2253],[-62.647,17.2172],[-62.6597,17.2255],[-62.6705,17.2632],[-62.7034,17.2891],[-62.7238,17.2917],[-62.7343,17.3187],[-62.7278,17.3207],[-62.7233,17.3135],[-62.6812,17.2994]]]}},{"type":"Feature","properties":{"name":"Saint Peter Basseterre","name_ko":"세인트피터바스테르구","code":"KN-11"},"geometry":{"type":"Polygon","coordinates":[[[-62.7036,17.3416],[-62.6812,17.2994],[-62.7233,17.3135],[-62.7278,17.3207],[-62.7343,17.3187],[-62.7382,17.3304],[-62.7317,17.3388],[-62.7036,17.3416]]]}},{"type":"Feature","properties":{"name":"Saint Mary Cayon","name_ko":"세인트메리카욘구","code":"KN-08"},"geometry":{"type":"Polygon","coordinates":[[[-62.7305,17.3646],[-62.7036,17.3416],[-62.7317,17.3388],[-62.7382,17.3304],[-62.7453,17.331],[-62.7414,17.3544],[-62.7305,17.3646]]]}},{"type":"Feature","properties":{"name":"Christ Church Nichola Town","name_ko":"크라이스트처치니컬라타운구","code":"KN-01"},"geometry":{"type":"Polygon","coordinates":[[[-62.7694,17.387],[-62.7305,17.3646],[-62.7414,17.3544],[-62.7453,17.331],[-62.7791,17.3356],[-62.7875,17.3498],[-62.7694,17.387]]]}},{"type":"Feature","properties":{"name":"Saint John Capisterre","name_ko":"세인트존카피스테르구","code":"KN-06"},"geometry":{"type":"Polygon","coordinates":[[[-62.8223,17.4101],[-62.8196,17.4158],[-62.7694,17.387],[-62.7875,17.3498],[-62.8148,17.3745],[-62.8223,17.4101]]]}}]}