{"type":"FeatureCollection","features":[{"type":"Feature","properties":{"code":"XK-X02~","name":"Dečani","name_ko":"데카니","name_en":"Dečani","name_ja":"デサン","name_zh":"代查尼","name_es":"Dečani","name_fr":"Dečani","name_de":"Deçan","name_ru":"Дечани","name_pt":"Dečani","name_vi":"Dečani"},"geometry":{"type":"Polygon","coordinates":[[[20.1524,42.4937],[20.1355,42.5096],[20.0856,42.53],[20.065,42.5468],[20.077,42.5599],[20.0757,42.6031],[20.1039,42.6531],[20.1393,42.6351],[20.1931,42.6325],[20.1854,42.6146],[20.2008,42.6018],[20.2239,42.5941],[20.2777,42.5812],[20.3008,42.5915],[20.3239,42.5864],[20.347,42.5479],[20.3649,42.5351],[20.4188,42.5479],[20.4393,42.5402],[20.4213,42.5197],[20.3906,42.5094],[20.3726,42.4633],[20.347,42.4556],[20.3265,42.4607],[20.3059,42.4376],[20.2059,42.4659],[20.1905,42.4966],[20.1524,42.4937]]]}},{"type":"Feature","properties":{"code":"XK-X01~","name":"Đakovica","name_ko":"다코비카","name_en":"Gjakova","name_ja":"ジャコヴィツァ","name_zh":"贾科维察","name_es":"Đakovica","name_fr":"Gjakovë","name_de":"Gjakova","name_ru":"Джяко́вица","name_pt":"Đakovica","name_vi":"Đakovica"},"geometry":{"type":"Polygon","coordinates":[[[20.2496,42.3186],[20.2296,42.3267],[20.2209,42.3431],[20.2188,42.3714],[20.1928,42.3937],[20.2047,42.4201],[20.1808,42.4431],[20.1527,42.4934],[20.1905,42.4966],[20.2059,42.4659],[20.3059,42.4376],[20.3265,42.4607],[20.347,42.4556],[20.3726,42.4633],[20.3906,42.5094],[20.4213,42.5197],[20.4393,42.5402],[20.4726,42.5402],[20.541,42.5021],[20.5168,42.4905],[20.5063,42.469],[20.5094,42.3782],[20.5327,42.3532],[20.5981,42.3171],[20.5807,42.297],[20.5358,42.2811],[20.4737,42.2371],[20.3334,42.3179],[20.2496,42.3186]]]}},{"type":"Feature","properties":{"code":"XK-X03~","name":"Dragaš","name_ko":"드라가시","name_en":"Dragaš","name_ja":"ドラガシュ","name_zh":"德拉加什","name_es":"Dragaš","name_fr":"Dragaš","name_de":"Dragash","name_ru":"Драгащ","name_pt":"Dragaš","name_vi":"Dragaš"},"geometry":{"type":"Polygon","coordinates":[[[20.5671,41.8732],[20.5625,41.9001],[20.5673,41.9122],[20.5887,41.9296],[20.5993,41.9479],[20.5993,41.9606],[20.5522,42.0738],[20.6136,42.1248],[20.688,42.1351],[20.7188,42.1274],[20.7675,42.1274],[20.7803,42.1094],[20.7849,42.082],[20.7654,42.0643],[20.7554,42.0428],[20.7418,41.9708],[20.7544,41.9309],[20.7505,41.9068],[20.7233,41.8666],[20.703,41.8496],[20.6815,41.844],[20.6434,41.8736],[20.6187,41.8505],[20.6024,41.8499],[20.5671,41.8732]]]}},{"type":"Feature","properties":{"code":"XK-X21~","name":"Prizren","name_ko":"플루지네 지방 자치제","name_en":"Plužine","name_ja":"プルジネ","name_zh":"普盧日內區","name_es":"Municipio de Plužine","name_fr":"Plužine","name_de":"Gemeinde Plužine","name_ru":"Плужине","name_pt":"Pluzine","name_vi":"Đô thị tự trị Pluzine"},"geometry":{"type":"Polygon","coordinates":[[[20.5522,42.0738],[20.5494,42.1235],[20.5386,42.1501],[20.5008,42.2112],[20.4737,42.2371],[20.5358,42.2811],[20.5807,42.297],[20.6213,42.2864],[20.6521,42.3248],[20.6752,42.3069],[20.6931,42.3043],[20.7059,42.3274],[20.729,42.3248],[20.7598,42.2761],[20.7906,42.2607],[20.8521,42.2582],[20.856,42.2325],[20.8469,42.2036],[20.857,42.1883],[20.9524,42.1656],[20.9709,42.149],[20.9751,42.1347],[20.7849,42.082],[20.7803,42.1094],[20.7675,42.1274],[20.7188,42.1274],[20.688,42.1351],[20.6495,42.1325],[20.6136,42.1248],[20.5522,42.0738]]]}},{"type":"Feature","properties":{"code":"XK-X05~","name":"Gnjilane","name_ko":"은질란","name_en":"Gnjilane","name_ja":"ジラン","name_zh":"格尼拉內","name_es":"Gnjilane","name_fr":"Gnjilane","name_de":"Gjilan","name_ru":"Гнилане","name_pt":"Gnjilane","name_vi":"Gnjilane"},"geometry":{"type":"Polygon","coordinates":[[[21.4993,42.2387],[21.4815,42.2478],[21.488,42.2787],[21.4419,42.3582],[21.4085,42.3633],[21.3877,42.3875],[21.3521,42.4094],[21.3419,42.4274],[21.2752,42.4017],[21.2496,42.4479],[21.2558,42.4672],[21.2843,42.4694],[21.2907,42.4856],[21.2696,42.5223],[21.2733,42.5379],[21.2934,42.5566],[21.3214,42.5479],[21.3444,42.553],[21.3829,42.5274],[21.406,42.5376],[21.4008,42.5607],[21.4214,42.5684],[21.4393,42.5582],[21.4649,42.5582],[21.4855,42.53],[21.5316,42.4889],[21.5239,42.4659],[21.619,42.4492],[21.6219,42.4022],[21.6174,42.3866],[21.5966,42.3721],[21.5373,42.3586],[21.516,42.3419],[21.5149,42.3178],[21.5539,42.274],[21.5641,42.2463],[21.4993,42.2387]]]}},{"type":"Feature","properties":{"code":"XK-X27~","name":"Vitina","name_ko":"비티나","name_en":"Viti/Vitina","name_ja":"ビティナ","name_zh":"维蒂纳","name_es":"Vitina","name_fr":"Vitina","name_de":"Vitina","name_ru":"Витина","name_pt":"Vitina","name_vi":"Vitina"},"geometry":{"type":"Polygon","coordinates":[[[21.4815,42.2478],[21.4676,42.2351],[21.4363,42.2469],[21.4199,42.2401],[21.4298,42.2158],[21.4191,42.215],[21.3843,42.2249],[21.3606,42.2201],[21.3329,42.2388],[21.2714,42.2498],[21.2457,42.2755],[21.2485,42.292],[21.2659,42.314],[21.2623,42.3232],[21.2444,42.3171],[21.2311,42.3296],[21.2311,42.3498],[21.287,42.3544],[21.2752,42.4017],[21.3419,42.4274],[21.3521,42.4094],[21.3877,42.3875],[21.4085,42.3633],[21.4419,42.3582],[21.488,42.2787],[21.4815,42.2478]]]}},{"type":"Feature","properties":{"code":"XK-X07~","name":"Kačanik","name_ko":"카차닉","name_en":"Kačanik","name_ja":"カチャニック","name_zh":"卡查尼克","name_es":"Kačanik","name_fr":"Kačanik","name_de":"Kaçanik","name_ru":"Качаник","name_pt":"Kačanik","name_vi":"Kačanik"},"geometry":{"type":"Polygon","coordinates":[[[21.3606,42.2201],[21.295,42.149],[21.3013,42.1006],[21.2993,42.0914],[21.2889,42.0897],[21.2378,42.0974],[21.1999,42.1412],[21.1644,42.167],[21.1264,42.1889],[21.0985,42.196],[21.0931,42.2325],[21.1239,42.2479],[21.1111,42.2761],[21.1496,42.271],[21.188,42.2787],[21.1957,42.3017],[21.2623,42.3232],[21.2659,42.314],[21.2485,42.292],[21.2457,42.2755],[21.2714,42.2498],[21.3329,42.2388],[21.3606,42.2201]]]}},{"type":"Feature","properties":{"code":"XK-X24~","name":"Štrpce","name_ko":"슈트르체","name_en":"Štrpce","name_ja":"シュトルプセ","name_zh":"什特尔普采","name_es":"Štrpce","name_fr":"Štrpce","name_de":"Štrpce","name_ru":"Штрпце","name_pt":"Štrpce","name_vi":"Štrpce"},"geometry":{"type":"Polygon","coordinates":[[[21.0985,42.196],[21.0292,42.1514],[20.9751,42.1347],[20.9709,42.149],[20.9524,42.1656],[20.857,42.1883],[20.8469,42.2036],[20.856,42.2325],[20.9048,42.2391],[20.9288,42.2581],[20.9627,42.2656],[20.9657,42.2918],[20.9792,42.297],[21.0342,42.2812],[21.0316,42.3171],[21.0495,42.3171],[21.0598,42.3017],[21.0778,42.294],[21.088,42.2812],[21.1111,42.2761],[21.1239,42.2556],[21.1239,42.2479],[21.0931,42.2325],[21.0985,42.196]]]}},{"type":"Feature","properties":{"code":"XK-X12~","name":"Leposavić","name_ko":"레포사비치","name_en":"Leposavić","name_ja":"アルバニク","name_zh":"莱波萨维奇","name_es":"Leposavić","name_fr":"Leposaviq","name_de":"Leposavić","name_ru":"Лепосавич","name_pt":"Leposavić","name_vi":"Leposavić"},"geometry":{"type":"Polygon","coordinates":[[[20.7944,43.2631],[20.8384,43.2459],[20.8647,43.2173],[20.8515,43.2198],[20.84,43.2121],[20.832,43.1786],[20.8386,43.1705],[20.9934,43.1041],[20.9873,43.067],[20.9958,43.0544],[20.9675,43.053],[20.9598,43.0377],[20.9239,43.012],[20.9008,43.0095],[20.8777,43.0171],[20.8572,42.9864],[20.8136,42.971],[20.7983,43.0018],[20.7752,43.0146],[20.7444,43.0274],[20.7034,43.0274],[20.6829,43.0454],[20.6438,43.0523],[20.6649,43.0854],[20.6692,43.1098],[20.6618,43.1159],[20.6321,43.1173],[20.5975,43.185],[20.6123,43.2023],[20.667,43.2097],[20.7453,43.2529],[20.7944,43.2631]]]}},{"type":"Feature","properties":{"code":"XK-X19~","name":"Podujevo","name_ko":"포두예보","name_en":"Podujevo/Podujeva","name_ja":"ポデュエボ","name_zh":"波杜耶沃","name_es":"Podujevo","name_fr":"Podujevo","name_de":"Podujeva","name_ru":"Подуево","name_pt":"Podujevo","name_vi":"Podujevo"},"geometry":{"type":"Polygon","coordinates":[[[20.9934,43.1041],[21.0258,43.0934],[21.0926,43.0907],[21.1085,43.0816],[21.124,43.0583],[21.1479,42.9926],[21.1654,42.9851],[21.1931,42.9979],[21.2098,42.9959],[21.2253,42.9736],[21.2324,42.9109],[21.2605,42.8866],[21.3063,42.8824],[21.3467,42.8608],[21.3989,42.8546],[21.4084,42.847],[21.4083,42.8207],[21.3871,42.755],[21.3573,42.7556],[21.3188,42.7838],[21.3034,42.8043],[21.2342,42.7838],[21.2239,42.7684],[21.206,42.7659],[21.1931,42.7556],[21.1752,42.7633],[21.1521,42.7889],[21.129,42.7633],[21.1111,42.7633],[21.0974,42.7947],[21.0966,42.8196],[21.0551,42.8743],[21.0503,42.9006],[21.0557,42.9227],[21.0685,42.9386],[21.0584,42.9767],[21.0272,43.0246],[20.9873,43.067],[20.9934,43.1041]]]}},{"type":"Feature","properties":{"code":"XK-X29~","name":"Zubin Potok","name_ko":"주빈 포토크","name_en":"Zubin Potok","name_ja":"ズビンポトク","name_zh":"祖宾波托克","name_es":"Zubin Potok","name_fr":"Zubin Potok","name_de":"Zubin Potok","name_ru":"Зубин-Поток","name_pt":"Zubin Potok","name_vi":"Zubin Potok"},"geometry":{"type":"Polygon","coordinates":[[[20.5843,43.0069],[20.5964,43.0071],[20.6173,43.0221],[20.6675,43.0146],[20.7085,42.9941],[20.729,42.9787],[20.7213,42.9633],[20.7906,42.8966],[20.7649,42.8659],[20.7239,42.853],[20.7444,42.83],[20.7418,42.7941],[20.7265,42.7966],[20.688,42.8428],[20.6495,42.8428],[20.6307,42.8231],[20.5921,42.8696],[20.5642,42.8824],[20.4944,42.8875],[20.4889,42.8992],[20.451,42.922],[20.4595,42.95],[20.4764,42.9664],[20.5305,42.9752],[20.5624,43.0095],[20.5843,43.0069]]]}},{"type":"Feature","properties":{"code":"XK-X30~","name":"Zvečan","name_ko":"즈베칸","name_en":"Zvečan","name_ja":"ズヴェツァン","name_zh":"兹韦钱","name_es":"Zvečan","name_fr":"Zvečan","name_de":"Zvečan","name_ru":"Звечан","name_pt":"Zvečan","name_vi":"Zvečan"},"geometry":{"type":"Polygon","coordinates":[[[20.6173,43.0221],[20.6438,43.0523],[20.6829,43.0454],[20.7034,43.0274],[20.7444,43.0274],[20.7752,43.0146],[20.7983,43.0018],[20.8136,42.971],[20.8393,42.9505],[20.8701,42.9377],[20.8675,42.9095],[20.8572,42.8889],[20.7906,42.8966],[20.7213,42.9633],[20.729,42.9787],[20.7085,42.9941],[20.6675,43.0146],[20.6173,43.0221]]]}},{"type":"Feature","properties":{"code":"XK-X06~","name":"Istok","name_ko":"이스토크","name_en":"Istok","name_ja":"イストック","name_zh":"伊斯托克","name_es":"Istok","name_fr":"Istok","name_de":"Istok","name_ru":"Исток","name_pt":"Istok","name_vi":"Istok"},"geometry":{"type":"Polygon","coordinates":[[[20.3454,42.8274],[20.428,42.8406],[20.4763,42.8555],[20.4988,42.8779],[20.4944,42.8875],[20.5642,42.8824],[20.5921,42.8696],[20.6138,42.8493],[20.6452,42.7881],[20.6406,42.7631],[20.6218,42.722],[20.6237,42.6972],[20.57,42.6889],[20.5547,42.6735],[20.5213,42.6684],[20.488,42.6761],[20.4572,42.6684],[20.4367,42.6761],[20.4034,42.6761],[20.37,42.6889],[20.3316,42.7223],[20.3316,42.8018],[20.3192,42.8241],[20.3454,42.8274]]]}},{"type":"Feature","properties":{"code":"XK-X20~","name":"Priština","name_ko":"코소보 메토히야 자치","name_en":"Kosovo and Metohija","name_ja":"コソボ・メトヒヤ自治州","name_zh":"科索沃和梅托希亚自治省（1963-1968）","name_es":"Autónoma de Kosovo y Metohija","name_fr":"Kossovo-et-Métochie","name_de":"Kosovo und Metochien","name_ru":"Косово и Метохия","name_pt":"Autônoma de Kosovo e Metohija","name_vi":"Pristina"},"geometry":{"type":"Polygon","coordinates":[[[21.3871,42.755],[21.3787,42.7441],[21.3887,42.739],[21.4795,42.7323],[21.4554,42.6938],[21.3991,42.6926],[21.4072,42.6743],[21.437,42.6582],[21.4491,42.6416],[21.4239,42.6171],[21.3659,42.6158],[21.3265,42.5814],[21.2675,42.6043],[21.2342,42.6094],[21.2188,42.6043],[21.2188,42.5607],[21.1931,42.553],[21.1419,42.5659],[21.1137,42.5556],[21.0829,42.5735],[21.1137,42.612],[21.1008,42.653],[21.106,42.6787],[21.0854,42.7197],[21.088,42.7428],[21.1111,42.7633],[21.129,42.7633],[21.1521,42.7889],[21.1752,42.7633],[21.1931,42.7556],[21.206,42.7659],[21.2239,42.7684],[21.2342,42.7838],[21.3034,42.8043],[21.3188,42.7838],[21.3573,42.7556],[21.3871,42.755]]]}},{"type":"Feature","properties":{"code":"XK-X10~","name":"Kosovska Kamenica","name_ko":"코소보포모라블레구","name_en":"Kosovo-Pomoravlje","name_ja":"コソフスカ・カメニカ","name_zh":"科索沃-波莫拉夫列州","name_es":"Kosovska Kamenica","name_fr":"Kosovo-Pomoravlje","name_de":"Okrug Kosovo-Pomoravlje","name_ru":"Косовско-Поморавский округ","name_pt":"Kamenica","name_vi":"Kosovska Kamenica"},"geometry":{"type":"Polygon","coordinates":[[[21.4795,42.7323],[21.5652,42.7202],[21.6294,42.6722],[21.7089,42.6872],[21.7387,42.6822],[21.7644,42.6696],[21.7728,42.6475],[21.7671,42.6387],[21.7347,42.6242],[21.7288,42.5983],[21.7183,42.591],[21.7277,42.5741],[21.7177,42.5512],[21.6679,42.4901],[21.619,42.4492],[21.5239,42.4659],[21.5316,42.4889],[21.4855,42.53],[21.4649,42.5582],[21.4803,42.5761],[21.4675,42.5966],[21.4239,42.6171],[21.4491,42.6416],[21.437,42.6582],[21.4072,42.6743],[21.3991,42.6926],[21.4554,42.6938],[21.4795,42.7323]]]}},{"type":"Feature","properties":{"code":"XK-X18~","name":"Peć","name_ko":"페치","name_en":"Peja","name_ja":"ペック","name_zh":"佩奇","name_es":"Peć","name_fr":"Peć","name_de":"Peja","name_ru":"Печ","name_pt":"Peć","name_vi":"Peja"},"geometry":{"type":"Polygon","coordinates":[[[20.1834,42.7425],[20.2084,42.7633],[20.2092,42.7917],[20.2176,42.8027],[20.2644,42.8173],[20.3192,42.8241],[20.3316,42.8018],[20.3316,42.7223],[20.37,42.6889],[20.4034,42.6761],[20.4367,42.6761],[20.4572,42.6684],[20.4675,42.6402],[20.488,42.63],[20.4649,42.5992],[20.4675,42.5812],[20.488,42.5659],[20.5034,42.5248],[20.4726,42.5402],[20.4393,42.5402],[20.4188,42.5479],[20.3649,42.5351],[20.347,42.5479],[20.3239,42.5864],[20.3008,42.5915],[20.2777,42.5812],[20.2008,42.6018],[20.1854,42.6146],[20.1931,42.6325],[20.1393,42.6351],[20.1039,42.6531],[20.0248,42.7234],[20.0265,42.7432],[20.0347,42.7514],[20.0763,42.7734],[20.1834,42.7425]]]}},{"type":"Feature","properties":{"code":"XK-X17~","name":"Orahovac","name_ko":"오라호바크","name_en":"Orahovac","name_ja":"オラホヴァツ","name_zh":"奥拉霍瓦茨","name_es":"Orahovac","name_fr":"Orahovac","name_de":"Rahovec","name_ru":"Ораховац","name_pt":"Orahovac","name_vi":"Orahovac"},"geometry":{"type":"Polygon","coordinates":[[[20.5807,42.297],[20.5981,42.3171],[20.5327,42.3532],[20.5094,42.3782],[20.5063,42.469],[20.5168,42.4905],[20.541,42.5021],[20.5726,42.4787],[20.5931,42.4735],[20.647,42.4761],[20.6624,42.4582],[20.6572,42.4351],[20.6726,42.4043],[20.7162,42.3812],[20.7059,42.3274],[20.6931,42.3043],[20.6752,42.3069],[20.6521,42.3248],[20.6213,42.2864],[20.5807,42.297]]]}},{"type":"Feature","properties":{"code":"XK-X22~","name":"Srbica","name_ko":"스르비카","name_en":"Skenderaj/Srbica","name_ja":"スケンデライ","name_zh":"斯尔比察","name_es":"Srbica","name_fr":"Skenderaj","name_de":"Srbica","name_ru":"Србица","name_pt":"Skënderaj","name_vi":"Srbica"},"geometry":{"type":"Polygon","coordinates":[[[20.6237,42.6972],[20.6218,42.722],[20.6406,42.7631],[20.6452,42.7881],[20.6307,42.8231],[20.6495,42.8428],[20.6649,42.8453],[20.688,42.8428],[20.7265,42.7966],[20.7418,42.7941],[20.7444,42.83],[20.7803,42.8095],[20.8342,42.8069],[20.8521,42.7838],[20.847,42.7402],[20.9008,42.7351],[20.9259,42.7108],[20.8767,42.6939],[20.8622,42.68],[20.8221,42.6972],[20.8014,42.6641],[20.7841,42.6525],[20.7592,42.6094],[20.7361,42.6095],[20.7026,42.6199],[20.684,42.6629],[20.647,42.6747],[20.6237,42.6972]]]}},{"type":"Feature","properties":{"code":"XK-X08~","name":"Klina","name_ko":"클리나","name_en":"Klina","name_ja":"クライナ","name_zh":"克利纳","name_es":"Klina","name_fr":"Klina","name_de":"Klina","name_ru":"Клина","name_pt":"Klina","name_vi":"Klina"},"geometry":{"type":"Polygon","coordinates":[[[20.6237,42.6972],[20.647,42.6747],[20.684,42.6629],[20.7026,42.6199],[20.7361,42.6095],[20.7592,42.6094],[20.7162,42.5607],[20.6829,42.5607],[20.6171,42.5236],[20.541,42.5021],[20.5034,42.5248],[20.488,42.5659],[20.4675,42.5812],[20.4649,42.5992],[20.488,42.63],[20.4675,42.6402],[20.4572,42.6684],[20.488,42.6761],[20.5213,42.6684],[20.5547,42.6735],[20.57,42.6889],[20.6237,42.6972]]]}},{"type":"Feature","properties":{"code":"XK-X11~","name":"Kosovska Mitrovica","name_ko":"코소브스카미트로비차구","name_en":"Kosovska Mitrovica","name_ja":"コソフスカ・ミトロヴィツァ","name_zh":"科索夫斯卡米特罗维察州","name_es":"Kosovska Mitrovica","name_fr":"Kosovska Mitrovica","name_de":"Okrug Kosovska Mitrovica","name_ru":"Ко́совска-Ми́тровица","name_pt":"Mitrovica","name_vi":"Kosovska Mitrovica"},"geometry":{"type":"Polygon","coordinates":[[[20.9958,43.0544],[21.0272,43.0246],[21.0584,42.9767],[21.0685,42.9386],[21.0557,42.9227],[21.029,42.9274],[21.0034,42.9223],[20.9726,42.9325],[20.9572,42.9274],[20.9675,42.9069],[20.9572,42.8838],[20.9342,42.8864],[20.9162,42.8761],[20.9136,42.83],[20.8649,42.8248],[20.8342,42.8069],[20.7803,42.8095],[20.7444,42.83],[20.7239,42.853],[20.7649,42.8659],[20.7906,42.8966],[20.8572,42.8889],[20.8675,42.9095],[20.8701,42.9377],[20.8393,42.9505],[20.8136,42.971],[20.8572,42.9864],[20.8777,43.0171],[20.9008,43.0095],[20.9239,43.012],[20.9598,43.0377],[20.9675,43.053],[20.9958,43.0544]]]}},{"type":"Feature","properties":{"code":"XK-X04~","name":"Glogovac","name_ko":"글로고바츠","name_en":"Glogovac","name_ja":"グローガバック","name_zh":"格罗哥维奇","name_es":"Glogovac","name_fr":"Glogovac","name_de":"Glogovac","name_ru":"Глоговац","name_pt":"Glogovac","name_vi":"Glogovac"},"geometry":{"type":"Polygon","coordinates":[[[20.7856,42.5226],[20.7924,42.5649],[20.7857,42.598],[20.7752,42.6093],[20.7592,42.6094],[20.7841,42.6525],[20.8014,42.6641],[20.8221,42.6972],[20.8622,42.68],[20.8767,42.6939],[20.9259,42.7108],[20.9707,42.6844],[20.9419,42.6735],[20.9495,42.6377],[20.9701,42.6248],[20.9598,42.6043],[20.9444,42.5915],[20.9752,42.5659],[20.9495,42.5479],[20.9444,42.53],[20.9239,42.5197],[20.9008,42.5197],[20.8829,42.5043],[20.8602,42.4971],[20.8448,42.5296],[20.8271,42.5087],[20.7856,42.5226]]]}},{"type":"Feature","properties":{"code":"XK-X14~","name":"Mališevo","name_ko":"말리세보","name_en":"Mališevo","name_ja":"マリシェヴォ","name_zh":"马利舍沃","name_es":"Malisevo","name_fr":"Mališevo","name_de":"Mališevo","name_ru":"Малишево","name_pt":"Mališevo","name_vi":"Mališevo"},"geometry":{"type":"Polygon","coordinates":[[[20.7592,42.6094],[20.7752,42.6093],[20.7857,42.598],[20.7924,42.5649],[20.7856,42.5226],[20.8271,42.5087],[20.8448,42.5296],[20.8522,42.5177],[20.8602,42.4971],[20.8521,42.4633],[20.8649,42.4453],[20.8701,42.4223],[20.8419,42.4248],[20.8162,42.4146],[20.7777,42.4171],[20.7572,42.4043],[20.7572,42.3838],[20.7162,42.3812],[20.6726,42.4043],[20.6572,42.4351],[20.6624,42.4582],[20.647,42.4761],[20.5931,42.4735],[20.5726,42.4787],[20.541,42.5021],[20.6171,42.5236],[20.6829,42.5607],[20.7162,42.5607],[20.7592,42.6094]]]}},{"type":"Feature","properties":{"code":"XK-X25~","name":"Suva Reka","name_ko":"수바 레카","name_en":"Suva Reka","name_ja":"スハレカ","name_zh":"苏瓦雷卡","name_es":"Suva Reka","name_fr":"Suva Reka","name_de":"Suhareka","name_ru":"Сува-Река","name_pt":"Suva Reka","name_vi":"Suva Reka"},"geometry":{"type":"Polygon","coordinates":[[[20.7059,42.3274],[20.7162,42.3812],[20.7572,42.3838],[20.7572,42.4043],[20.7777,42.4171],[20.8162,42.4146],[20.8419,42.4248],[20.8701,42.4223],[20.8521,42.4735],[20.8776,42.4694],[20.9069,42.4386],[20.9363,42.4276],[20.9517,42.4085],[20.937,42.3902],[20.94,42.3762],[20.9319,42.3652],[20.9598,42.3373],[20.9657,42.2918],[20.9627,42.2656],[20.9288,42.2581],[20.9048,42.2391],[20.856,42.2325],[20.8521,42.2582],[20.7906,42.2607],[20.7598,42.2761],[20.729,42.3248],[20.7059,42.3274]]]}},{"type":"Feature","properties":{"code":"XK-X26~","name":"Uroševac","name_ko":"우로세바츠","name_en":"Uroševac/ferizaj","name_ja":"フェリザイ","name_zh":"乌洛舍瓦克","name_es":"Uroševac","name_fr":"Uroševac","name_de":"Ferizaj","name_ru":"Урошевац","name_pt":"Uroševac","name_vi":"Uroševac"},"geometry":{"type":"Polygon","coordinates":[[[21.1111,42.2761],[21.088,42.2812],[21.0778,42.294],[21.0598,42.3017],[21.0495,42.3171],[21.0316,42.3171],[21.0342,42.2812],[20.9792,42.297],[20.9657,42.2918],[20.9598,42.3373],[20.947,42.3556],[21.047,42.3684],[21.0572,42.4043],[21.0906,42.43],[21.0957,42.4505],[21.1572,42.4453],[21.2496,42.4479],[21.2752,42.4017],[21.287,42.3544],[21.2311,42.3498],[21.2311,42.3296],[21.2444,42.3171],[21.1957,42.3017],[21.188,42.2787],[21.1496,42.271],[21.1111,42.2761]]]}},{"type":"Feature","properties":{"code":"XK-X15~","name":"Novo Brdo","name_ko":"노보 브도","name_en":"Novo Brdo","name_ja":"ノボブルド","name_zh":"新布尔多","name_es":"Novo Brdo","name_fr":"Novo Brdo","name_de":"Novo Brdo","name_ru":"Ново-Брдо","name_pt":"Novo Brdo","name_vi":"Novo Brdo"},"geometry":{"type":"Polygon","coordinates":[[[21.4393,42.5582],[21.4214,42.5684],[21.4008,42.5607],[21.406,42.5376],[21.3829,42.5274],[21.3444,42.553],[21.3214,42.5479],[21.2934,42.5566],[21.3659,42.6158],[21.4239,42.6171],[21.4675,42.5966],[21.4803,42.5761],[21.4649,42.5582],[21.4393,42.5582]]]}},{"type":"Feature","properties":{"code":"XK-X16~","name":"Obilić","name_ko":"오빌리치","name_en":"Obiliq","name_ja":"オビリッチ","name_zh":"奥比利奇","name_es":"Obilić","name_fr":"Obilić","name_de":"Obiliq","name_ru":"Обилич","name_pt":"Obilić","name_vi":"Obilić"},"geometry":{"type":"Polygon","coordinates":[[[21.0974,42.7947],[21.1111,42.7633],[21.088,42.7428],[21.0854,42.7197],[21.106,42.6787],[21.1008,42.653],[21.0726,42.6377],[21.0521,42.6351],[21.0213,42.6351],[20.9983,42.6505],[20.9829,42.6453],[20.9829,42.63],[20.9701,42.6248],[20.9495,42.6377],[20.9419,42.6735],[21.0173,42.6972],[21.0431,42.7156],[21.0563,42.7563],[21.0735,42.7848],[21.0974,42.7947]]]}},{"type":"Feature","properties":{"code":"XK-X09~","name":"Kosovo Polje","name_ko":"코소보 폴예","name_en":"Kosovo Polje","name_ja":"コソボ・ポリェ","name_zh":"科索沃波尔耶","name_es":"Kosovo Polje","name_fr":"Kosovo Polje","name_de":"Kosovo Polje","name_ru":"Косово Поле","name_pt":"Fushë Kosovë","name_vi":"Kosovo Polje"},"geometry":{"type":"Polygon","coordinates":[[[21.0213,42.6351],[21.0726,42.6377],[21.1008,42.653],[21.1137,42.612],[21.0829,42.5735],[21.0547,42.5659],[21.0213,42.571],[20.9983,42.5633],[20.9752,42.5659],[20.9444,42.5915],[20.9598,42.6043],[20.9701,42.6248],[20.9829,42.63],[20.9829,42.6453],[20.9983,42.6505],[21.0213,42.6351]]]}},{"type":"Feature","properties":{"code":"XK-X13~","name":"Lipljan","name_ko":"리플리얀","name_en":"Lipljan","name_ja":"リピャニ","name_zh":"利普连","name_es":"Lipljan","name_fr":"Lipljan","name_de":"Lipljan","name_ru":"Липлян","name_pt":"Lipljan","name_vi":"Lipljan"},"geometry":{"type":"Polygon","coordinates":[[[20.8602,42.4971],[20.8829,42.5043],[20.9008,42.5197],[20.9239,42.5197],[20.9444,42.53],[20.9495,42.5479],[20.9752,42.5659],[20.9983,42.5633],[21.0213,42.571],[21.0547,42.5659],[21.0829,42.5735],[21.1137,42.5556],[21.1419,42.5659],[21.1931,42.553],[21.2188,42.5607],[21.2188,42.6043],[21.2342,42.6094],[21.2675,42.6043],[21.3265,42.5814],[21.3062,42.5715],[21.2733,42.5379],[21.2696,42.5223],[21.2907,42.4856],[21.2843,42.4694],[21.2558,42.4672],[21.2496,42.4479],[21.1572,42.4453],[21.0957,42.4505],[21.0701,42.4633],[21.0547,42.453],[20.929,42.4684],[20.8931,42.453],[20.8776,42.4694],[20.8521,42.4735],[20.8602,42.4971]]]}},{"type":"Feature","properties":{"code":"XK-X23~","name":"Štimlje","name_ko":"팀예","name_en":"Štimlje","name_ja":"スティムジェ","name_zh":"什蒂姆列","name_es":"Shtime","name_fr":"Štimlje","name_de":"Shtime","name_ru":"Штимле","name_pt":"Štimlje","name_vi":"Štimlje"},"geometry":{"type":"Polygon","coordinates":[[[21.0957,42.4505],[21.0906,42.43],[21.0572,42.4043],[21.047,42.3684],[20.947,42.3556],[20.9319,42.3652],[20.94,42.3762],[20.937,42.3902],[20.9517,42.4085],[20.9363,42.4276],[20.9069,42.4386],[20.8931,42.453],[20.929,42.4684],[21.0547,42.453],[21.0701,42.4633],[21.0957,42.4505]]]}},{"type":"Feature","properties":{"code":"XK-X28~","name":"Vučitrn","name_ko":"부치트른","name_en":"Vučitrn","name_ja":"ヴシュトリ","name_zh":"武契特尔恩","name_es":"Vushtrri","name_fr":"Vučitrn","name_de":"Vushtrria","name_ru":"Вучитрн","name_pt":"Vučitrn","name_vi":"Vučitrn"},"geometry":{"type":"Polygon","coordinates":[[[20.9726,42.9325],[21.0034,42.9223],[21.029,42.9274],[21.0557,42.9227],[21.0503,42.9006],[21.0551,42.8743],[21.0966,42.8196],[21.0974,42.7947],[21.0735,42.7848],[21.0563,42.7563],[21.0431,42.7156],[21.0173,42.6972],[20.9707,42.6844],[20.9478,42.6939],[20.9008,42.7351],[20.847,42.7402],[20.8521,42.7838],[20.8342,42.8069],[20.8649,42.8248],[20.9136,42.83],[20.9162,42.8761],[20.9342,42.8864],[20.9572,42.8838],[20.9675,42.9069],[20.9572,42.9274],[20.9726,42.9325]]]}}]}