{"type":"FeatureCollection","features":[{"type":"Feature","properties":{"id":"KWT-1667","code":"KW-JA","name":"Al Jahrah","name_ko":"알자라","name_en":"Al Jahra","name_ja":"ジャハラー県","name_zh":"杰赫拉省","name_es":"Yahra","name_fr":"Al Jahra","name_de":"Gouvernement al-Dschahra","name_ru":"Джахра","name_pt":"Al Jahra","name_vi":"Al Jahrah"},"geometry":{"type":"MultiPolygon","coordinates":[[[[47.6742,30.0982],[47.7314,30.0886],[47.948,29.994],[47.9753,29.9426],[47.9827,29.8607],[47.9956,29.8277],[48.0217,29.7797],[48.0524,29.743],[48.0789,29.744],[48.1192,29.6545],[48.1613,29.6016],[48.1809,29.5622],[48.1768,29.5419],[48.1545,29.5391],[48.1135,29.5546],[48.0859,29.575],[48.0239,29.5848],[47.9655,29.5763],[47.9106,29.5318],[47.8493,29.502],[47.807,29.4676],[47.7639,29.4129],[47.7184,29.3942],[47.7047,29.3636],[47.7917,29.3725],[47.8373,29.3875],[47.8512,29.3802],[47.8226,29.3634],[47.8164,29.3376],[47.8409,29.3229],[47.8585,29.3232],[47.8649,29.31],[47.8459,29.3075],[47.8417,29.2663],[47.7841,29.2037],[47.7699,29.0558],[47.5231,29.021],[47.4463,28.9762],[47.4335,28.9947],[46.5324,29.0957],[46.7119,29.2714],[46.7745,29.3635],[46.8535,29.4446],[46.8831,29.5125],[46.9578,29.6204],[46.9774,29.658],[46.9888,29.7127],[47.0254,29.7721],[47.1105,29.9609],[47.1447,30.0033],[47.1971,30.0342],[47.3582,30.0921],[47.4158,30.0982],[47.6742,30.0982]]],[[[48.3527,29.7098],[48.3031,29.6452],[48.2663,29.616],[48.229,29.5999],[48.1858,29.6039],[48.1616,29.6297],[48.1267,29.7023],[48.0851,29.7678],[48.0461,29.8004],[48.1133,29.8391],[48.1192,29.8736],[48.0851,29.8799],[48.0951,29.8947],[48.1092,29.8936],[48.1336,29.8799],[48.1587,29.8792],[48.1665,29.8859],[48.1608,29.9016],[48.1937,29.9164],[48.1974,29.9254],[48.1813,29.9351],[48.1472,29.9351],[48.1404,29.9699],[48.1227,29.9697],[48.1167,29.9741],[48.1209,29.9814],[48.1621,29.9957],[48.1887,29.9835],[48.3445,29.7906],[48.3595,29.7545],[48.3527,29.7098]]],[[[48.0789,30.0041],[48.0584,29.9835],[48.0311,29.971],[48.0237,29.9699],[48.0108,29.9805],[48.0093,29.9869],[48.0547,30.0245],[48.1092,30.028],[48.1061,30.0176],[48.0789,30.0041]]]]}},{"type":"Feature","properties":{"id":"KWT-1665","code":"KW-AH","name":"Al Ahmadi","name_ko":"알아마디","name_en":"Al Ahmadi","name_ja":"アハマディ県","name_zh":"艾哈迈迪省","name_es":"Ahmadí","name_fr":"Al Ahmadi","name_de":"Gouvernement Ahmadi","name_ru":"Эль-Ахмади","name_pt":"Al Ahmadi","name_vi":"Tỉnh Al Ahmadi"},"geometry":{"type":"Polygon","coordinates":[[[47.6681,28.5335],[47.6598,28.56],[47.5968,28.6088],[47.5817,28.6315],[47.5584,28.6915],[47.5499,28.7706],[47.4945,28.904],[47.4463,28.9762],[47.5231,29.021],[47.7699,29.0558],[47.7841,29.2037],[47.8417,29.2663],[47.8761,29.2275],[47.8772,29.185],[48.0346,29.2087],[48.1061,29.2135],[48.1284,29.1739],[48.1585,29.0173],[48.176,28.9838],[48.2259,28.9183],[48.241,28.9057],[48.2795,28.8944],[48.2769,28.8396],[48.3288,28.76],[48.3936,28.7434],[48.3796,28.7104],[48.3867,28.6751],[48.3662,28.6887],[48.366,28.6757],[48.3799,28.6677],[48.3677,28.6567],[48.3527,28.6614],[48.3518,28.6405],[48.361,28.6356],[48.3867,28.654],[48.3971,28.5833],[48.4328,28.5405],[47.6681,28.5335]]]}},{"type":"Feature","properties":{"id":"KWT-1666","code":"KW-MU","name":"Mubarak Al-Kabeer","name_ko":"무바라크알카비르","name_en":"Mubarak Al-Kabeer","name_ja":"ムバーラク・アル＝カビール県","name_zh":"大穆巴拉克省","name_es":"Mubarak el Grande","name_fr":"Mubarak Al-Kabeer","name_de":"Gouvernement Mubarak Al-Kabeer","name_ru":"Мубарак-эль-Кабир","name_pt":"Mubarak Al-Kabeer","name_vi":"Tỉnh Mubarak Al-Kabeer"},"geometry":{"type":"Polygon","coordinates":[[[48.0938,29.3104],[48.0954,29.2577],[48.1061,29.2135],[48.0346,29.2087],[48.0238,29.2643],[48.0087,29.2954],[48.05,29.2954],[48.0938,29.3104]]]}},{"type":"Feature","properties":{"id":"KWT-3506","code":"KW-HA","name":"Hawalli","name_ko":"하왈리","name_en":"Hawally","name_ja":"ハワリ県","name_zh":"哈瓦利省","name_es":"Hawalli","name_fr":"Hawalli","name_de":"Gouvernement Hawalli","name_ru":"Хавалли","name_pt":"Hawalli","name_vi":"Tỉnh Hawalli"},"geometry":{"type":"Polygon","coordinates":[[[48.0084,29.3692],[48.0252,29.3549],[48.0633,29.3434],[48.1003,29.35],[48.0938,29.3104],[48.05,29.2954],[48.0087,29.2954],[47.9797,29.3513],[48.0084,29.3692]]]}},{"type":"Feature","properties":{"id":"KWT-1663","code":"KW-KU","name":"Al Asimah","name_ko":"수도","name_en":"Capital","name_ja":"アースィマ県","name_zh":"科威特省","name_es":"Capital","name_fr":"Al Asimah","name_de":"Gouvernement al-Asima","name_ru":"Эль-Асима","name_pt":"Al Asimah","name_vi":"Al Asimah"},"geometry":{"type":"MultiPolygon","coordinates":[[[[47.8585,29.3232],[47.8992,29.3352],[47.9054,29.3593],[47.9202,29.3649],[47.9393,29.3594],[47.9699,29.3872],[47.9857,29.3938],[48.0084,29.3692],[47.9797,29.3513],[47.9918,29.3304],[47.8649,29.31],[47.8585,29.3232]]],[[[48.3382,29.4628],[48.3732,29.4431],[48.389,29.4249],[48.3995,29.3976],[48.3974,29.3875],[48.373,29.3939],[48.3359,29.4206],[48.3169,29.427],[48.2692,29.4297],[48.27,29.456],[48.2811,29.4711],[48.2985,29.4731],[48.3382,29.4628]]]]}},{"type":"Feature","properties":{"id":"KWT-1664","code":"KW-FA","name":"Al Farwaniyah","name_ko":"알파르와니야","name_en":"Al Farwaniyah","name_ja":"ファルワーニーヤ県","name_zh":"费尔瓦尼耶省","name_es":"Al Farwaniyah","name_fr":"Al Farwaniyah","name_de":"Gouvernement Al Farwaniya","name_ru":"Фарвания","name_pt":"Al Farwaniyah","name_vi":"Tỉnh Al Farwaniyah"},"geometry":{"type":"Polygon","coordinates":[[[47.8649,29.31],[47.9918,29.3304],[48.0238,29.2643],[48.0346,29.2087],[47.8772,29.185],[47.8761,29.2275],[47.8417,29.2663],[47.8459,29.3075],[47.8649,29.31]]]}}]}