{"type":"FeatureCollection","features":[{"type":"Feature","properties":{"name":"Gros Islet Quarter","name_ko":"그로스아일렛 구","code":"LC-06"},"geometry":{"type":"Polygon","coordinates":[[[-60.98,14.0435],[-60.9761,14.0612],[-60.9476,14.1023],[-60.9335,14.1119],[-60.9141,14.1057],[-60.9186,14.0884],[-60.901,14.0734],[-60.928,14.0532],[-60.9356,14.018],[-60.9581,14.0219],[-60.98,14.0435]]]}},{"type":"Feature","properties":{"name":"Castries Quarter","name_ko":"캐스트리스 구","code":"LC-02"},"geometry":{"type":"Polygon","coordinates":[[[-61.0266,13.9874],[-61.0023,14.0231],[-60.98,14.0435],[-60.9581,14.0219],[-60.9356,14.018],[-60.9405,13.9793],[-60.9568,13.9279],[-60.9606,13.879],[-60.9806,13.8928],[-60.9844,13.9655],[-60.9919,13.978],[-61.0266,13.9874]]]}},{"type":"Feature","properties":{"name":"Anse la Raye Quarter","name_ko":"앙스라레 구","code":"LC-01"},"geometry":{"type":"Polygon","coordinates":[[[-61.0669,13.909],[-61.0266,13.9874],[-60.9919,13.978],[-60.9844,13.9655],[-60.9806,13.9241],[-60.9831,13.874],[-60.9907,13.8665],[-61.0107,13.8715],[-61.0245,13.894],[-61.0408,13.9053],[-61.0669,13.909]]]}},{"type":"Feature","properties":{"name":"Soufrière Quarter","name_ko":"수프리에르 구","code":"LC-10"},"geometry":{"type":"Polygon","coordinates":[[[-61.0681,13.7922],[-61.0781,13.8063],[-61.0701,13.8321],[-61.0785,13.8798],[-61.0669,13.909],[-61.0408,13.9053],[-61.0245,13.894],[-61.0107,13.8715],[-60.9907,13.8665],[-60.9831,13.874],[-60.9806,13.8928],[-60.9606,13.879],[-60.9643,13.8452],[-61.0496,13.8063],[-61.0681,13.7922]]]}},{"type":"Feature","properties":{"name":"Choiseul Quarter","name_ko":"슈아죌 구","code":"LC-03"},"geometry":{"type":"Polygon","coordinates":[[[-61.0189,13.7562],[-61.0482,13.7673],[-61.0681,13.7922],[-61.0496,13.8063],[-60.9816,13.8358],[-61.0189,13.7562]]]}},{"type":"Feature","properties":{"name":"Laborie Quarter","name_ko":"라보리 구","code":"LC-07"},"geometry":{"type":"Polygon","coordinates":[[[-60.9671,13.7306],[-60.9734,13.739],[-61.0189,13.7562],[-60.9809,13.8308],[-60.9639,13.7758],[-60.9671,13.7306]]]}},{"type":"Feature","properties":{"name":"Vieux Fort Quarter","name_ko":"비외포르 구","code":"LC-11"},"geometry":{"type":"Polygon","coordinates":[[[-60.918,13.774],[-60.9318,13.7603],[-60.9408,13.7221],[-60.9551,13.7147],[-60.9671,13.7306],[-60.9639,13.7758],[-60.9816,13.8358],[-60.9752,13.8392],[-60.918,13.774]]]}},{"type":"Feature","properties":{"name":"Micoud Quarter","name_ko":"미쿠 구","code":"LC-08"},"geometry":{"type":"Polygon","coordinates":[[[-60.8922,13.8332],[-60.9073,13.7773],[-60.918,13.774],[-60.9752,13.8392],[-60.9643,13.8452],[-60.9155,13.8326],[-60.8922,13.8332]]]}},{"type":"Feature","properties":{"name":"Praslin Quarter","name_ko":"프라슬랭 구","code":"LC-09"},"geometry":{"type":"Polygon","coordinates":[[[-60.8902,13.9085],[-60.8951,13.8773],[-60.8922,13.8332],[-60.9155,13.8326],[-60.9643,13.8452],[-60.9606,13.9003],[-60.9393,13.9041],[-60.9217,13.8978],[-60.8902,13.9085]]]}},{"type":"Feature","properties":{"name":"Dennery Quarter","name_ko":"데네리 구","code":"LC-05"},"geometry":{"type":"Polygon","coordinates":[[[-60.883,13.9806],[-60.8902,13.9085],[-60.9217,13.8978],[-60.9393,13.9041],[-60.9606,13.9003],[-60.9405,13.9793],[-60.883,13.9806]]]}},{"type":"Feature","properties":{"name":"Dauphin Quarter","name_ko":"도팽 구","code":"LC-04"},"geometry":{"type":"Polygon","coordinates":[[[-60.901,14.0734],[-60.8902,14.0522],[-60.883,13.9806],[-60.9405,13.9793],[-60.928,14.0532],[-60.901,14.0734]]]}}]}