{"type":"FeatureCollection","features":[{"type":"Feature","properties":{"code":"LI-09","name":"Triesen","name_ko":"트리젠","name_en":"Triesen","name_ja":"トリーゼン","name_zh":"特里森","name_es":"Triesen","name_fr":"Triesen","name_de":"Triesen","name_ru":"Тризен","name_pt":"Triesen","name_vi":"Triesen"},"geometry":{"type":"Polygon","coordinates":[[[9.5883,47.063],[9.5606,47.0524],[9.5331,47.0555],[9.5222,47.0868],[9.5029,47.0947],[9.5124,47.108],[9.5119,47.1294],[9.5272,47.1307],[9.5333,47.1252],[9.5372,47.1029],[9.5566,47.0963],[9.5605,47.089],[9.5544,47.0829],[9.5605,47.0757],[9.5705,47.0757],[9.5678,47.0885],[9.5828,47.0868],[9.5883,47.063]]]}},{"type":"Feature","properties":{"code":"LI-07","name":"Schaan","name_ko":"샨","name_en":"Schaan","name_ja":"シャーン","name_zh":"沙恩","name_es":"Schaan","name_fr":"Schaan","name_de":"Schaan","name_ru":"Шан","name_pt":"Schaan","name_vi":"Schaan"},"geometry":{"type":"MultiPolygon","coordinates":[[[[9.6051,47.0776],[9.5883,47.063],[9.5828,47.0868],[9.5978,47.0907],[9.6051,47.0776]]],[[[9.6095,47.1224],[9.6142,47.1107],[9.5761,47.1085],[9.57,47.133],[9.5611,47.1374],[9.5633,47.148],[9.5989,47.1213],[9.6095,47.1224]]],[[[9.552,47.1756],[9.5483,47.1608],[9.5255,47.1652],[9.5177,47.1613],[9.5055,47.1691],[9.5083,47.153],[9.4955,47.156],[9.485,47.1763],[9.4864,47.1969],[9.4999,47.1919],[9.5311,47.1947],[9.5299,47.1858],[9.552,47.1756]]]]}},{"type":"Feature","properties":{"code":"LI-10","name":"Triesenberg","name_ko":"트리젠베르크","name_en":"Triesenberg","name_ja":"トリーゼンベルク","name_zh":"特里森貝格","name_es":"Triesenberg","name_fr":"Triesenberg","name_de":"Triesenberg","name_ru":"Тризенберг","name_pt":"Triesenberg","name_vi":"Triesenberg"},"geometry":{"type":"MultiPolygon","coordinates":[[[[9.6142,47.1107],[9.6051,47.0776],[9.5917,47.1113],[9.6142,47.1107]]],[[[9.5605,47.089],[9.5566,47.0963],[9.5372,47.1029],[9.5272,47.1307],[9.5277,47.143],[9.5422,47.1457],[9.5483,47.1608],[9.5633,47.148],[9.5611,47.1374],[9.5739,47.1235],[9.5761,47.1085],[9.5683,47.1074],[9.5678,47.0885],[9.5605,47.089]]]]}},{"type":"Feature","properties":{"code":"LI-01","name":"Balzers","name_ko":"발처스","name_en":"Balzers","name_ja":"バルザース","name_zh":"巴尔采斯","name_es":"Balzers","name_fr":"Balzers","name_de":"Balzers","name_ru":"Бальцерс","name_pt":"Balzers","name_vi":"Balzers"},"geometry":{"type":"MultiPolygon","coordinates":[[[[9.5671,47.1608],[9.5818,47.1549],[9.6095,47.1224],[9.5989,47.1213],[9.5633,47.148],[9.5671,47.1608]]],[[[9.5331,47.0555],[9.477,47.0639],[9.4759,47.0732],[9.5029,47.0947],[9.5222,47.0868],[9.5331,47.0555]]],[[[9.5605,47.089],[9.5678,47.0885],[9.5705,47.0757],[9.5605,47.0757],[9.5544,47.0829],[9.5605,47.089]]]]}},{"type":"Feature","properties":{"code":"LI-05","name":"Planken","name_ko":"플랑켄","name_en":"Planken","name_ja":"プランケン","name_zh":"普兰肯","name_es":"Planken","name_fr":"Planken","name_de":"Planken","name_ru":"Планкен","name_pt":"Planken","name_vi":"Planken"},"geometry":{"type":"MultiPolygon","coordinates":[[[[9.5521,47.1669],[9.5671,47.1608],[9.5633,47.148],[9.5483,47.1608],[9.5521,47.1669]]],[[[9.5619,47.1906],[9.552,47.1756],[9.5299,47.1858],[9.5311,47.1947],[9.5399,47.1997],[9.5619,47.1906]]]]}},{"type":"Feature","properties":{"code":"LI-02","name":"Eschen","name_ko":"에셴","name_en":"Eschen","name_ja":"エッシェン","name_zh":"埃申","name_es":"Eschen","name_fr":"Eschen","name_de":"Eschen","name_ru":"Эшен","name_pt":"Eschen","name_vi":"Eschen"},"geometry":{"type":"Polygon","coordinates":[[[9.5543,47.2116],[9.5619,47.1906],[9.5516,47.1975],[9.5311,47.1947],[9.5188,47.1997],[9.5094,47.2047],[9.5083,47.2147],[9.5127,47.2247],[9.5199,47.2253],[9.5249,47.2169],[9.5543,47.2116]]]}},{"type":"Feature","properties":{"code":"LI-04","name":"Mauren","name_ko":"마우렌","name_en":"Mauren","name_ja":"マウレン","name_zh":"毛伦","name_es":"Mauren","name_fr":"Mauren","name_de":"Mauren","name_ru":"Маурен","name_pt":"Mauren","name_vi":"Mauren"},"geometry":{"type":"Polygon","coordinates":[[[9.5431,47.2348],[9.5404,47.2291],[9.5543,47.2116],[9.5249,47.2169],[9.5199,47.2253],[9.5431,47.2348]]]}},{"type":"Feature","properties":{"code":"LI-08","name":"Schellenberg","name_ko":"셸렌베르크","name_en":"Schellenberg","name_ja":"シェレンベルク","name_zh":"施伦贝格","name_es":"Schellenberg","name_fr":"Schellenberg","name_de":"Schellenberg","name_ru":"Шелленберг","name_pt":"Schellenberg","name_vi":"Schellenberg"},"geometry":{"type":"Polygon","coordinates":[[[9.5342,47.2512],[9.5471,47.243],[9.5431,47.2348],[9.5199,47.2253],[9.5342,47.2512]]]}},{"type":"Feature","properties":{"code":"LI-06","name":"Ruggell","name_ko":"루겔","name_en":"Ruggell","name_ja":"ルッゲル","name_zh":"儒格尔","name_es":"Ruggell","name_fr":"Ruggell","name_de":"Ruggell","name_ru":"Руггелль","name_pt":"Ruggell","name_vi":"Ruggell"},"geometry":{"type":"Polygon","coordinates":[[[9.5212,47.2628],[9.5342,47.2512],[9.5199,47.2253],[9.497,47.2289],[9.5212,47.2628]]]}},{"type":"Feature","properties":{"code":"LI-11","name":"Vaduz","name_ko":"파두츠","name_en":"Vaduz","name_ja":"ファドゥーツ","name_zh":"瓦都兹","name_es":"Vaduz","name_fr":"Vaduz","name_de":"Vaduz","name_ru":"Вадуц","name_pt":"Vaduz","name_vi":"Vaduz"},"geometry":{"type":"MultiPolygon","coordinates":[[[[9.5119,47.1294],[9.4955,47.156],[9.5083,47.153],[9.5055,47.1691],[9.5177,47.1613],[9.5255,47.1652],[9.5483,47.1608],[9.5422,47.1457],[9.5277,47.143],[9.5272,47.1307],[9.5119,47.1294]]],[[[9.5678,47.0885],[9.5683,47.1074],[9.5917,47.1113],[9.5978,47.0907],[9.5678,47.0885]]]]}},{"type":"Feature","properties":{"code":"LI-03","name":"Gamprin","name_ko":"감프린","name_en":"Gamprin","name_ja":"ガンプリン","name_zh":"甘普林","name_es":"Gamprin","name_fr":"Gamprin","name_de":"Gamprin","name_ru":"Гамприн","name_pt":"Gamprin","name_vi":"Gamprin"},"geometry":{"type":"Polygon","coordinates":[[[9.4864,47.1969],[9.497,47.2289],[9.5127,47.2247],[9.5094,47.2047],[9.5311,47.1947],[9.4999,47.1919],[9.4864,47.1969]]]}}]}