{"type":"FeatureCollection","features":[{"type":"Feature","properties":{"code":"MO-M","name":"Macau","name_ko":"마카오","name_en":"Macau","name_ja":"マカオ","name_zh":"澳门","name_es":"Macao","name_fr":"Macao","name_de":"Macau","name_ru":"Макао","name_pt":"Macau","name_vi":"Ma Cao"},"geometry":{"type":"MultiPolygon","coordinates":[[[[113.5586,22.163],[113.5741,22.1608],[113.5602,22.1415],[113.578,22.1396],[113.5749,22.135],[113.5859,22.1319],[113.5875,22.1249],[113.5775,22.1267],[113.5741,22.1194],[113.5667,22.1234],[113.5663,22.1077],[113.5574,22.1112],[113.5468,22.1054],[113.5411,22.1133],[113.5453,22.1142],[113.5423,22.1407],[113.5322,22.1526],[113.5344,22.1612],[113.5586,22.163]]],[[[113.5365,22.2171],[113.5389,22.2208],[113.5538,22.2115],[113.5568,22.2036],[113.5492,22.1997],[113.5571,22.2025],[113.5515,22.1896],[113.5248,22.1737],[113.5202,22.1849],[113.5352,22.2075],[113.5243,22.2126],[113.5365,22.2171]]]]}}]}