{"type":"FeatureCollection","features":[{"type":"Feature","properties":{"id":"MAF-5145","code":"MF-X00~","name":"St. Martin","name_ko":"생마르탱","name_en":"Saint Martin","name_ja":"サン・マルタン","name_zh":"法属圣马丁","name_es":"San Martín","name_fr":"Saint-Martin","name_de":"Saint-Martin","name_ru":"Сен-Мартен","name_pt":"São Martinho","name_vi":"Saint-Martin"},"geometry":{"type":"Polygon","coordinates":[[[-63.0176,18.0334],[-63.107,18.0621],[-63.107,18.067],[-63.1343,18.0595],[-63.1468,18.0703],[-63.0961,18.0788],[-63.0709,18.11],[-63.0176,18.1221],[-63.0107,18.0408],[-63.0176,18.0334]]]}}]}