{"type":"FeatureCollection","features":[{"type":"Feature","properties":{"name":"Addu Atoll","name_ko":"아두 환초","code":"MV-01"},"geometry":{"type":"MultiPolygon","coordinates":[[[[73.24,-0.6256],[73.2273,-0.6428],[73.23,-0.6233],[73.2349,-0.6194],[73.24,-0.6256]]],[[[73.2468,-0.5886],[73.2446,-0.6072],[73.2363,-0.5924],[73.2473,-0.5779],[73.2468,-0.5886]]],[[[73.0975,-0.5997],[73.1116,-0.6171],[73.1187,-0.6413],[73.1112,-0.6413],[73.0949,-0.6047],[73.0912,-0.586],[73.105,-0.5792],[73.0975,-0.5997]]]]}},{"type":"Feature","properties":{"name":"Gnaviyani Atoll","name_ko":"그나비야니 환초","code":"MV-29"},"geometry":{"type":"Polygon","coordinates":[[[73.4351,-0.2836],[73.4445,-0.3043],[73.4352,-0.2936],[73.4351,-0.2836]]]}},{"type":"Feature","properties":{"name":"Gaafu Dhaalu Atoll","name_ko":"가푸달루 환초","code":"MV-28"},"geometry":{"type":"MultiPolygon","coordinates":[[[[73.0955,0.228],[73.1043,0.2196],[73.1029,0.2134],[73.0955,0.228]]]]}},{"type":"Feature","properties":{"name":"Alif Dhaal Atoll","name_ko":"알리프달 환초","code":"MV-00"},"geometry":{"type":"MultiPolygon","coordinates":[[[[72.9284,3.5519],[72.9116,3.5417],[72.9199,3.5522],[72.9284,3.5519]]],[[[72.6926,3.727],[72.6946,3.715],[72.6897,3.718],[72.6926,3.727]]]]}},{"type":"Feature","properties":{"name":"Kaafu Atoll","name_ko":"카푸 환초","code":"MV-26"},"geometry":{"type":"MultiPolygon","coordinates":[[[[73.5081,4.1036],[73.5083,4.0933],[73.5023,4.1008],[73.5081,4.1036]]],[[[73.4473,4.9713],[73.4365,4.9699],[73.4412,4.9749],[73.4473,4.9713]]]]}},{"type":"Feature","properties":{"name":"Alif Alif Atoll","name_ko":"알리프알리프 환초","code":"MV-02"},"geometry":{"type":"MultiPolygon","coordinates":[[[[72.957,4.4383],[72.9561,4.4221],[72.9471,4.4231],[72.9434,4.4316],[72.957,4.4383]]]]}},{"type":"Feature","properties":{"name":"Baa Atoll","name_ko":"바 환초","code":"MV-20"},"geometry":{"type":"MultiPolygon","coordinates":[[[[72.9793,4.8955],[72.9695,4.8805],[72.9727,4.8944],[72.9793,4.8955]]]]}},{"type":"Feature","properties":{"name":"Lhaviyani Atoll","name_ko":"라비야니 환초","code":"MV-03"},"geometry":{"type":"MultiPolygon","coordinates":[[[[73.5936,5.2827],[73.5829,5.2756],[73.57,5.2768],[73.5936,5.2827]]],[[[73.3233,5.3682],[73.3301,5.3668],[73.3192,5.3629],[73.3233,5.3682]]],[[[73.6296,5.4185],[73.6367,5.4029],[73.6325,5.3861],[73.6296,5.4185]]]]}},{"type":"Feature","properties":{"name":"Raa Atoll","name_ko":"라 환초","code":"MV-13"},"geometry":{"type":"MultiPolygon","coordinates":[[[[72.9317,5.9691],[72.9302,5.9569],[72.9258,5.9633],[72.9317,5.9691]]]]}},{"type":"Feature","properties":{"name":"Shaviyani Atoll","name_ko":"샤비야니 환초","code":"MV-24"},"geometry":{"type":"MultiPolygon","coordinates":[[[[73.2417,6.2397],[73.2402,6.2289],[73.2363,6.2321],[73.2417,6.2397]]]]}},{"type":"Feature","properties":{"name":"Laamu Atoll","name_ko":"라무 환초","code":"MV-05"},"geometry":{"type":"MultiPolygon","coordinates":[[[[73.365,1.7911],[73.3758,1.7886],[73.3682,1.7829],[73.365,1.7911]]],[[[73.4002,1.8063],[73.4021,1.7956],[73.3944,1.7947],[73.4002,1.8063]]],[[[73.4526,1.8268],[73.4636,1.8263],[73.4567,1.8204],[73.4526,1.8268]]],[[[73.5676,2.1099],[73.5855,2.1096],[73.5618,2.0947],[73.5676,2.1099]]]]}},{"type":"Feature","properties":{"name":"Thaa Atoll","name_ko":"타 환초","code":"MV-08"},"geometry":{"type":"MultiPolygon","coordinates":[[[[72.9261,2.3275],[72.927,2.3161],[72.9225,2.3196],[72.9261,2.3275]]],[[[73.3543,2.4372],[73.3662,2.4115],[73.3626,2.3849],[73.3543,2.4372]]]]}},{"type":"Feature","properties":{"name":"Dhaalu Atoll","name_ko":"달루 환초","code":"MV-17"},"geometry":{"type":"MultiPolygon","coordinates":[[[[72.8726,2.6942],[72.8737,2.6836],[72.867,2.689],[72.8726,2.6942]]]]}},{"type":"Feature","properties":{"name":"Malé","name_ko":"말레","code":"MV-12"},"geometry":{"type":"Polygon","coordinates":[[[73.5462,4.243],[73.552,4.2283],[73.5382,4.1833],[73.5109,4.1621],[73.4869,4.1641],[73.4312,4.1846],[73.4321,4.19],[73.512,4.1863],[73.5205,4.1911],[73.5333,4.231],[73.5462,4.243]]]}},{"type":"Feature","properties":{"name":"Noonu Atoll","name_ko":"누누 환초","code":"MV-25"},"geometry":{"type":"MultiPolygon","coordinates":[[[[73.3823,5.795],[73.3807,5.7841],[73.3768,5.7873],[73.3823,5.795]]],[[[73.3898,5.9703],[73.3953,5.9578],[73.3845,5.9647],[73.3898,5.9703]]]]}},{"type":"Feature","properties":{"name":"Haa Dhaalu Atoll","name_ko":"하달루 환초","code":"MV-23"},"geometry":{"type":"MultiPolygon","coordinates":[[[[73.106,6.7099],[73.0959,6.6984],[73.0967,6.7061],[73.106,6.7099]]],[[[73.1595,6.7865],[73.1665,6.7803],[73.1528,6.7492],[73.1317,6.725],[73.1595,6.7865]]]]}},{"type":"Feature","properties":{"name":"Haa Alif Atoll","name_ko":"하알리프 환초","code":"MV-07"},"geometry":{"type":"MultiPolygon","coordinates":[[[[73.1817,6.8305],[73.1973,6.8281],[73.1838,6.8211],[73.1817,6.8305]]],[[[73.214,6.9186],[73.2039,6.885],[73.2019,6.9022],[73.214,6.9186]]],[[[73.1985,6.9713],[73.1932,6.951],[73.1919,6.9676],[73.1985,6.9713]]]]}}]}