{"type":"FeatureCollection","features":[{"type":"Feature","properties":{"id":"MKD-4845","code":"MK-72","name":"Struga","name_ko":"스트루가 시","name_en":"Struga","name_ja":"ストルガ基礎自治体","name_zh":"斯特鲁加区","name_es":"Municipalidad de Struga","name_fr":"Struga","name_de":"Opština Struga","name_ru":"Струга","name_pt":"Struga","name_vi":"Đô thị tự trị Struga"},"geometry":{"type":"Polygon","coordinates":[[[20.496,41.3378],[20.5104,41.3444],[20.5329,41.3704],[20.539,41.4029],[20.6466,41.4026],[20.6814,41.428],[20.7288,41.3612],[20.7328,41.313],[20.7602,41.2743],[20.7496,41.2342],[20.7309,41.2121],[20.7328,41.1981],[20.7415,41.1907],[20.7412,41.1709],[20.6539,41.0753],[20.577,41.0935],[20.5699,41.1071],[20.5655,41.1474],[20.5127,41.2101],[20.5949,41.2213],[20.6206,41.23],[20.6266,41.2388],[20.6223,41.2459],[20.5681,41.2535],[20.4954,41.2503],[20.4777,41.3196],[20.4817,41.3412],[20.496,41.3378]]]}},{"type":"Feature","properties":{"id":"MKD-2951","code":"MK-78","name":"Centar župa","name_ko":"첸타르주파 시","name_en":"Centar Župa","name_ja":"ツェンタル・ジュパ","name_zh":"辛塔尔祖帕区","name_es":"Municipalidad de Centar Župa","name_fr":"Tsentar Joupa","name_de":"Opština Centar Župa","name_ru":"Центар Жупа","name_pt":"Município Central de Zupa","name_vi":"Đô thị tự trị Centar Zupa"},"geometry":{"type":"Polygon","coordinates":[[[20.539,41.4029],[20.5222,41.4257],[20.4909,41.436],[20.4816,41.4683],[20.5114,41.4913],[20.5564,41.5101],[20.5679,41.5248],[20.6096,41.5227],[20.6274,41.4913],[20.6493,41.484],[20.6567,41.4663],[20.6567,41.437],[20.6724,41.4349],[20.6784,41.4255],[20.6466,41.4026],[20.539,41.4029]]]}},{"type":"Feature","properties":{"id":"MKD-2952","code":"MK-21","name":"Debar","name_ko":"데바르 시","name_en":"Debar","name_ja":"デバル","name_zh":"德巴尔区","name_es":"Municipalidad de Debar","name_fr":"Debar","name_de":"Opština Debar","name_ru":"Дебар","name_pt":"Debar","name_vi":"Đô thị tự trị Debar"},"geometry":{"type":"Polygon","coordinates":[[[20.4816,41.4683],[20.4708,41.4838],[20.452,41.4936],[20.445,41.5085],[20.4442,41.5497],[20.5074,41.5623],[20.5293,41.5749],[20.5347,41.5873],[20.5982,41.5509],[20.6431,41.5457],[20.6891,41.507],[20.7246,41.4955],[20.7289,41.4788],[20.7114,41.4808],[20.7047,41.4742],[20.6927,41.4361],[20.6848,41.4249],[20.6784,41.4255],[20.6724,41.4349],[20.6567,41.437],[20.6567,41.4663],[20.6493,41.484],[20.6274,41.4913],[20.6096,41.5227],[20.5679,41.5248],[20.5564,41.5101],[20.5114,41.4913],[20.4816,41.4683]]]}},{"type":"Feature","properties":{"id":"MKD-2955","code":"MK-50","name":"Mavrovo and Rostusa","name_ko":"마브로보 로스투샤 시","name_en":"Mavrovo and Rostuša","name_ja":"マヴロヴォ・ロストゥシャ","name_zh":"马夫罗沃和罗斯图沙区","name_es":"Municipalidad de Mavrovo y Rostuša","name_fr":"Mavrovo et Rostoucha","name_de":"Opština Mavrovo und Rostuša","name_ru":"Маврово и Ростуша","name_pt":"Mavroso e Rostusa","name_vi":"Đô thị tự trị Mavrovo và Rostusa"},"geometry":{"type":"Polygon","coordinates":[[[20.5347,41.5873],[20.5083,41.6617],[20.5004,41.7341],[20.5113,41.7579],[20.5444,41.7848],[20.5501,41.8001],[20.6002,41.7845],[20.6486,41.7576],[20.6693,41.755],[20.69,41.7536],[20.7201,41.7784],[20.7943,41.773],[20.813,41.7509],[20.8151,41.7316],[20.8244,41.7235],[20.8365,41.7289],[20.8745,41.7282],[20.8606,41.7122],[20.8974,41.6645],[20.8535,41.66],[20.8167,41.6346],[20.794,41.6339],[20.7833,41.6239],[20.7919,41.6126],[20.8095,41.6147],[20.8176,41.5812],[20.8176,41.5394],[20.805,41.5289],[20.8039,41.507],[20.7914,41.5018],[20.7689,41.4768],[20.7562,41.4735],[20.7289,41.4788],[20.7246,41.4955],[20.6891,41.507],[20.6431,41.5457],[20.5982,41.5509],[20.5347,41.5873]]]}},{"type":"Feature","properties":{"id":"MKD-2962","code":"MK-19","name":"Gostivar","name_ko":"고스티바르 시","name_en":"Gostivar","name_ja":"ゴスティヴァル","name_zh":"戈斯蒂瓦区","name_es":"Municipalidad de Gostivar","name_fr":"Municipalité de Gostivar","name_de":"Opština Gostivar","name_ru":"Гостивар","name_pt":"Gostivar","name_vi":"Đô thị tự trị Gostivar"},"geometry":{"type":"Polygon","coordinates":[[[20.5501,41.8001],[20.5405,41.8394],[20.5417,41.8616],[20.5671,41.8732],[20.5903,41.8547],[20.6187,41.8505],[20.6434,41.8736],[20.6815,41.844],[20.7144,41.8592],[20.7523,41.8412],[20.7924,41.8392],[20.8111,41.8138],[20.8465,41.8044],[20.8585,41.8125],[20.8839,41.8151],[20.916,41.8091],[20.9348,41.8138],[20.9448,41.8225],[20.94,41.8385],[20.9559,41.8495],[20.9849,41.8379],[21.0277,41.8365],[21.029,41.8211],[21.0791,41.7773],[21.0527,41.775],[21.0474,41.7409],[21.03,41.7282],[21.044,41.7128],[21.0454,41.6961],[21.0561,41.6794],[21.0529,41.6476],[21.0006,41.6366],[20.985,41.6245],[20.9444,41.6547],[20.8974,41.6645],[20.8606,41.7122],[20.8745,41.7282],[20.8365,41.7289],[20.8244,41.7235],[20.8151,41.7316],[20.813,41.7509],[20.7943,41.773],[20.7201,41.7784],[20.69,41.7536],[20.6693,41.755],[20.6486,41.7576],[20.6002,41.7845],[20.5501,41.8001]]]}},{"type":"Feature","properties":{"id":"MKD-2895","code":"MK-12","name":"Vevčani","name_ko":"베브차니 시","name_en":"Vevčani","name_ja":"ヴェヴチャニ","name_zh":"維夫查尼區","name_es":"Municipalidad de Vevčani","name_fr":"Vevtchani","name_de":"Opština Vevčani","name_ru":"Вевчани","name_pt":"Vevčani","name_vi":"Vevčani"},"geometry":{"type":"Polygon","coordinates":[[[20.5127,41.2101],[20.4954,41.2503],[20.5681,41.2535],[20.6223,41.2459],[20.6266,41.2388],[20.6206,41.23],[20.5949,41.2213],[20.5127,41.2101]]]}},{"type":"Feature","properties":{"id":"MKD-2898","code":"MK-58","name":"Ohrid","name_ko":"오흐리드 시","name_en":"Ohrid","name_ja":"オフリド","name_zh":"奥赫里德区","name_es":"Municipalidad de Ohrid","name_fr":"Ohrid","name_de":"Opština Ohrid","name_ru":"Охрид","name_pt":"Ohrid","name_vi":"Đô thị tự trị Ohrid"},"geometry":{"type":"Polygon","coordinates":[[[20.7661,40.8937],[20.7409,40.898],[20.7172,40.9132],[20.7027,40.9363],[20.6641,41.0591],[20.7783,41.182],[20.7957,41.1874],[20.7943,41.2074],[20.8278,41.2442],[20.9073,41.2502],[20.9695,41.2275],[21.0315,41.225],[21.0394,41.2119],[21.0181,41.1887],[20.9361,41.1498],[20.9045,41.1219],[20.8924,41.0849],[20.8905,41.0533],[20.8772,41.0466],[20.8777,41.032],[20.8887,41.0174],[20.8869,40.9974],[20.842,40.9822],[20.8334,40.9573],[20.8365,40.9239],[20.817,40.9202],[20.7661,40.8937]]]}},{"type":"Feature","properties":{"id":"MKD-2899","code":"MK-22","name":"Debarca","name_ko":"데바르차 시","name_en":"Debarca","name_ja":"デバルツァ","name_zh":"德巴尔查区","name_es":"Municipalidad de Debarca","name_fr":"Debartsa","name_de":"Opština Debarca","name_ru":"Дебарца","name_pt":"Debarca","name_vi":"Đô thị tự trị Debarca"},"geometry":{"type":"Polygon","coordinates":[[[20.6641,41.0591],[20.6539,41.0753],[20.7412,41.1709],[20.7415,41.1907],[20.7328,41.1981],[20.7309,41.2121],[20.7496,41.2342],[20.7602,41.2743],[20.7328,41.313],[20.7288,41.3612],[20.6873,41.4226],[20.696,41.4287],[20.7983,41.4287],[20.8886,41.422],[20.9059,41.3913],[20.9073,41.3672],[20.9147,41.3558],[20.9414,41.3445],[20.9555,41.3242],[20.9568,41.3041],[20.9932,41.2841],[21.0029,41.264],[21.0212,41.2525],[21.0212,41.2409],[21.0315,41.225],[20.9695,41.2275],[20.9073,41.2502],[20.8278,41.2442],[20.7943,41.2074],[20.7957,41.1874],[20.7783,41.182],[20.6641,41.0591]]]}},{"type":"Feature","properties":{"id":"MKD-2894","code":"MK-66","name":"Resen","name_ko":"레센 시","name_en":"Resen","name_ja":"レセン","name_zh":"里森区","name_es":"Municipalidad de Resen","name_fr":"Resen","name_de":"Opština Resen","name_ru":"Ресен","name_pt":"Resen","name_vi":"Đô thị tự trị Resen"},"geometry":{"type":"Polygon","coordinates":[[[20.9653,40.8494],[20.9648,40.876],[20.9567,40.8948],[20.9399,40.9071],[20.8365,40.9239],[20.8334,40.9573],[20.842,40.9822],[20.8869,40.9974],[20.8887,41.0174],[20.8777,41.032],[20.8772,41.0466],[20.8905,41.0533],[20.8924,41.0849],[20.9045,41.1219],[20.9361,41.1498],[21.0181,41.1887],[21.0406,41.2136],[21.0503,41.199],[21.0691,41.1985],[21.0837,41.1413],[21.108,41.1037],[21.0959,41.0794],[21.0776,41.068],[21.0738,41.0467],[21.1025,41.0356],[21.105,41.018],[21.1348,40.9792],[21.1766,40.9798],[21.2009,40.9627],[21.2052,40.9482],[21.2452,40.9421],[21.2483,40.9166],[21.2587,40.9117],[21.2598,40.9002],[21.2458,40.8632],[21.183,40.8702],[21.1121,40.8539],[20.9653,40.8494]]]}},{"type":"Feature","properties":{"id":"MKD-2999","code":"MK-56","name":"Novo Selo","name_ko":"노보셀로 시","name_en":"Novo Selo","name_ja":"ノヴォ・セロ","name_zh":"诺沃塞洛区","name_es":"Municipalidad de Novo Selo","name_fr":"Novo Selo","name_de":"Opština Novo Selo","name_ru":"Ново-Село","name_pt":"Novo Selo","name_vi":"Novo Selo"},"geometry":{"type":"Polygon","coordinates":[[[22.917,41.3358],[22.7939,41.3407],[22.793,41.3906],[22.7862,41.3978],[22.8014,41.4129],[22.8014,41.4486],[22.8566,41.4923],[22.8581,41.5171],[22.9436,41.5232],[22.9462,41.4532],[22.9546,41.4324],[22.9373,41.4108],[22.9445,41.3684],[22.9409,41.3498],[22.917,41.3358]]]}},{"type":"Feature","properties":{"id":"MKD-3000","code":"MK-26","name":"Dojran","name_ko":"도이란 시","name_en":"Dojran","name_ja":"ドイラン","name_zh":"多伊兰区","name_es":"Municipalidad de Dojran","name_fr":"Dojran","name_de":"Opština Dojran","name_ru":"Дойран","name_pt":"Dojran","name_vi":"Dojran"},"geometry":{"type":"Polygon","coordinates":[[[22.742,41.287],[22.7367,41.2044],[22.7272,41.1658],[22.7158,41.1456],[22.7049,41.1397],[22.6741,41.1566],[22.6572,41.177],[22.6636,41.1848],[22.66,41.2085],[22.6309,41.2199],[22.5906,41.2184],[22.5664,41.2415],[22.5848,41.2479],[22.6053,41.2708],[22.6472,41.2727],[22.6498,41.2843],[22.6622,41.2941],[22.742,41.287]]]}},{"type":"Feature","properties":{"id":"MKD-2994","code":"MK-10","name":"Valandovo","name_ko":"발란도보 시","name_en":"Valandovo","name_ja":"ヴァランドヴォ","name_zh":"瓦兰多沃区","name_es":"Municipalidad de Valandovo","name_fr":"Valandovo","name_de":"Opština Valandovo","name_ru":"Валандово","name_pt":"Valandovo","name_vi":"Valandovo"},"geometry":{"type":"Polygon","coordinates":[[[22.7623,41.3225],[22.7513,41.3152],[22.742,41.287],[22.6622,41.2941],[22.6498,41.2843],[22.6472,41.2727],[22.6053,41.2708],[22.5761,41.2436],[22.5615,41.2417],[22.5477,41.253],[22.5302,41.2527],[22.523,41.2228],[22.5022,41.213],[22.4893,41.2341],[22.4813,41.2363],[22.4813,41.2545],[22.47,41.2778],[22.4682,41.3134],[22.4467,41.3182],[22.4001,41.3615],[22.367,41.3753],[22.3372,41.3775],[22.3262,41.3942],[22.3252,41.4121],[22.3409,41.4329],[22.4093,41.4481],[22.4407,41.4472],[22.4806,41.4134],[22.522,41.4087],[22.532,41.3996],[22.5168,41.3692],[22.5349,41.3445],[22.5362,41.3298],[22.5843,41.3326],[22.6024,41.3198],[22.6024,41.3131],[22.6304,41.3113],[22.6461,41.3203],[22.6613,41.316],[22.6817,41.3436],[22.6955,41.3483],[22.7623,41.3225]]]}},{"type":"Feature","properties":{"id":"MKD-2993","code":"MK-73","name":"Strumitsa","name_ko":"스트루미차 시","name_en":"Strumica","name_ja":"ストルミツァ","name_zh":"斯特鲁米查区","name_es":"Municipalidad de Strumica","name_fr":"Stroumitsa","name_de":"Opština Strumica","name_ru":"Струмица","name_pt":"Strumica","name_vi":"Đô thị tự trị Strumica"},"geometry":{"type":"Polygon","coordinates":[[[22.7968,41.337],[22.781,41.3349],[22.7623,41.3225],[22.6955,41.3483],[22.6817,41.3436],[22.6613,41.316],[22.6461,41.3203],[22.6304,41.3113],[22.6024,41.3131],[22.6024,41.3198],[22.5843,41.3326],[22.5362,41.3298],[22.5349,41.3445],[22.5168,41.3692],[22.532,41.3996],[22.522,41.4087],[22.4806,41.4134],[22.446,41.4477],[22.4788,41.461],[22.5029,41.4567],[22.5327,41.4899],[22.5807,41.4771],[22.6011,41.4572],[22.6302,41.4567],[22.6743,41.4729],[22.6865,41.4633],[22.694,41.4439],[22.686,41.4206],[22.6997,41.4149],[22.7259,41.4201],[22.7421,41.3958],[22.7587,41.3916],[22.7862,41.3973],[22.793,41.3906],[22.7968,41.337]]]}},{"type":"Feature","properties":{"id":"MKD-2996","code":"MK-05","name":"Bogdanci","name_ko":"보그단치 시","name_en":"Bogdanci","name_ja":"ボグダンツィ","name_zh":"博丹奇区","name_es":"Municipalidad de Bogdanci","name_fr":"Bogdantsi","name_de":"Opština Bogdanci","name_ru":"Богданци","name_pt":"Bogdanci","name_vi":"Đô thị tự trị Bogdanci"},"geometry":{"type":"Polygon","coordinates":[[[22.6572,41.177],[22.6293,41.1771],[22.6245,41.1526],[22.5866,41.1241],[22.5426,41.1474],[22.5175,41.1507],[22.5256,41.1862],[22.5046,41.213],[22.523,41.2228],[22.5302,41.2527],[22.5477,41.253],[22.5906,41.2184],[22.6309,41.2199],[22.66,41.2085],[22.6636,41.1848],[22.6572,41.177]]]}},{"type":"Feature","properties":{"id":"MKD-2998","code":"MK-18","name":"Gevgelija","name_ko":"게브겔리야 시","name_en":"Gevgelija","name_ja":"ゲヴゲリヤ","name_zh":"杰夫格里雅区","name_es":"Municipalidad de Gevgelija","name_fr":"Gevgelija","name_de":"Opština Gevgelija","name_ru":"Гевгелия","name_pt":"Gevgelija","name_vi":"Gevgelija"},"geometry":{"type":"Polygon","coordinates":[[[22.5866,41.1241],[22.5492,41.1185],[22.5007,41.1221],[22.4515,41.1137],[22.4218,41.1146],[22.3802,41.1317],[22.3087,41.125],[22.3026,41.1455],[22.2136,41.1607],[22.2082,41.1722],[22.2148,41.1885],[22.2616,41.194],[22.2502,41.2362],[22.3022,41.2561],[22.3001,41.2645],[22.2895,41.2666],[22.2824,41.3093],[22.3005,41.3253],[22.3474,41.3266],[22.3482,41.3468],[22.3356,41.3756],[22.3594,41.3764],[22.4001,41.3615],[22.4467,41.3182],[22.4682,41.3134],[22.47,41.2778],[22.4813,41.2545],[22.4813,41.2363],[22.4893,41.2341],[22.5244,41.1913],[22.5175,41.1507],[22.5426,41.1474],[22.5866,41.1241]]]}},{"type":"Feature","properties":{"id":"MKD-2936","code":"MK-36","name":"Kavadartsi","name_ko":"카바다르치 시","name_en":"Kavadarci","name_ja":"カヴァダルツィ","name_zh":"卡瓦达尔济区","name_es":"Municipalidad de Kavadarci","name_fr":"Kavadarci","name_de":"Opština Kavadarci","name_ru":"Кавадарци","name_pt":"Kavadarci","name_vi":"Đô thị tự trị Kavadarci"},"geometry":{"type":"Polygon","coordinates":[[[22.2136,41.1607],[22.1832,41.1599],[22.1603,41.1519],[22.1244,41.1272],[22.1034,41.1215],[22.0628,41.1372],[22.0482,41.1519],[22.0291,41.1386],[21.9651,41.1244],[21.9255,41.1068],[21.9207,41.1326],[21.8878,41.1377],[21.8855,41.1918],[21.8666,41.2123],[21.8687,41.2333],[21.8835,41.2646],[21.8322,41.2666],[21.8225,41.2871],[21.8209,41.3271],[21.8292,41.3568],[21.814,41.3868],[21.8166,41.4293],[21.8038,41.415],[21.7941,41.415],[21.772,41.4334],[21.772,41.4427],[21.7925,41.4632],[21.8043,41.4616],[21.8346,41.4319],[21.8976,41.4324],[21.9115,41.4529],[21.9489,41.4411],[21.9586,41.4544],[21.976,41.4626],[21.9775,41.4924],[21.9838,41.503],[21.9908,41.4985],[22.039,41.5016],[22.0539,41.4375],[22.0539,41.4022],[22.0672,41.3755],[22.0693,41.3565],[22.1476,41.3103],[22.1572,41.2939],[22.1879,41.2785],[22.2224,41.2785],[22.282,41.3059],[22.2875,41.2966],[22.2895,41.2666],[22.3001,41.2645],[22.3022,41.2561],[22.2502,41.2362],[22.2616,41.194],[22.2148,41.1885],[22.2082,41.1722],[22.2136,41.1607]]]}},{"type":"Feature","properties":{"id":"MKD-2947","code":"MK-55","name":"Novaci","name_ko":"노바치 시","name_en":"Novaci","name_ja":"ノヴァツィ","name_zh":"诺瓦济区","name_es":"Municipalidad de Novaci","name_fr":"Novatsi","name_de":"Opština Novaci","name_ru":"Новаци","name_pt":"Novaci","name_vi":"Novaci"},"geometry":{"type":"Polygon","coordinates":[[[21.7571,40.9225],[21.737,40.9192],[21.6851,40.928],[21.6569,40.9182],[21.6488,40.8958],[21.6237,40.8944],[21.5816,40.8663],[21.5537,40.8704],[21.5057,40.9009],[21.5112,40.9218],[21.5039,40.9513],[21.4629,40.9929],[21.4413,40.9971],[21.4382,41.0279],[21.4232,41.0417],[21.4214,41.052],[21.4322,41.0887],[21.4569,41.1062],[21.541,41.0929],[21.5947,41.1394],[21.5988,41.1544],[21.6151,41.1611],[21.6446,41.1351],[21.7658,41.1104],[21.7851,41.0953],[21.8074,41.0881],[21.8302,41.0887],[21.8375,41.0953],[21.8634,41.0742],[21.8963,41.0647],[21.8807,41.0384],[21.845,41.0124],[21.8313,40.9935],[21.7837,40.9642],[21.7781,40.9337],[21.7571,40.9225]]]}},{"type":"Feature","properties":{"id":"MKD-2903","code":"MK-62","name":"Prilep","name_ko":"프릴레프 시","name_en":"Prilep","name_ja":"プリレプ","name_zh":"普里莱普区","name_es":"Municipalidad de Prilep","name_fr":"Prilep","name_de":"Opština Prilep","name_ru":"Прилеп","name_pt":"Prilep","name_vi":"Đô thị tự trị Prilep"},"geometry":{"type":"Polygon","coordinates":[[[21.9255,41.1068],[21.9012,41.0908],[21.8963,41.0647],[21.8634,41.0742],[21.8375,41.0953],[21.8302,41.0887],[21.8074,41.0881],[21.7851,41.0953],[21.7658,41.1104],[21.6446,41.1351],[21.6151,41.1611],[21.5993,41.1547],[21.5366,41.1776],[21.4943,41.1712],[21.4683,41.1884],[21.4403,41.1914],[21.4067,41.2253],[21.3644,41.2395],[21.3634,41.2459],[21.385,41.2479],[21.414,41.2705],[21.4189,41.2946],[21.4278,41.3064],[21.4278,41.3152],[21.3992,41.3231],[21.3944,41.3403],[21.4543,41.3816],[21.5416,41.3919],[21.5533,41.4032],[21.5755,41.4091],[21.5833,41.4332],[21.5912,41.4396],[21.6231,41.442],[21.6379,41.4263],[21.6566,41.4278],[21.6693,41.4416],[21.6737,41.4651],[21.7278,41.4725],[21.7583,41.4578],[21.772,41.4334],[21.7941,41.415],[21.8038,41.415],[21.8166,41.4293],[21.814,41.3868],[21.8292,41.3568],[21.8209,41.3271],[21.8225,41.2871],[21.8322,41.2666],[21.8835,41.2646],[21.8687,41.2333],[21.8666,41.2123],[21.8855,41.1918],[21.8878,41.1377],[21.9207,41.1326],[21.9255,41.1068]]]}},{"type":"Feature","properties":{"id":"MKD-2896","code":"MK-04","name":"Bitola","name_ko":"비톨라 시","name_en":"Bitola","name_ja":"ビトラ","name_zh":"比托拉区","name_es":"Municipalidad de Bitola","name_fr":"Bitola","name_de":"Opština Bitola","name_ru":"Битола","name_pt":"Bitola","name_vi":"Đô thị tự trị Bitola"},"geometry":{"type":"Polygon","coordinates":[[[21.5057,40.9009],[21.4049,40.9086],[21.3813,40.9005],[21.3293,40.8663],[21.2954,40.8609],[21.2458,40.8632],[21.2611,40.9069],[21.2483,40.9166],[21.2452,40.9421],[21.2052,40.9482],[21.2009,40.9627],[21.1766,40.9798],[21.1348,40.9792],[21.105,41.018],[21.1025,41.0356],[21.0738,41.0467],[21.0776,41.068],[21.1057,41.0923],[21.1057,41.1128],[21.0966,41.1257],[21.1543,41.1401],[21.2044,41.1667],[21.2173,41.1675],[21.2303,41.1842],[21.269,41.2001],[21.2879,41.2184],[21.314,41.2103],[21.3229,41.2007],[21.314,41.1796],[21.3174,41.1609],[21.3316,41.1442],[21.3607,41.1314],[21.3641,41.0862],[21.3848,41.0773],[21.4128,41.0872],[21.43,41.084],[21.4214,41.052],[21.4232,41.0417],[21.4382,41.0279],[21.4413,40.9971],[21.4629,40.9929],[21.5039,40.9513],[21.5112,40.9218],[21.5057,40.9009]]]}},{"type":"Feature","properties":{"id":"MKD-2920","code":"MK-48","name":"Lipkovo","name_ko":"립코보 시","name_en":"Lipkovo","name_ja":"リプコヴォ","name_zh":"里普科沃区","name_es":"Municipalidad de Lipkovo","name_fr":"Lipkovo","name_de":"Opština Lipkovo","name_ru":"Липково","name_pt":"Lipkovo","name_vi":"Đô thị tự trị Lipkovo"},"geometry":{"type":"Polygon","coordinates":[[[21.4815,42.2478],[21.4993,42.2387],[21.5618,42.2472],[21.6769,42.2349],[21.6862,42.1672],[21.6644,42.1571],[21.6644,42.1315],[21.6392,42.134],[21.6306,42.0916],[21.5985,42.0689],[21.6037,42.0594],[21.5966,42.0377],[21.5674,42.0433],[21.4828,42.1348],[21.5129,42.1545],[21.5157,42.1811],[21.482,42.212],[21.472,42.2391],[21.4815,42.2478]]]}},{"type":"Feature","properties":{"id":"MKD-2926","code":"MK-82","name":"Čučer Sandevo","name_ko":"추체르산데보 시","name_en":"Čučer-Sandevo","name_ja":"チュチェル・サンデヴォ","name_zh":"楚塞尔桑德沃区","name_es":"Municipalidad de Čučer-Sandevo","name_fr":"Tchoutcher Sandevo","name_de":"Opština Čučer-Sandevo","name_ru":"Чучер-Сандево","name_pt":"Município Cucer-Sandevo","name_vi":"Đô thị tự trị Cucer-Sandevo"},"geometry":{"type":"Polygon","coordinates":[[[21.4676,42.2351],[21.472,42.2391],[21.482,42.212],[21.5157,42.1811],[21.5129,42.1545],[21.4863,42.1418],[21.4656,42.1396],[21.4421,42.1037],[21.4347,42.0678],[21.4372,42.0332],[21.4268,42.0285],[21.4046,42.0525],[21.3893,42.0456],[21.3886,42.0287],[21.3817,42.0218],[21.3592,42.0291],[21.3592,42.0431],[21.342,42.0715],[21.3008,42.0984],[21.295,42.149],[21.3668,42.2239],[21.4298,42.2158],[21.4199,42.2401],[21.4363,42.2469],[21.4676,42.2351]]]}},{"type":"Feature","properties":{"id":"MKD-2948","code":"MK-29","name":"Gjorče Petrov","name_ko":"조르체페트로프 시","name_en":"Gjorče Petrov","name_ja":"ジョルチェ・ペトロフ","name_zh":"佐塞彼得羅夫區","name_es":"Municipalidad de Gjorče Petrov","name_fr":"Guiortché Pétrov","name_de":"Opština Gjorče Petrov","name_ru":"Гёрче-Петров","name_pt":"Gjorče Petrov","name_vi":"Gjorče Petrov"},"geometry":{"type":"Polygon","coordinates":[[[21.2889,42.0897],[21.2993,42.0914],[21.3008,42.0984],[21.342,42.0715],[21.3592,42.0431],[21.3586,41.9848],[21.3333,41.9866],[21.318,42.0011],[21.2843,42.0556],[21.2597,42.0479],[21.2505,42.0517],[21.2412,42.0833],[21.2457,42.0962],[21.2889,42.0897]]]}},{"type":"Feature","properties":{"id":"MKD-2908","code":"MK-68","name":"Saraj","name_ko":"사라이 시","name_en":"Saraj","name_ja":"サラヤ","name_zh":"萨拉伊区","name_es":"Municipalidad de Saraj","name_fr":"Saraï","name_de":"Opština Saraj","name_ru":"Сарай","name_pt":"Saraj","name_vi":"Saraj"},"geometry":{"type":"Polygon","coordinates":[[[21.2293,42.1038],[21.2457,42.0962],[21.2412,42.0833],[21.2505,42.0517],[21.2597,42.0479],[21.2843,42.0556],[21.318,42.0011],[21.3333,41.9866],[21.3586,41.9848],[21.3599,41.9484],[21.3168,41.9358],[21.2611,41.8987],[21.2223,41.8874],[21.2171,41.8777],[21.1802,41.9003],[21.1906,41.9662],[21.1383,41.9888],[21.1415,41.9959],[21.179,42.0056],[21.169,42.0384],[21.1891,42.0513],[21.1851,42.0691],[21.1658,42.0651],[21.1496,42.0779],[21.1649,42.0861],[21.2158,42.0901],[21.2293,42.1038]]]}},{"type":"Feature","properties":{"id":"MKD-2963","code":"MK-35","name":"Jegunovce","name_ko":"예구노프체 시","name_en":"Jegunovce","name_ja":"イェグノヴツェ","name_zh":"耶古诺夫策区","name_es":"Municipalidad de Jegunovce","name_fr":"Yégounovtsé","name_de":"Opština Jegunovce","name_ru":"Егуновце","name_pt":"Jegunovce","name_vi":"Đô thị tự trị Jegunovce"},"geometry":{"type":"Polygon","coordinates":[[[21.0985,42.196],[21.1264,42.1889],[21.1644,42.167],[21.1999,42.1412],[21.2293,42.1038],[21.2158,42.0901],[21.1649,42.0861],[21.1496,42.0779],[21.1658,42.0651],[21.1851,42.0691],[21.1891,42.0602],[21.1891,42.0513],[21.169,42.0384],[21.179,42.0056],[21.1415,41.9959],[21.1384,41.9898],[21.1224,41.9895],[21.1119,41.9813],[21.0725,41.9858],[21.0763,42.0006],[21.0353,42.0044],[21.0287,42.0162],[21.0926,42.0319],[21.1105,42.0586],[21.1298,42.0735],[21.1275,42.0936],[21.1023,42.1025],[21.08,42.13],[21.0409,42.16],[21.0985,42.196]]]}},{"type":"Feature","properties":{"id":"MKD-2957","code":"MK-75","name":"Tearce","name_ko":"테아르체 시","name_en":"Tearce","name_ja":"テアルツェ","name_zh":"特阿尔塞区","name_es":"Municipalidad de Tearce","name_fr":"Téartsé","name_de":"Opština Tearce","name_ru":"Теарце","name_pt":"Tearce","name_vi":"Đô thị tự trị Tearce"},"geometry":{"type":"Polygon","coordinates":[[[20.9751,42.1347],[21.0409,42.16],[21.08,42.13],[21.1023,42.1025],[21.1275,42.0936],[21.1298,42.0735],[21.1105,42.0586],[21.0926,42.0319],[21.0324,42.0192],[21.0294,42.0138],[21.0193,42.0157],[21.0079,42.0237],[21.0106,42.0444],[20.9993,42.0578],[20.9758,42.0625],[20.9505,42.0999],[20.9042,42.1167],[20.9751,42.1347]]]}},{"type":"Feature","properties":{"id":"MKD-2958","code":"MK-76","name":"Tetovo","name_ko":"테토보 시","name_en":"Tetovo","name_ja":"テトヴォ","name_zh":"特托沃区","name_es":"Municipalidad de Tetovo","name_fr":"Tetovo","name_de":"Opština Tetovo","name_ru":"Тетово","name_pt":"Município Tetovo","name_vi":"Đô thị tự trị Tetovo"},"geometry":{"type":"Polygon","coordinates":[[[20.7849,42.082],[20.9042,42.1167],[20.9284,42.11],[20.9592,42.0926],[20.9758,42.0625],[20.9993,42.0578],[21.0066,42.0505],[21.0079,42.0237],[21.0294,42.0138],[21.0314,42.0074],[21.0147,41.9923],[21.048,41.9722],[21.0474,41.9649],[21.02,41.9527],[20.9752,41.9669],[20.9619,41.9522],[20.9538,41.9528],[20.9203,41.9783],[20.8474,41.9876],[20.7514,41.9403],[20.7418,41.9708],[20.7431,41.9935],[20.7654,42.0643],[20.7849,42.082]]]}},{"type":"Feature","properties":{"id":"MKD-2960","code":"MK-06","name":"Bogovinje","name_ko":"보고비네 시","name_en":"Bogovinje","name_ja":"ボゴヴィニェ","name_zh":"博戈维涅区","name_es":"Municipalidad de Bogovinje","name_fr":"Bogovinyé","name_de":"Opština Bogovinje","name_ru":"Боговинье","name_pt":"Bogovinje","name_vi":"Đô thị tự trị Bogovinje"},"geometry":{"type":"Polygon","coordinates":[[[20.7511,41.9102],[20.7546,41.9434],[20.8474,41.9876],[20.9203,41.9783],[20.9579,41.9525],[20.9628,41.9288],[20.9876,41.9281],[20.9728,41.8987],[20.9501,41.888],[20.9554,41.8733],[20.8371,41.9107],[20.775,41.9188],[20.7511,41.9102]]]}},{"type":"Feature","properties":{"id":"MKD-2959","code":"MK-16","name":"Vrapcište","name_ko":"브랍치슈테 시","name_en":"Vrapčište","name_ja":"ヴラプチシュテ","name_zh":"弗拉普切斯特区","name_es":"Municipalidad de Vrapčište","name_fr":"Vraptchichté","name_de":"Opština Vrapčište","name_ru":"Врапчиште","name_pt":"Vrapčište","name_vi":"Vrapcište"},"geometry":{"type":"Polygon","coordinates":[[[20.7144,41.8592],[20.7511,41.9102],[20.775,41.9188],[20.8699,41.9027],[20.9374,41.878],[20.9483,41.8733],[20.9501,41.8512],[20.9559,41.8495],[20.94,41.8385],[20.9448,41.8225],[20.9348,41.8138],[20.916,41.8091],[20.8839,41.8151],[20.8585,41.8125],[20.8465,41.8044],[20.8111,41.8138],[20.7924,41.8392],[20.7523,41.8412],[20.7144,41.8592]]]}},{"type":"Feature","properties":{"id":"MKD-2906","code":"MK-44","name":"Kriva Palanka","name_ko":"크리바팔란카 시","name_en":"Kriva Palanka","name_ja":"クリヴァ・パランカ","name_zh":"克里瓦帕兰卡区","name_es":"Municipalidad de Kriva Palanka","name_fr":"Kriva Palanka","name_de":"Opština Kriva Palanka","name_ru":"Крива-Паланка","name_pt":"Kriva Palanka","name_vi":"Đô thị tự trị Kriva Palanka"},"geometry":{"type":"Polygon","coordinates":[[[22.2689,42.3703],[22.2769,42.3412],[22.3076,42.3193],[22.345,42.3134],[22.4436,42.2144],[22.4814,42.1933],[22.5069,42.1489],[22.445,42.1202],[22.417,42.0996],[22.3493,42.1002],[22.3466,42.0945],[22.2826,42.1216],[22.2486,42.112],[22.2078,42.112],[22.2026,42.1166],[22.2078,42.144],[22.1969,42.174],[22.1878,42.2323],[22.1923,42.2669],[22.1423,42.2951],[22.1381,42.3191],[22.2334,42.3489],[22.2689,42.3703]]]}},{"type":"Feature","properties":{"id":"MKD-4846","code":"MK-65","name":"Rankovce","name_ko":"란코프체 시","name_en":"Rankovce","name_ja":"ランコヴツェ","name_zh":"兰科夫塞区","name_es":"Municipalidad de Rankovce","name_fr":"Rankovtsé","name_de":"Opština Rankovce","name_ru":"Ранковце","name_pt":"Rankovce","name_vi":"Đô thị tự trị Rankovce"},"geometry":{"type":"Polygon","coordinates":[[[22.0609,42.3011],[22.1381,42.3191],[22.1423,42.2951],[22.1923,42.2669],[22.1878,42.2323],[22.1969,42.174],[22.2078,42.144],[22.2034,42.1203],[22.193,42.1174],[22.1903,42.0988],[22.1417,42.0893],[22.0959,42.1215],[22.057,42.1287],[22.0519,42.1492],[22.0237,42.1635],[22.0426,42.1641],[22.0472,42.175],[22.0313,42.1972],[22.0308,42.224],[22.0215,42.2412],[22.0515,42.2553],[22.0454,42.3024],[22.0609,42.3011]]]}},{"type":"Feature","properties":{"id":"MKD-2910","code":"MK-71","name":"Staro Nagoričane","name_ko":"스타로나고리차네 시","name_en":"Staro Nagoričane","name_ja":"スタロ・ナゴリチャネ","name_zh":"斯塔羅納戈里查內區","name_es":"Municipalidad de Staro Nagoričane","name_fr":"Staro Nagoritchané","name_de":"Opština Staro Nagoričane","name_ru":"Старо-Нагоричане","name_pt":"Staro Nagoričane","name_vi":"Staro Nagoričane"},"geometry":{"type":"Polygon","coordinates":[[[21.929,42.3351],[22.0454,42.3024],[22.0515,42.2553],[22.0215,42.2412],[22.0308,42.224],[22.0313,42.1972],[22.0472,42.1687],[21.9909,42.1619],[21.9909,42.1274],[21.9714,42.102],[21.9596,42.0988],[21.946,42.0974],[21.9346,42.1224],[21.9277,42.1248],[21.9135,42.1214],[21.9032,42.1065],[21.8519,42.1207],[21.8011,42.102],[21.7852,42.1044],[21.7596,42.1293],[21.7551,42.1535],[21.7635,42.1732],[21.7576,42.2082],[21.7804,42.2189],[21.7821,42.232],[21.7195,42.261],[21.8172,42.3051],[21.8844,42.3095],[21.929,42.3351]]]}},{"type":"Feature","properties":{"id":"MKD-2943","code":"MK-47","name":"Kumanovo","name_ko":"쿠마노보 시","name_en":"Kumanovo","name_ja":"クマノヴォ","name_zh":"库马诺沃区","name_es":"Municipalidad de Kumanovo","name_fr":"Koumanovo","name_de":"Opština Kumanovo","name_ru":"Куманово","name_pt":"Kumanovo","name_vi":"Đô thị tự trị Kumanovo"},"geometry":{"type":"Polygon","coordinates":[[[21.6769,42.2349],[21.7195,42.261],[21.7821,42.232],[21.7804,42.2189],[21.7576,42.2082],[21.7635,42.1732],[21.7551,42.1535],[21.7596,42.1293],[21.7852,42.1044],[21.8011,42.102],[21.8519,42.1207],[21.9032,42.1065],[21.9135,42.1214],[21.9346,42.1224],[21.946,42.0974],[21.9227,42.0521],[21.9522,42.0462],[21.9594,42.0226],[21.983,42.0072],[21.9839,41.9909],[21.9309,41.9741],[21.9082,41.9968],[21.8673,41.9972],[21.8406,41.9777],[21.8383,41.9636],[21.8129,41.9419],[21.7821,41.9621],[21.7362,41.9558],[21.7166,41.9715],[21.6921,41.9789],[21.6854,41.9849],[21.6856,42.0136],[21.672,42.0136],[21.6366,42.0339],[21.6324,42.0514],[21.5988,42.0615],[21.6013,42.0752],[21.6306,42.0916],[21.6392,42.134],[21.6644,42.1315],[21.6644,42.1571],[21.6862,42.1672],[21.6769,42.2349]]]}},{"type":"Feature","properties":{"id":"MKD-3005","code":"MK-23","name":"Delčevo","name_ko":"델체보 시","name_en":"Delčevo","name_ja":"デルチェヴォ","name_zh":"德尔塞沃区","name_es":"Municipalidad de Delčevo","name_fr":"Deltchevo","name_de":"Opština Delčevo","name_ru":"Делчево","name_pt":"Delcevo","name_vi":"Đô thị tự trị Delcevo"},"geometry":{"type":"Polygon","coordinates":[[[22.6272,42.0791],[22.7057,42.0559],[22.7251,42.0425],[22.7809,42.0432],[22.7989,42.0212],[22.8213,42.0254],[22.8382,42.0195],[22.8548,41.9826],[22.8589,41.9479],[22.8771,41.902],[22.8821,41.8716],[22.8315,41.8386],[22.812,41.8096],[22.792,41.8053],[22.7749,41.7887],[22.677,41.802],[22.6761,41.8257],[22.6894,41.8419],[22.6965,41.8723],[22.7132,41.8985],[22.6823,41.9027],[22.6086,41.9275],[22.6038,41.9988],[22.6238,42.0097],[22.6272,42.0791]]]}},{"type":"Feature","properties":{"id":"MKD-3006","code":"MK-51","name":"Makedonska Kamenica","name_ko":"마케돈스카카메니차 시","name_en":"Makedonska Kamenica","name_ja":"マケドンスカ・カメニツァ","name_zh":"马其顿卡门尼卡区","name_es":"Municipalidad de Makedonska Kamenica","name_fr":"Makedonska Kamenitsa","name_de":"Opština Makedonska Kamenica","name_ru":"Македонска-Каменица","name_pt":"Makedonska Kamencia kommune","name_vi":"Đô thị tự trị Makedonska Kamenica"},"geometry":{"type":"Polygon","coordinates":[[[22.5069,42.1489],[22.5311,42.1291],[22.6272,42.0791],[22.6238,42.0097],[22.6062,42.004],[22.6059,41.9825],[22.5816,41.9871],[22.5679,41.9819],[22.5503,41.9458],[22.5389,41.9401],[22.5177,41.9448],[22.5111,41.9862],[22.4911,42.0095],[22.4887,42.0323],[22.4603,42.0456],[22.4559,42.0541],[22.455,42.0855],[22.4426,42.0955],[22.4279,42.0841],[22.417,42.0969],[22.445,42.1202],[22.5069,42.1489]]]}},{"type":"Feature","properties":{"id":"MKD-3004","code":"MK-03","name":"Berovo","name_ko":"베로보 시","name_en":"Berovo","name_ja":"ベロヴォ","name_zh":"贝罗沃区","name_es":"Municipalidad de Berovo","name_fr":"Berovo","name_de":"Opština Berovo","name_ru":"Берово","name_pt":"Berovo","name_vi":"Đô thị tự trị Berovo"},"geometry":{"type":"Polygon","coordinates":[[[22.9854,41.6772],[22.967,41.647],[22.9458,41.6411],[22.9361,41.6262],[22.9337,41.5846],[22.9487,41.561],[22.9436,41.5232],[22.8533,41.5171],[22.8352,41.5313],[22.7718,41.5365],[22.7485,41.5518],[22.7385,41.5684],[22.6763,41.5741],[22.6758,41.5826],[22.6905,41.5912],[22.6876,41.6126],[22.6567,41.6297],[22.6498,41.631],[22.635,41.6167],[22.629,41.6239],[22.6243,41.656],[22.6445,41.6845],[22.6249,41.6963],[22.6209,41.7274],[22.6537,41.734],[22.6632,41.7426],[22.6737,41.7663],[22.6744,41.8072],[22.677,41.802],[22.7245,41.7991],[22.7576,41.7885],[22.7863,41.7283],[22.7944,41.7269],[22.8039,41.7369],[22.8614,41.7312],[22.8728,41.7274],[22.878,41.7131],[22.9076,41.7126],[22.9854,41.6772]]]}},{"type":"Feature","properties":{"id":"MKD-3007","code":"MK-60","name":"Pehčevo","name_ko":"페흐체보 시","name_en":"Pehčevo","name_ja":"ペフチェヴォ","name_zh":"佩赫塞沃区","name_es":"Municipalidad de Pehčevo","name_fr":"Pehtchevo","name_de":"Opština Pehčevo","name_ru":"Пехчево","name_pt":"Pehcevo","name_vi":"Đô thị tự trị Pehcevo"},"geometry":{"type":"Polygon","coordinates":[[[22.8821,41.8716],[22.9014,41.8604],[22.9183,41.8143],[22.9459,41.7693],[22.9912,41.761],[23.0089,41.7399],[23.0096,41.7164],[22.9854,41.6772],[22.9076,41.7126],[22.878,41.7131],[22.8728,41.7274],[22.8614,41.7312],[22.8039,41.7369],[22.7944,41.7269],[22.7825,41.735],[22.7801,41.7502],[22.773,41.753],[22.7576,41.7885],[22.7749,41.7887],[22.792,41.8053],[22.812,41.8096],[22.8315,41.8386],[22.8821,41.8716]]]}},{"type":"Feature","properties":{"id":"MKD-2918","code":"MK-30","name":"Želino","name_ko":"젤리노 시","name_en":"Želino","name_ja":"ジェリノ","name_zh":"泽林诺区","name_es":"Municipalidad de Želino","name_fr":"Jelino","name_de":"Opština Želino","name_ru":"Желино","name_pt":"Zelino","name_vi":"Đô thị tự trị Zelino"},"geometry":{"type":"Polygon","coordinates":[[[21.0668,41.9007],[21.0575,41.9047],[21.0554,41.9281],[21.0413,41.9308],[21.0199,41.9528],[21.0474,41.9649],[21.048,41.9722],[21.0147,41.9923],[21.0253,42.0063],[21.0525,42.0006],[21.0711,42.0036],[21.0763,42.0006],[21.0725,41.9858],[21.0844,41.9828],[21.1119,41.9813],[21.1224,41.9895],[21.1384,41.9898],[21.1874,41.9701],[21.19,41.9533],[21.1802,41.9003],[21.2408,41.8559],[21.2338,41.8172],[21.1838,41.839],[21.1784,41.8546],[21.1637,41.8526],[21.1597,41.8425],[21.1276,41.8419],[21.1082,41.8546],[21.0708,41.8566],[21.0735,41.8827],[21.0822,41.884],[21.0848,41.892],[21.0801,41.9007],[21.0668,41.9007]]]}},{"type":"Feature","properties":{"id":"MKD-2961","code":"MK-08","name":"Brvenica","name_ko":"브르베니차 시","name_en":"Brvenica","name_ja":"ブルヴェニツァ","name_zh":"布尔文尼卡区","name_es":"Municipalidad de Brvenica","name_fr":"Brvenitsa","name_de":"Opština Brvenica","name_ru":"Брвеница","name_pt":"Brvenica","name_vi":"Đô thị tự trị Brvenica"},"geometry":{"type":"Polygon","coordinates":[[[21.02,41.9527],[21.0413,41.9308],[21.0554,41.9281],[21.0575,41.9047],[21.0801,41.9007],[21.0848,41.892],[21.0822,41.884],[21.0735,41.8827],[21.0708,41.8566],[21.1082,41.8546],[21.1276,41.8419],[21.1597,41.8425],[21.1637,41.8526],[21.1784,41.8546],[21.1838,41.839],[21.1664,41.8399],[21.147,41.8292],[21.1069,41.7897],[21.0791,41.7773],[21.029,41.8211],[21.0277,41.8365],[20.9849,41.8379],[20.9501,41.8512],[20.9483,41.8733],[20.9554,41.8733],[20.9501,41.888],[20.9728,41.8987],[20.9876,41.9281],[20.9628,41.9288],[20.9579,41.9525],[20.9752,41.9669],[21.02,41.9527]]]}},{"type":"Feature","properties":{"id":"MKD-2944","code":"MK-52","name":"Brod","name_ko":"마케돈스키브로드 시","name_en":"Makedonski Brod","name_ja":"マケドンスキ・ブロド","name_zh":"马其顿布罗德区","name_es":"Municipalidad de Makedonski Brod","name_fr":"Makedonski Brod","name_de":"Opština Makedonski Brod","name_ru":"Македонски-Брод","name_pt":"Makedonski Brod","name_vi":"Đô thị tự trị Makedonski Brod"},"geometry":{"type":"Polygon","coordinates":[[[21.1797,41.8399],[21.2441,41.8091],[21.3047,41.7388],[21.324,41.7259],[21.3651,41.7261],[21.374,41.7186],[21.374,41.6845],[21.3967,41.6565],[21.3725,41.6322],[21.3743,41.5929],[21.3666,41.5929],[21.3577,41.5506],[21.3302,41.5231],[21.3282,41.4902],[21.2881,41.4986],[21.2799,41.4878],[21.2601,41.4818],[21.2597,41.4721],[21.2466,41.472],[21.2407,41.4426],[21.1952,41.4291],[21.192,41.4399],[21.1545,41.4538],[21.1444,41.4806],[21.0762,41.4667],[21.0781,41.4828],[21.0949,41.4882],[21.1483,41.5283],[21.1477,41.5343],[21.1082,41.5584],[21.1015,41.5798],[21.1028,41.6212],[21.0976,41.6293],[21.0561,41.6386],[21.0561,41.6794],[21.0454,41.6961],[21.044,41.7128],[21.03,41.7282],[21.0474,41.7409],[21.0527,41.775],[21.0928,41.7797],[21.147,41.8292],[21.1664,41.8399],[21.1797,41.8399]]]}},{"type":"Feature","properties":{"id":"MKD-2956","code":"MK-57","name":"Oslomej","name_ko":"오슬로메이 시","name_en":"Oslomej","name_ja":"オスロメイ","name_zh":"奥斯洛梅区","name_es":"Municipalidad de Oslomej","name_fr":"Oslomeï","name_de":"Opština Oslomej","name_ru":"Осломей","name_pt":"Oslomej","name_vi":"Đô thị tự trị Oslomej"},"geometry":{"type":"Polygon","coordinates":[[[21.0529,41.6476],[21.0621,41.6346],[21.0976,41.6293],[21.1028,41.6212],[21.1015,41.5798],[21.0868,41.5624],[21.0534,41.545],[21.0353,41.5123],[21.0053,41.5042],[20.9999,41.529],[20.9919,41.5337],[20.9745,41.529],[20.9665,41.5464],[20.9858,41.5784],[20.9858,41.6286],[21.0529,41.6476]]]}},{"type":"Feature","properties":{"id":"MKD-2909","code":"MK-70","name":"Sopište","name_ko":"소피슈테 시","name_en":"Sopište","name_ja":"ソピシュテ","name_zh":"苏皮什特区","name_es":"Municipalidad de Sopište","name_fr":"Sopichté","name_de":"Opština Sopište","name_ru":"Сопиште","name_pt":"Sopiste","name_vi":"Đô thị tự trị Sopiste"},"geometry":{"type":"Polygon","coordinates":[[[21.2338,41.8172],[21.2408,41.8559],[21.2166,41.8721],[21.2223,41.8874],[21.2611,41.8987],[21.3337,41.9431],[21.3599,41.9484],[21.4434,41.9429],[21.447,41.9135],[21.44,41.8883],[21.3986,41.8864],[21.3591,41.8941],[21.3366,41.8851],[21.3411,41.8631],[21.3798,41.8554],[21.3591,41.8444],[21.3476,41.8056],[21.3333,41.8004],[21.3321,41.7927],[21.3456,41.7862],[21.35,41.7766],[21.3387,41.7514],[21.3464,41.728],[21.324,41.7259],[21.3047,41.7388],[21.2562,41.7986],[21.2338,41.8172]]]}},{"type":"Feature","properties":{"id":"MKD-2935","code":"MK-38","name":"Karpoš","name_ko":"카르포시 시","name_en":"Karpoš","name_ja":"カルポス","name_zh":"卡尔波什区","name_es":"Municipalidad de Karpoš","name_fr":"Karpoch","name_de":"Opština Karpoš","name_ru":"Карпош","name_pt":"Karpoš","name_vi":"Karpoš"},"geometry":{"type":"Polygon","coordinates":[[[21.3617,41.9454],[21.3592,42.0291],[21.3817,42.0218],[21.3992,42.0027],[21.428,42.0029],[21.4273,41.9867],[21.4125,41.9797],[21.4098,41.9684],[21.4278,41.9551],[21.4285,41.9454],[21.3617,41.9454]]]}},{"type":"Feature","properties":{"id":"MKD-5883","code":"MK-84","name":"Šuto Orizari","name_ko":"슈토오리자리 시","name_en":"Šuto Orizari","name_ja":"シュトオリザリ","name_zh":"苏托奥里扎里区","name_es":"Municipalidad de Šuto Orizari","name_fr":"Chouto Orizari","name_de":"Opština Šuto Orizari","name_ru":"Шуто-Оризари","name_pt":"Šuto Orizari","name_vi":"Šuto Orizari"},"geometry":{"type":"Polygon","coordinates":[[[21.4231,42.0316],[21.4259,42.0101],[21.4146,42.008],[21.4001,42.0257],[21.3886,42.0287],[21.3893,42.0456],[21.4046,42.0525],[21.4231,42.0316]]]}},{"type":"Feature","properties":{"id":"MKD-2921","code":"MK-09","name":"Butel","name_ko":"부텔 시","name_en":"Butel","name_ja":"ブテル","name_zh":"布特尔区","name_es":"Municipalidad de Butel","name_fr":"Boutel","name_de":"Opština Butel","name_ru":"Бутел","name_pt":"Butel","name_vi":"Butel"},"geometry":{"type":"Polygon","coordinates":[[[21.422,42.0325],[21.4268,42.0285],[21.4372,42.0332],[21.4347,42.0678],[21.4421,42.1037],[21.4656,42.1396],[21.4863,42.1418],[21.4828,42.1348],[21.511,42.1017],[21.499,42.0963],[21.4693,42.0629],[21.4668,42.0085],[21.4606,41.9986],[21.4459,41.9971],[21.4282,42.0057],[21.423,41.9996],[21.3992,42.0027],[21.3817,42.0218],[21.3886,42.0287],[21.4001,42.0257],[21.4216,42.0073],[21.4259,42.0101],[21.422,42.0325]]]}},{"type":"Feature","properties":{"id":"MKD-2913","code":"MK-79","name":"Čair","name_ko":"차이르 시","name_en":"Čair","name_ja":"チャイル","name_zh":"赛尔区","name_es":"Municipalidad de Čair","name_fr":"Tchaïr","name_de":"Opština Čair","name_ru":"Чаир","name_pt":"Čair","name_vi":"Čair"},"geometry":{"type":"Polygon","coordinates":[[[21.4282,42.0057],[21.4459,41.9971],[21.4443,41.9828],[21.4273,41.9867],[21.4282,42.0057]]]}},{"type":"Feature","properties":{"id":"MKD-2923","code":"MK-77","name":"Centar","name_ko":"첸타르 시","name_en":"Centar","name_ja":"ツェンタル","name_zh":"辛塔尔区","name_es":"Municipalidad de Centar","name_fr":"Tsentar","name_de":"Opština Centar","name_ru":"Центр","name_pt":"Centar","name_vi":"Centar"},"geometry":{"type":"Polygon","coordinates":[[[21.4353,41.9873],[21.4278,41.9551],[21.4098,41.9684],[21.4191,41.9857],[21.4353,41.9873]]]}},{"type":"Feature","properties":{"id":"MKD-2950","code":"MK-31","name":"Zajas","name_ko":"자야스 시","name_en":"Zajas","name_ja":"ザヤス","name_zh":"扎雅斯区","name_es":"Municipalidad de Zajas","name_fr":"Zaïas","name_de":"Opština Zajas","name_ru":"Заяс","name_pt":"Zajas","name_vi":"Đô thị tự trị Zajas"},"geometry":{"type":"Polygon","coordinates":[[[20.985,41.6245],[20.9858,41.5784],[20.9738,41.557],[20.9673,41.5499],[20.9016,41.5343],[20.8969,41.5213],[20.8561,41.5758],[20.8395,41.5778],[20.8208,41.6132],[20.7919,41.6126],[20.7833,41.6239],[20.794,41.6339],[20.8167,41.6346],[20.8535,41.66],[20.9083,41.6654],[20.9444,41.6547],[20.985,41.6245]]]}},{"type":"Feature","properties":{"id":"MKD-2928","code":"MK-27","name":"Dolneni","name_ko":"돌네니 시","name_en":"Dolneni","name_ja":"ドルネニ","name_zh":"多尔涅尼区","name_es":"Municipalidad de Dolneni","name_fr":"Dolneni","name_de":"Opština Dolneni","name_ru":"Долнени","name_pt":"Dolneni","name_vi":"Đô thị tự trị Dolneni"},"geometry":{"type":"Polygon","coordinates":[[[21.3282,41.4902],[21.3273,41.5163],[21.3641,41.5625],[21.3666,41.5929],[21.3828,41.5929],[21.4231,41.5821],[21.4393,41.56],[21.4556,41.5536],[21.4644,41.5089],[21.4777,41.4941],[21.5327,41.4932],[21.5435,41.4701],[21.5858,41.4607],[21.6026,41.4435],[21.5833,41.4332],[21.5755,41.4091],[21.5533,41.4032],[21.5312,41.388],[21.4543,41.3816],[21.4102,41.3508],[21.3971,41.3585],[21.3548,41.355],[21.3469,41.3609],[21.3411,41.3855],[21.3104,41.3753],[21.2626,41.4096],[21.2671,41.4204],[21.3004,41.4199],[21.3015,41.4307],[21.2646,41.4656],[21.2601,41.4818],[21.2997,41.5],[21.3282,41.4902]]]}},{"type":"Feature","properties":{"id":"MKD-2941","code":"MK-45","name":"Krivogaštani","name_ko":"크리보가슈타니 시","name_en":"Krivogaštani","name_ja":"クリヴォガシュタニ","name_zh":"克里沃加斯塔尼区","name_es":"Municipalidad de Krivogaštani","name_fr":"Krivogachtani","name_de":"Opština Krivogaštani","name_ru":"Кривогаштани","name_pt":"Krivogachtani","name_vi":"Đô thị tự trị Krivogastani"},"geometry":{"type":"Polygon","coordinates":[[[21.3346,41.3875],[21.3411,41.3855],[21.3498,41.3565],[21.3901,41.359],[21.4083,41.3531],[21.3944,41.3403],[21.3944,41.331],[21.4032,41.3192],[21.4278,41.3152],[21.414,41.2705],[21.385,41.2479],[21.3602,41.2474],[21.3341,41.268],[21.3218,41.2705],[21.3336,41.302],[21.3322,41.3123],[21.3086,41.3383],[21.3091,41.3727],[21.3346,41.3875]]]}},{"type":"Feature","properties":{"id":"MKD-2945","code":"MK-53","name":"Mogila","name_ko":"모길라 시","name_en":"Mogila","name_ja":"モギラ","name_zh":"莫吉拉區","name_es":"Municipalidad de Mogila","name_fr":"Mogila","name_de":"Opština Mogila","name_ru":"Могила","name_pt":"Mogila","name_vi":"Mogila"},"geometry":{"type":"Polygon","coordinates":[[[21.3371,41.2631],[21.3646,41.2462],[21.3693,41.2341],[21.4067,41.2253],[21.4403,41.1914],[21.4683,41.1884],[21.4943,41.1712],[21.5366,41.1776],[21.5548,41.1668],[21.5956,41.158],[21.5947,41.1394],[21.541,41.0929],[21.4569,41.1062],[21.43,41.084],[21.4128,41.0872],[21.3901,41.0773],[21.3691,41.0822],[21.3616,41.0916],[21.3607,41.1314],[21.3229,41.152],[21.314,41.1697],[21.3229,41.2007],[21.3031,41.2194],[21.3223,41.2607],[21.3371,41.2631]]]}},{"type":"Feature","properties":{"id":"MKD-2922","code":"MK-80","name":"Čaška","name_ko":"차슈카 시","name_en":"Čaška","name_ja":"チャシュカ","name_zh":"查什卡区","name_es":"Municipalidad de Čaška","name_fr":"Tchachka","name_de":"Opština Čaška","name_ru":"Чашка","name_pt":"Caska","name_vi":"Đô thị tự trị Caska"},"geometry":{"type":"Polygon","coordinates":[[[21.3743,41.5929],[21.3725,41.6322],[21.3967,41.6565],[21.4032,41.6895],[21.4265,41.7041],[21.4443,41.7316],[21.4831,41.7446],[21.4888,41.7403],[21.5709,41.7403],[21.5972,41.7039],[21.616,41.7087],[21.6712,41.696],[21.6983,41.6329],[21.7259,41.6439],[21.732,41.6145],[21.7408,41.6071],[21.7734,41.6019],[21.7718,41.5825],[21.8059,41.5571],[21.8015,41.54],[21.788,41.5287],[21.7858,41.509],[21.7889,41.5002],[21.8161,41.4879],[21.8098,41.4565],[21.7925,41.4632],[21.772,41.4413],[21.7583,41.4578],[21.7155,41.474],[21.6737,41.4651],[21.662,41.4297],[21.6379,41.4263],[21.6305,41.4381],[21.6026,41.4435],[21.5858,41.4607],[21.5435,41.4701],[21.5327,41.4932],[21.4777,41.4941],[21.4644,41.5089],[21.4556,41.5536],[21.4393,41.56],[21.4231,41.5821],[21.3743,41.5929]]]}},{"type":"Feature","properties":{"id":"MKD-2907","code":"MK-67","name":"Rosoman","name_ko":"로소만 시","name_en":"Rosoman","name_ja":"ロソマン","name_zh":"罗索曼区","name_es":"Municipalidad de Rosoman","name_fr":"Rosoman","name_de":"Opština Rosoman","name_ru":"Росоман","name_pt":"Rosoman","name_vi":"Rosoman"},"geometry":{"type":"Polygon","coordinates":[[[21.8098,41.4565],[21.8166,41.4893],[21.8519,41.5042],[21.8514,41.5323],[21.9022,41.5216],[21.9238,41.5436],[21.956,41.5375],[21.9586,41.5518],[21.9834,41.5525],[21.9838,41.503],[21.9775,41.4924],[21.976,41.4626],[21.9586,41.4544],[21.9539,41.4427],[21.9115,41.4529],[21.8976,41.4324],[21.8346,41.4319],[21.8098,41.4565]]]}},{"type":"Feature","properties":{"id":"MKD-2946","code":"MK-54","name":"Negotino","name_ko":"네고티노 시","name_en":"Negotino","name_ja":"ネゴティノ","name_zh":"内戈蒂诺区","name_es":"Municipalidad de Negotino","name_fr":"Negotino","name_de":"Opština Negotino","name_ru":"Неготино","name_pt":"Negotino","name_vi":"Đô thị tự trị Negotino"},"geometry":{"type":"Polygon","coordinates":[[[21.9838,41.503],[21.9832,41.5523],[21.997,41.5503],[22.0024,41.5276],[22.0151,41.528],[22.0254,41.5465],[22.0155,41.56],[22.032,41.5867],[22.0307,41.5965],[22.0193,41.6002],[21.9885,41.592],[21.9786,41.5994],[21.9799,41.6104],[22.0086,41.6412],[22.0108,41.6535],[22.0418,41.6428],[22.061,41.6223],[22.0709,41.624],[22.0824,41.6408],[22.0893,41.6416],[22.1016,41.6264],[22.111,41.5945],[22.1685,41.5871],[22.1718,41.5661],[22.216,41.5457],[22.2603,41.5436],[22.2933,41.5099],[22.3001,41.4893],[22.2722,41.4715],[22.2594,41.4548],[22.209,41.4751],[22.1872,41.473],[22.1618,41.4516],[22.1451,41.4127],[22.1255,41.4022],[22.1426,41.3764],[22.1343,41.351],[22.0848,41.3493],[22.0693,41.3565],[22.0672,41.3755],[22.0539,41.4022],[22.0442,41.496],[22.0288,41.5047],[22.0016,41.4985],[21.9838,41.503]]]}},{"type":"Feature","properties":{"id":"MKD-2953","code":"MK-28","name":"Drugovo","name_ko":"드루고보 시","name_en":"Drugovo","name_ja":"ドルゴヴォ","name_zh":"德鲁戈沃区","name_es":"Municipalidad de Drugovo","name_fr":"Drougovo","name_de":"Opština Drugovo","name_ru":"Другово","name_pt":"Drugovo","name_vi":"Đô thị tự trị Drugovo"},"geometry":{"type":"Polygon","coordinates":[[[20.8095,41.6147],[20.8208,41.6132],[20.8395,41.5778],[20.8561,41.5758],[20.9056,41.5029],[20.9712,41.4748],[20.9755,41.4693],[20.9658,41.4655],[20.9658,41.4494],[20.9959,41.43],[21.0046,41.412],[21.0567,41.414],[21.0708,41.4193],[21.0712,41.4287],[21.0889,41.4327],[21.0995,41.4173],[21.1335,41.405],[21.1391,41.3849],[21.1197,41.381],[21.1168,41.3734],[21.0855,41.3544],[21.0077,41.354],[20.9616,41.3333],[20.9555,41.3242],[20.9334,41.3511],[20.9147,41.3558],[20.9073,41.3672],[20.9059,41.3913],[20.8886,41.422],[20.7983,41.4287],[20.696,41.4287],[20.6873,41.4226],[20.7114,41.4808],[20.7562,41.4735],[20.7689,41.4768],[20.7914,41.5018],[20.8039,41.507],[20.805,41.5289],[20.8176,41.5394],[20.8176,41.5812],[20.8095,41.6147]]]}},{"type":"Feature","properties":{"id":"MKD-2929","code":"MK-17","name":"Gazi Baba","name_ko":"가지바바 시","name_en":"Gazi Baba","name_ja":"ガジババ","name_zh":"加齐巴巴区","name_es":"Municipalidad de Gazi Baba","name_fr":"Gazi Baba","name_de":"Opština Gazi Baba","name_ru":"Гази-Баба","name_pt":"Gazi Baba","name_vi":"Gazi Baba"},"geometry":{"type":"Polygon","coordinates":[[[21.4459,41.9971],[21.4606,41.9986],[21.4668,42.0085],[21.4693,42.0629],[21.499,42.0963],[21.511,42.1017],[21.5409,42.0702],[21.5394,42.0547],[21.5514,42.0311],[21.5517,42.0162],[21.54,42.0055],[21.54,41.9874],[21.5306,41.9721],[21.5722,41.9504],[21.5816,41.9371],[21.5829,41.9197],[21.572,41.9101],[21.5602,41.9267],[21.5287,41.9479],[21.4443,41.9828],[21.4459,41.9971]]]}},{"type":"Feature","properties":{"id":"MKD-2942","code":"MK-46","name":"Kruševo","name_ko":"크루셰보 시","name_en":"Kruševo","name_ja":"クルシェヴォ","name_zh":"克鲁塞沃区","name_es":"Municipalidad de Kruševo","name_fr":"Krouchevo","name_de":"Opština Kruševo","name_ru":"Крушево","name_pt":"Krusevo","name_vi":"Đô thị tự trị Krusevo"},"geometry":{"type":"Polygon","coordinates":[[[21.2557,41.4726],[21.3015,41.4307],[21.3004,41.4199],[21.2671,41.4204],[21.2626,41.4096],[21.3104,41.3753],[21.3086,41.3383],[21.3322,41.3123],[21.3322,41.2916],[21.3218,41.2705],[21.3341,41.268],[21.3346,41.263],[21.3223,41.2607],[21.3042,41.2287],[21.3031,41.2194],[21.314,41.2103],[21.2899,41.2188],[21.2933,41.2566],[21.2763,41.2718],[21.2687,41.2965],[21.2468,41.3107],[21.2193,41.306],[21.2184,41.3496],[21.2118,41.3572],[21.1699,41.3572],[21.1699,41.3715],[21.1391,41.3849],[21.131,41.4009],[21.1428,41.4116],[21.2407,41.4426],[21.2466,41.472],[21.2557,41.4726]]]}},{"type":"Feature","properties":{"id":"MKD-2897","code":"MK-25","name":"Demir Hisar","name_ko":"데미르히사르 시","name_en":"Demir Hisar","name_ja":"デミル・ヒサル","name_zh":"德米尔希萨尔区","name_es":"Municipalidad de Demir Hisar","name_fr":"Demir Hisar","name_de":"Opština Demir Hisar","name_ru":"Демир-Хисар","name_pt":"Demir Hisar","name_vi":"Demir Hisar"},"geometry":{"type":"Polygon","coordinates":[[[21.1349,41.3866],[21.1699,41.3715],[21.1699,41.3572],[21.2118,41.3572],[21.2184,41.3496],[21.2193,41.306],[21.2468,41.3107],[21.2687,41.2965],[21.2763,41.2718],[21.2933,41.2566],[21.2933,41.2357],[21.2899,41.2188],[21.2507,41.1895],[21.2303,41.1842],[21.2173,41.1675],[21.2044,41.1667],[21.1543,41.1401],[21.097,41.1258],[21.0837,41.1413],[21.0691,41.1985],[21.0503,41.199],[21.0436,41.2051],[21.0212,41.2409],[21.0212,41.2525],[21.0029,41.264],[20.9932,41.2841],[20.9568,41.3041],[20.9543,41.3224],[20.9616,41.3333],[21.0077,41.354],[21.0855,41.3544],[21.1349,41.3866]]]}},{"type":"Feature","properties":{"id":"MKD-2937","code":"MK-01","name":"Aerodrom","name_ko":"아에로드롬 시","name_en":"Aerodrom","name_ja":"アエロドロム","name_zh":"艾罗德隆区","name_es":"Municipalidad de Aerodrom","name_fr":"Aerodrom","name_de":"Opština Aerodrom","name_ru":"Аэродром","name_pt":"Aerodrom","name_vi":"Aerodrom"},"geometry":{"type":"Polygon","coordinates":[[[21.4345,41.9718],[21.4421,41.9837],[21.4656,41.9763],[21.5287,41.9479],[21.5543,41.9279],[21.5361,41.9187],[21.5126,41.9367],[21.478,41.9454],[21.4345,41.9718]]]}},{"type":"Feature","properties":{"id":"MKD-2912","code":"MK-74","name":"Studeničani","name_ko":"스투데니차니 시","name_en":"Studeničani","name_ja":"ストゥデニチャニ","name_zh":"斯图登尼查尼区","name_es":"Municipalidad de Studeničani","name_fr":"Stoudenitchani","name_de":"Opština Studeničani","name_ru":"Студеничани","name_pt":"Studenicani","name_vi":"Đô thị tự trị Studenicani"},"geometry":{"type":"Polygon","coordinates":[[[21.3538,41.7261],[21.3437,41.7287],[21.3387,41.74],[21.3424,41.7665],[21.35,41.7766],[21.3456,41.7862],[21.3321,41.7927],[21.3333,41.8004],[21.3476,41.8056],[21.3591,41.8444],[21.3798,41.8554],[21.3411,41.8631],[21.3366,41.8851],[21.3591,41.8941],[21.3986,41.8864],[21.44,41.8883],[21.4474,41.9255],[21.4681,41.9281],[21.4872,41.9202],[21.4872,41.8985],[21.5018,41.8904],[21.5229,41.9141],[21.5602,41.9267],[21.572,41.9101],[21.5691,41.896],[21.5864,41.8949],[21.5367,41.87],[21.534,41.8559],[21.5152,41.8362],[21.5086,41.8169],[21.4937,41.8174],[21.4888,41.831],[21.4731,41.8244],[21.4665,41.8134],[21.4679,41.7924],[21.4876,41.7665],[21.4831,41.7446],[21.4443,41.7316],[21.4265,41.7041],[21.4032,41.6895],[21.3942,41.6605],[21.374,41.6845],[21.374,41.7186],[21.3538,41.7261]]]}},{"type":"Feature","properties":{"id":"MKD-2938","code":"MK-39","name":"Kisela Voda","name_ko":"키셀라보다 시","name_en":"Kisela Voda","name_ja":"キセラ・ボーダ","name_zh":"基塞拉沃達區","name_es":"Municipalidad de Kisela Voda","name_fr":"Kisela Voda","name_de":"Opština Kisela Voda","name_ru":"Кисела-Вода","name_pt":"Kisela Voda","name_vi":"Kisela Voda"},"geometry":{"type":"Polygon","coordinates":[[[21.4474,41.9255],[21.4434,41.9429],[21.4285,41.9454],[21.4345,41.9718],[21.478,41.9454],[21.5126,41.9367],[21.5361,41.9187],[21.5229,41.9141],[21.5018,41.8904],[21.4895,41.894],[21.4872,41.9202],[21.478,41.9281],[21.4474,41.9255]]]}},{"type":"Feature","properties":{"id":"MKD-2904","code":"MK-63","name":"Probištip","name_ko":"프로비슈티프 시","name_en":"Probištip","name_ja":"プロビシュティプ","name_zh":"普罗比什提普区","name_es":"Municipalidad de Probištip","name_fr":"Probichtip","name_de":"Opština Probištip","name_ru":"Пробиштип","name_pt":"Probistip","name_vi":"Probistip Đô thị tự trị"},"geometry":{"type":"Polygon","coordinates":[[[22.2563,41.9482],[22.2413,41.9461],[22.2239,41.9116],[22.1881,41.891],[22.2245,41.8492],[22.1843,41.8442],[22.1738,41.8476],[22.1675,41.8644],[22.1472,41.8597],[22.1401,41.8662],[22.0986,41.8675],[22.0855,41.8812],[22.0941,41.9034],[22.0748,41.9119],[22.0549,41.9408],[22.0141,41.9646],[22.0113,41.972],[22.0238,41.9997],[22.0635,41.9907],[22.072,42.0099],[22.0845,42.019],[22.1185,42.0201],[22.1629,42.0343],[22.1822,42.019],[22.2151,42.0253],[22.2259,42.0139],[22.2384,42.0116],[22.2452,42.019],[22.2491,42.0513],[22.3018,42.0508],[22.3285,42.036],[22.3368,42.0261],[22.3282,42.0009],[22.3085,41.993],[22.2978,41.9773],[22.2563,41.9482]]]}},{"type":"Feature","properties":{"id":"MKD-2925","code":"MK-81","name":"Češinovo-Obleševo","name_ko":"체시노보오블레셰보 시","name_en":"Češinovo-Obleševo","name_ja":"チェシノヴォ＝オブレシェヴォ","name_zh":"切希诺沃-奥布莱舍沃区","name_es":"Municipalidad de Češinovo-Obleševo","name_fr":"Tchéchinovo-Obléchévo","name_de":"Opština Češinovo-Obleševo","name_ru":"Чешиново-Облешево","name_pt":"Cesinoco-Oblesevo","name_vi":"Đô thị tự trị Cesinovo-Oblesevo"},"geometry":{"type":"Polygon","coordinates":[[[22.2517,41.9504],[22.2887,41.9191],[22.33,41.9174],[22.3251,41.8802],[22.3362,41.8558],[22.3565,41.8467],[22.3592,41.8253],[22.3803,41.8075],[22.391,41.7922],[22.3878,41.7886],[22.3667,41.7899],[22.3448,41.8063],[22.2825,41.8105],[22.2344,41.84],[22.1894,41.8838],[22.1911,41.896],[22.2239,41.9116],[22.2413,41.9461],[22.2517,41.9504]]]}},{"type":"Feature","properties":{"id":"MKD-2919","code":"MK-02","name":"Aračinovo","name_ko":"아라치노보 시","name_en":"Aračinovo","name_ja":"アラチノヴォ","name_zh":"阿拉津诺沃区","name_es":"Municipalidad de Aračinovo","name_fr":"Aratchinovo","name_de":"Opština Aračinovo","name_ru":"Арачиново","name_pt":"Aracinovo","name_vi":"Đô thị tự trị Aracinovo"},"geometry":{"type":"Polygon","coordinates":[[[21.54,41.9874],[21.54,42.0055],[21.5523,42.0207],[21.5488,42.0444],[21.5394,42.0547],[21.5409,42.0702],[21.5747,42.0388],[21.5966,42.0377],[21.6037,42.0594],[21.6324,42.0514],[21.6335,42.04],[21.588,42.0003],[21.54,41.9874]]]}},{"type":"Feature","properties":{"id":"MKD-2917","code":"MK-32","name":"Zelenikovo","name_ko":"젤레니코보 시","name_en":"Zelenikovo","name_ja":"ゼレニコヴォ","name_zh":"泽伦尼科沃区","name_es":"Municipalidad de Zelenikovo","name_fr":"Zelenikovo","name_de":"Opština Zelenikovo","name_ru":"Зелениково","name_pt":"Zelenikovo","name_vi":"Đô thị tự trị Zelenikovo"},"geometry":{"type":"Polygon","coordinates":[[[21.4888,41.7403],[21.4823,41.7451],[21.4876,41.7665],[21.4679,41.7924],[21.4665,41.8134],[21.4731,41.8244],[21.4888,41.831],[21.4937,41.8174],[21.5086,41.8169],[21.5152,41.8362],[21.534,41.8559],[21.5367,41.87],[21.5864,41.8949],[21.6323,41.888],[21.6372,41.8827],[21.6354,41.832],[21.6225,41.8187],[21.6313,41.7749],[21.6111,41.7499],[21.5709,41.7403],[21.4888,41.7403]]]}},{"type":"Feature","properties":{"id":"MKD-2954","code":"MK-40","name":"Kičevo","name_ko":"키체보 시","name_en":"Kičevo","name_ja":"キチェボ","name_zh":"基塞沃区","name_es":"Municipalidad de Kičevo","name_fr":"Kitchevo","name_de":"Opština Kičevo","name_ru":"Кичево","name_pt":"Kicevo","name_vi":"Đô thị tự trị Kicevo"},"geometry":{"type":"Polygon","coordinates":[[[20.9673,41.5499],[20.9745,41.529],[20.9919,41.5337],[21.0053,41.5216],[21.0053,41.5042],[20.9946,41.4989],[20.9755,41.4693],[20.9565,41.4828],[20.9123,41.4982],[20.8969,41.5176],[20.9016,41.5343],[20.9673,41.5499]]]}},{"type":"Feature","properties":{"id":"MKD-2902","code":"MK-61","name":"Plasnica","name_ko":"플라스니차 시","name_en":"Plasnica","name_ja":"プラスニツァ","name_zh":"普拉什尼查区","name_es":"Municipalidad de Plasnica","name_fr":"Plasnitsa","name_de":"Opština Plasnica","name_ru":"Пласница","name_pt":"Plasnica","name_vi":"Đô thị tự trị Plasnica"},"geometry":{"type":"Polygon","coordinates":[[[21.1444,41.4806],[21.1545,41.4538],[21.192,41.4399],[21.1952,41.4291],[21.1335,41.405],[21.0995,41.4173],[21.0889,41.4327],[21.0527,41.426],[21.0461,41.4341],[21.0394,41.4588],[21.0427,41.4695],[21.0765,41.4667],[21.1444,41.4806]]]}},{"type":"Feature","properties":{"id":"MKD-2916","code":"MK-15","name":"Vraneštica","name_ko":"브라네슈티차 시","name_en":"Vraneštica","name_ja":"ヴラネシュティツァ","name_zh":"弗兰尼斯提卡区","name_es":"Municipalidad de Vraneštica","name_fr":"Vranechtitsa","name_de":"Opština Vraneštica","name_ru":"Вранештица","name_pt":"Vranestica","name_vi":"Đô thị tự trị Vranestica"},"geometry":{"type":"Polygon","coordinates":[[[21.1022,41.5805],[21.1082,41.5584],[21.1477,41.5343],[21.1483,41.5283],[21.0949,41.4882],[21.0781,41.4828],[21.0762,41.4667],[21.0427,41.4695],[21.0394,41.4588],[21.0461,41.4341],[21.0527,41.426],[21.0712,41.4287],[21.0708,41.4193],[21.0427,41.4113],[21.0046,41.412],[20.9959,41.43],[20.9698,41.4434],[20.9658,41.4655],[20.9755,41.4693],[20.9946,41.4989],[21.0353,41.5123],[21.0534,41.545],[21.0868,41.5624],[21.1022,41.5805]]]}},{"type":"Feature","properties":{"id":"MKD-2901","code":"MK-85","name":"Skopje","name_ko":"스코페","name_en":"Skopje","name_ja":"スコピエ","name_zh":"斯科普里","name_es":"Skopie","name_fr":"Skopje","name_de":"Skopje","name_ru":"Скопье","name_pt":"Skopje","name_vi":"Skopje"},"geometry":{"type":"Polygon","coordinates":[[[21.572,41.9101],[21.6226,41.9414],[21.6483,41.9327],[21.6741,41.9343],[21.6773,41.9393],[21.669,41.9561],[21.6867,41.9838],[21.7166,41.9715],[21.7362,41.9558],[21.7821,41.9621],[21.8129,41.9419],[21.8032,41.9116],[21.7688,41.8923],[21.7369,41.8866],[21.7351,41.8398],[21.7238,41.8092],[21.7159,41.804],[21.6932,41.8188],[21.6862,41.8188],[21.6722,41.8022],[21.6665,41.8022],[21.6648,41.8171],[21.656,41.8123],[21.6275,41.8175],[21.6354,41.832],[21.6372,41.8827],[21.6008,41.8944],[21.5691,41.896],[21.572,41.9101]]]}},{"type":"Feature","properties":{"id":"MKD-2931","code":"MK-49","name":"Lozovo","name_ko":"로조보 시","name_en":"Lozovo","name_ja":"ロゾヴォ","name_zh":"洛佐沃区","name_es":"Municipalidad de Lozovo","name_fr":"Lozovo","name_de":"Opština Lozovo","name_ru":"Лозово","name_pt":"Lozovo","name_vi":"Đô thị tự trị Lozovo"},"geometry":{"type":"Polygon","coordinates":[[[21.8489,41.8349],[21.8732,41.8313],[21.8959,41.8092],[21.93,41.7979],[21.9622,41.7667],[22.014,41.7329],[22.0074,41.7314],[22.0093,41.7187],[21.9951,41.7175],[21.9914,41.7089],[21.9606,41.7232],[21.9405,41.7052],[21.9368,41.6924],[21.9597,41.6756],[21.9612,41.664],[21.9477,41.6512],[21.9288,41.6459],[21.9,41.652],[21.8829,41.719],[21.8655,41.7203],[21.8614,41.712],[21.8449,41.7343],[21.8226,41.74],[21.8379,41.7772],[21.816,41.8008],[21.8457,41.8258],[21.8489,41.8349]]]}},{"type":"Feature","properties":{"id":"MKD-2914","code":"MK-69","name":"Sveti Nikole","name_ko":"스베티니콜레 시","name_en":"Sveti Nikole","name_ja":"スヴェティ・ニコレ","name_zh":"斯维蒂尼科列区","name_es":"Municipalidad de Sveti Nikole","name_fr":"Sveti Nikolé","name_de":"Opština Sveti Nikole","name_ru":"Свети-Николе","name_pt":"Sveki Nikole","name_vi":"Đô thị tự trị Sveti Nikole"},"geometry":{"type":"Polygon","coordinates":[[[22.014,41.7329],[21.9622,41.7667],[21.93,41.7979],[21.8959,41.8092],[21.8732,41.8313],[21.8491,41.8348],[21.814,41.8676],[21.8031,41.8988],[21.8093,41.9364],[21.8383,41.9636],[21.8406,41.9777],[21.8673,41.9972],[21.9082,41.9968],[21.9309,41.9741],[21.9744,41.9854],[21.9839,41.9909],[21.9858,41.9996],[22.0245,42.0009],[22.0136,41.9827],[22.0141,41.9646],[22.0549,41.9408],[22.0748,41.9119],[22.0941,41.9034],[22.0855,41.8812],[22.0986,41.8637],[22.0827,41.8512],[22.0957,41.8172],[22.0835,41.8115],[22.0541,41.778],[22.0326,41.7712],[22.0445,41.748],[22.0354,41.7333],[22.0461,41.7214],[22.0303,41.7208],[22.014,41.7329]]]}},{"type":"Feature","properties":{"id":"MKD-2930","code":"MK-20","name":"Gradsko","name_ko":"그라드스코 시","name_en":"Gradsko","name_ja":"グラドスコ","name_zh":"格拉兹科区","name_es":"Municipalidad de Gradsko","name_fr":"Gradsko","name_de":"Opština Gradsko","name_ru":"Градско","name_pt":"Glarus","name_vi":"Đô thị tự trị Gradsko"},"geometry":{"type":"Polygon","coordinates":[[[21.9834,41.5525],[21.9586,41.5518],[21.956,41.5375],[21.9238,41.5436],[21.9022,41.5216],[21.8514,41.5323],[21.8519,41.5042],[21.8161,41.4879],[21.7889,41.5002],[21.7858,41.509],[21.788,41.5287],[21.8015,41.54],[21.8059,41.5571],[21.7718,41.5825],[21.7766,41.6175],[21.8059,41.6227],[21.8322,41.6634],[21.8575,41.6844],[21.8624,41.7185],[21.8829,41.719],[21.9,41.652],[21.9368,41.6459],[21.9612,41.664],[21.9918,41.6625],[22.0108,41.6535],[22.0086,41.6412],[21.9799,41.6104],[21.9786,41.5994],[21.9885,41.592],[22.0193,41.6002],[22.0307,41.5965],[22.032,41.5867],[22.0155,41.56],[22.0254,41.5465],[22.0151,41.528],[22.0024,41.5276],[21.997,41.5503],[21.9834,41.5525]]]}},{"type":"Feature","properties":{"id":"MKD-2940","code":"MK-43","name":"Kratovo","name_ko":"크라토보 시","name_en":"Kratovo","name_ja":"クラトヴォ","name_zh":"克拉托沃区","name_es":"Kratovo","name_fr":"Kratovo","name_de":"Opština Kratovo","name_ru":"Кратово","name_pt":"Kratovo","name_vi":"Đô thị tự trị Kratovo"},"geometry":{"type":"Polygon","coordinates":[[[22.3368,42.0261],[22.3018,42.0508],[22.2491,42.0513],[22.2452,42.019],[22.2384,42.0116],[22.2259,42.0139],[22.2151,42.0253],[22.1822,42.019],[22.1629,42.0343],[22.1185,42.0201],[22.0788,42.0168],[22.0589,41.9901],[22.0317,42.0014],[21.9858,41.9996],[21.9594,42.0226],[21.9522,42.0462],[21.9268,42.0476],[21.9218,42.0589],[21.9395,42.0793],[21.9422,42.0938],[21.9714,42.102],[21.9909,42.1274],[21.9909,42.1619],[22.0173,42.1641],[22.0519,42.1492],[22.057,42.1287],[22.0959,42.1215],[22.1417,42.0893],[22.1903,42.0988],[22.193,42.1174],[22.2007,42.1201],[22.2078,42.112],[22.2333,42.1114],[22.2826,42.1216],[22.3177,42.1086],[22.3466,42.0945],[22.3526,42.0778],[22.353,42.0621],[22.3368,42.0261]]]}},{"type":"Feature","properties":{"id":"MKD-2933","code":"MK-34","name":"Ilinden","name_ko":"일린덴 시","name_en":"Ilinden","name_ja":"イリンデン","name_zh":"伊林登区","name_es":"Municipalidad de Ilinden","name_fr":"Ilinden","name_de":"Opština Ilinden","name_ru":"Илинден","name_pt":"Ilinden","name_vi":"Đô thị tự trị Ilinden"},"geometry":{"type":"Polygon","coordinates":[[[21.5829,41.9197],[21.5816,41.9371],[21.5722,41.9504],[21.5306,41.9721],[21.54,41.9874],[21.588,42.0003],[21.6335,42.04],[21.672,42.0136],[21.6856,42.0136],[21.6867,41.9838],[21.669,41.9561],[21.6773,41.9393],[21.6741,41.9343],[21.6483,41.9327],[21.6226,41.9414],[21.5829,41.9197]]]}},{"type":"Feature","properties":{"id":"MKD-2934","code":"MK-37","name":"Karbinci","name_ko":"카르빈치 시","name_en":"Karbinci","name_ja":"カルビンツィ","name_zh":"卡尔宾奇区","name_es":"Municipalidad de Karbinci","name_fr":"Karbintsi","name_de":"Opština Karbinci","name_ru":"Карбинци","name_pt":"Karbinci","name_vi":"Karbinci"},"geometry":{"type":"Polygon","coordinates":[[[22.1612,41.8657],[22.1705,41.8602],[22.1738,41.8476],[22.2105,41.8447],[22.2245,41.8492],[22.2825,41.8105],[22.3448,41.8063],[22.3667,41.7899],[22.4466,41.7893],[22.4462,41.7702],[22.4184,41.7561],[22.4164,41.7328],[22.401,41.7127],[22.3817,41.7179],[22.2981,41.7086],[22.2517,41.7444],[22.232,41.7469],[22.2012,41.7701],[22.1869,41.7768],[22.141,41.7806],[22.1325,41.7903],[22.1228,41.8362],[22.1313,41.8493],[22.1612,41.8657]]]}},{"type":"Feature","properties":{"id":"MKD-2911","code":"MK-83","name":"Štip","name_ko":"슈티프 시","name_en":"Štip","name_ja":"シュティプ","name_zh":"什提普区","name_es":"Municipalidad de Štip","name_fr":"Chtip","name_de":"Opština Štip","name_ru":"Штип","name_pt":"Stip","name_vi":"Đô thị tự trị Stip"},"geometry":{"type":"Polygon","coordinates":[[[22.061,41.6223],[22.0418,41.6428],[22.0225,41.6461],[21.9918,41.6625],[21.9643,41.6621],[21.9597,41.6756],[21.9368,41.6924],[21.9405,41.7052],[21.9606,41.7232],[21.9876,41.708],[21.9951,41.7175],[22.0093,41.7187],[22.011,41.7322],[22.037,41.7185],[22.0461,41.7214],[22.0354,41.7333],[22.0445,41.748],[22.0326,41.7712],[22.0541,41.778],[22.0835,41.8115],[22.0957,41.8172],[22.0827,41.8512],[22.0986,41.8675],[22.1401,41.8662],[22.1466,41.861],[22.1228,41.8362],[22.1258,41.805],[22.141,41.7806],[22.1869,41.7768],[22.232,41.7469],[22.2517,41.7444],[22.2981,41.7086],[22.3817,41.7179],[22.401,41.7127],[22.3692,41.6682],[22.3507,41.6677],[22.3174,41.6801],[22.2946,41.6663],[22.2913,41.6606],[22.305,41.6368],[22.3069,41.6112],[22.3234,41.5988],[22.2601,41.5494],[22.2603,41.5436],[22.216,41.5457],[22.1718,41.5661],[22.1685,41.5871],[22.1172,41.5907],[22.0893,41.6416],[22.0824,41.6408],[22.0709,41.624],[22.061,41.6223]]]}},{"type":"Feature","properties":{"id":"MKD-2939","code":"MK-42","name":"Kočani","name_ko":"코차니 시","name_en":"Kočani","name_ja":"クアツェーニ","name_zh":"科查尼区","name_es":"Municipalidad de Kočani","name_fr":"Kotchani","name_de":"Opština Kočani","name_ru":"Кочани","name_pt":"Kocani","name_vi":"Đô thị tự trị Kocani"},"geometry":{"type":"Polygon","coordinates":[[[22.2563,41.9482],[22.2978,41.9773],[22.3085,41.993],[22.3282,42.0009],[22.353,42.0621],[22.3466,42.0975],[22.383,42.1018],[22.417,42.0996],[22.4279,42.0841],[22.4426,42.0955],[22.455,42.0855],[22.4559,42.0541],[22.4603,42.0456],[22.4887,42.0323],[22.4911,42.0095],[22.5111,41.9862],[22.5177,41.9529],[22.5177,41.9452],[22.5027,41.9376],[22.4909,41.9382],[22.4704,41.9519],[22.4543,41.9515],[22.4419,41.9106],[22.4429,41.8778],[22.4117,41.8542],[22.391,41.86],[22.3637,41.8467],[22.3362,41.8558],[22.3251,41.8802],[22.3276,41.9199],[22.2887,41.9191],[22.2734,41.9269],[22.2563,41.9482]]]}},{"type":"Feature","properties":{"id":"MKD-2924","code":"MK-33","name":"Zrnovci","name_ko":"즈르노프치 시","name_en":"Zrnovci","name_ja":"ズルノヴツィ","name_zh":"日尔诺维奇区","name_es":"Municipalidad de Zrnovci","name_fr":"Zrnovtsi","name_de":"Opština Zrnovci","name_ru":"Зрновци","name_pt":"Zrnovci","name_vi":"Đô thị tự trị Zrnovci"},"geometry":{"type":"Polygon","coordinates":[[[22.3906,41.7922],[22.3592,41.8253],[22.3565,41.8467],[22.3732,41.8472],[22.391,41.86],[22.4071,41.8525],[22.4233,41.8674],[22.4355,41.8695],[22.4481,41.8407],[22.4466,41.7893],[22.3906,41.7922]]]}},{"type":"Feature","properties":{"id":"MKD-2915","code":"MK-13","name":"Veles","name_ko":"벨레스 시","name_en":"Veles","name_ja":"ヴェレス","name_zh":"维勒斯区","name_es":"Municipalidad de Veles","name_fr":"Vélès","name_de":"Opština Veles","name_ru":"Велес","name_pt":"Veles","name_vi":"Veles"},"geometry":{"type":"Polygon","coordinates":[[[21.5972,41.7039],[21.57,41.7381],[21.6111,41.7499],[21.6313,41.7749],[21.6225,41.8187],[21.656,41.8123],[21.6648,41.8171],[21.6665,41.8022],[21.6862,41.8188],[21.7041,41.807],[21.7212,41.8053],[21.7373,41.8495],[21.7369,41.8866],[21.7688,41.8923],[21.8032,41.9116],[21.814,41.8676],[21.8489,41.8349],[21.8457,41.8258],[21.816,41.8008],[21.8379,41.7772],[21.8226,41.74],[21.8449,41.7343],[21.8614,41.712],[21.8575,41.6844],[21.8322,41.6634],[21.8059,41.6227],[21.7797,41.621],[21.7734,41.6019],[21.7408,41.6071],[21.732,41.6145],[21.7259,41.6439],[21.7036,41.6325],[21.6931,41.6391],[21.6712,41.696],[21.616,41.7087],[21.5972,41.7039]]]}},{"type":"Feature","properties":{"id":"MKD-2927","code":"MK-24","name":"Demir Kapija","name_ko":"데미르카피야 시","name_en":"Demir Kapija","name_ja":"デミル・カピヤ","name_zh":"德米尔卡皮雅区","name_es":"Municipalidad de Demir Kapija","name_fr":"Demir Kapija","name_de":"Opština Demir Kapija","name_ru":"Демир-Капия","name_pt":"Demir Kapija","name_vi":"Demir Kapija"},"geometry":{"type":"Polygon","coordinates":[[[22.2544,41.4548],[22.3001,41.4893],[22.3319,41.4752],[22.3367,41.4676],[22.3243,41.4481],[22.33,41.4247],[22.3245,41.4022],[22.3365,41.378],[22.336,41.365],[22.3482,41.3468],[22.3474,41.3266],[22.3005,41.3253],[22.282,41.3059],[22.2224,41.2785],[22.206,41.2768],[22.1879,41.2785],[22.1572,41.2939],[22.1476,41.3103],[22.0831,41.3492],[22.1343,41.351],[22.1426,41.3764],[22.1255,41.4022],[22.1451,41.4127],[22.1618,41.4516],[22.1872,41.473],[22.209,41.4751],[22.2544,41.4548]]]}},{"type":"Feature","properties":{"id":"MKD-3003","code":"MK-14","name":"Vinica","name_ko":"비니차 시","name_en":"Vinica","name_ja":"ヴィニツァ","name_zh":"维尼查区","name_es":"Municipalidad de Vinica","name_fr":"Vinitsa","name_de":"Opština Vinica","name_ru":"Виница","name_pt":"Vinica","name_vi":"Đô thị tự trị Vinica"},"geometry":{"type":"Polygon","coordinates":[[[22.4462,41.7702],[22.4481,41.8407],[22.4353,41.8683],[22.4429,41.8778],[22.4419,41.9106],[22.4543,41.9515],[22.4704,41.9519],[22.4909,41.9382],[22.5177,41.9452],[22.5389,41.9401],[22.5503,41.9458],[22.5679,41.9819],[22.5969,41.9857],[22.6059,41.9825],[22.6086,41.9275],[22.6823,41.9027],[22.7132,41.8985],[22.6965,41.8723],[22.6894,41.8419],[22.6761,41.8257],[22.6704,41.7987],[22.6737,41.7663],[22.6537,41.734],[22.6042,41.7281],[22.5453,41.7571],[22.5362,41.7694],[22.5291,41.7689],[22.5187,41.7552],[22.4826,41.7523],[22.4462,41.7702]]]}},{"type":"Feature","properties":{"id":"MKD-2997","code":"MK-07","name":"Bosilovo","name_ko":"보실로보 시","name_en":"Bosilovo","name_ja":"ボシロヴォ","name_zh":"博西洛沃区","name_es":"Municipalidad de Bosilovo","name_fr":"Bosilovo","name_de":"Opština Bosilovo","name_ru":"Босилово","name_pt":"Bosilovo","name_vi":"Đô thị tự trị Bosilovo"},"geometry":{"type":"Polygon","coordinates":[[[22.8581,41.5171],[22.8566,41.4923],[22.8014,41.4486],[22.8014,41.4129],[22.7862,41.3973],[22.7502,41.3925],[22.7359,41.4001],[22.7259,41.4201],[22.6997,41.4149],[22.686,41.4206],[22.694,41.4439],[22.6865,41.4633],[22.6736,41.4733],[22.7002,41.4838],[22.7264,41.5104],[22.7321,41.5389],[22.7281,41.5694],[22.7385,41.5684],[22.7485,41.5518],[22.7718,41.5365],[22.8352,41.5313],[22.8581,41.5171]]]}},{"type":"Feature","properties":{"id":"MKD-2905","code":"MK-64","name":"Radoviš","name_ko":"라도비시 시","name_en":"Radoviš","name_ja":"ラドヴィシュ","name_zh":"拉多维什区","name_es":"Municipalidad de Radoviš","name_fr":"Radovich","name_de":"Opština Radoviš","name_ru":"Радовиш","name_pt":"Radovis","name_vi":"Đô thị tự trị Radovis"},"geometry":{"type":"Polygon","coordinates":[[[22.401,41.7127],[22.4164,41.7328],[22.4184,41.7561],[22.4469,41.7704],[22.4826,41.7523],[22.5187,41.7552],[22.5291,41.7689],[22.5362,41.7694],[22.5453,41.7571],[22.5918,41.7319],[22.6209,41.7271],[22.6249,41.6963],[22.6445,41.6845],[22.6243,41.656],[22.6292,41.6341],[22.5966,41.6292],[22.5776,41.6026],[22.599,41.5769],[22.6052,41.5574],[22.6057,41.5337],[22.6,41.527],[22.5861,41.5209],[22.5567,41.5427],[22.5353,41.5498],[22.5258,41.5384],[22.4996,41.5294],[22.5068,41.5147],[22.5037,41.5073],[22.4564,41.5151],[22.4517,41.5237],[22.4616,41.5284],[22.464,41.5389],[22.4277,41.5741],[22.4191,41.5793],[22.3659,41.5826],[22.3493,41.5936],[22.3116,41.604],[22.305,41.6368],[22.2913,41.6606],[22.2946,41.6663],[22.3174,41.6801],[22.3507,41.6677],[22.3692,41.6682],[22.401,41.7127]]]}},{"type":"Feature","properties":{"id":"MKD-2995","code":"MK-11","name":"Vasilevo","name_ko":"바실레보 시","name_en":"Vasilevo","name_ja":"ヴァシレヴォ","name_zh":"瓦西列沃区","name_es":"Municipalidad de Vasilevo","name_fr":"Vasilevo","name_de":"Opština Vasilevo","name_ru":"Василево","name_pt":"Vasilevo","name_vi":"Đô thị tự trị Vasilevo"},"geometry":{"type":"Polygon","coordinates":[[[22.5541,41.4862],[22.5327,41.4899],[22.5075,41.4676],[22.502,41.4928],[22.5068,41.5147],[22.4996,41.5294],[22.541,41.5498],[22.5861,41.5209],[22.6,41.527],[22.6057,41.5337],[22.6052,41.5574],[22.599,41.5769],[22.5776,41.6026],[22.5966,41.6292],[22.6292,41.6341],[22.635,41.6167],[22.6498,41.631],[22.6567,41.6297],[22.6909,41.6064],[22.6905,41.5912],[22.6758,41.5826],[22.6763,41.5741],[22.7281,41.5694],[22.7283,41.5156],[22.716,41.4952],[22.7002,41.4838],[22.6827,41.48],[22.6558,41.4629],[22.6011,41.4572],[22.5807,41.4771],[22.5541,41.4862]]]}},{"type":"Feature","properties":{"id":"MKD-2932","code":"MK-41","name":"Konče","name_ko":"콘체 시","name_en":"Konče","name_ja":"コンチェ","name_zh":"孔塞区","name_es":"Municipalidad de Konče","name_fr":"Kontché","name_de":"Opština Konče","name_ru":"Конче","name_pt":"Konce","name_vi":"Đô thị tự trị Konce"},"geometry":{"type":"Polygon","coordinates":[[[22.3001,41.4893],[22.2933,41.5099],[22.2601,41.5494],[22.3234,41.5988],[22.3493,41.5936],[22.3659,41.5826],[22.4191,41.5793],[22.4277,41.5741],[22.464,41.5389],[22.4512,41.5185],[22.5037,41.5073],[22.5089,41.4666],[22.5029,41.4567],[22.4788,41.461],[22.4458,41.446],[22.4093,41.4481],[22.3652,41.4401],[22.3409,41.4329],[22.3314,41.423],[22.3243,41.4481],[22.3367,41.4676],[22.3319,41.4752],[22.3001,41.4893]]]}}]}