{"type":"FeatureCollection","features":[{"type":"Feature","properties":{"name":"Kalkara","name_ko":"칼카라","code":"MT-21"},"geometry":{"type":"Polygon","coordinates":[[[14.5249,35.898],[14.548,35.89],[14.5294,35.8816],[14.529,35.889],[14.5195,35.8943],[14.5249,35.898]]]}},{"type":"Feature","properties":{"name":"Valletta","name_ko":"발레타","code":"MT-60"},"geometry":{"type":"Polygon","coordinates":[[[14.5139,35.9008],[14.5249,35.898],[14.5107,35.889],[14.5016,35.8952],[14.5139,35.9008]]]}},{"type":"Feature","properties":{"name":"Sliema","name_ko":"슬리마","code":"MT-56"},"geometry":{"type":"Polygon","coordinates":[[[14.5104,35.9246],[14.5139,35.9008],[14.5072,35.8987],[14.4929,35.9066],[14.5104,35.9246]]]}},{"type":"Feature","properties":{"name":"St. Julian's","name_ko":"산질리안","code":"MT-48"},"geometry":{"type":"Polygon","coordinates":[[[14.5014,35.9304],[14.5104,35.9246],[14.4886,35.9047],[14.4826,35.909],[14.4844,35.9227],[14.5014,35.9304]]]}},{"type":"Feature","properties":{"name":"Pembroke","name_ko":"펨브로크","code":"MT-40"},"geometry":{"type":"Polygon","coordinates":[[[14.4649,35.9466],[14.5014,35.9304],[14.4841,35.92],[14.472,35.9203],[14.4625,35.9292],[14.4649,35.9466]]]}},{"type":"Feature","properties":{"name":"Naxxar","name_ko":"나샤르","code":"MT-38"},"geometry":{"type":"Polygon","coordinates":[[[14.4382,35.9626],[14.4649,35.9466],[14.4625,35.9292],[14.4483,35.9256],[14.4501,35.9058],[14.4406,35.9035],[14.4208,35.9256],[14.4202,35.9339],[14.4382,35.9626]]]}},{"type":"Feature","properties":{"name":"St. Paul's Bay","name_ko":"산파울일바하르","code":"MT-51"},"geometry":{"type":"Polygon","coordinates":[[[14.4058,35.9678],[14.4382,35.9626],[14.4211,35.9381],[14.4229,35.9174],[14.4098,35.9248],[14.3945,35.923],[14.4107,35.9153],[14.4033,35.9082],[14.3921,35.9123],[14.3879,35.9242],[14.3773,35.9254],[14.3811,35.9333],[14.3717,35.941],[14.3998,35.9552],[14.4058,35.9678]]]}},{"type":"Feature","properties":{"name":"Mellieħa","name_ko":"멜리하","code":"MT-30"},"geometry":{"type":"Polygon","coordinates":[[[14.3409,35.9256],[14.3325,35.9628],[14.322,35.9731],[14.3347,35.9824],[14.3773,35.9936],[14.3773,35.9862],[14.3494,35.9731],[14.4058,35.9678],[14.3998,35.9552],[14.3723,35.9455],[14.3717,35.9342],[14.3409,35.9256]]]}},{"type":"Feature","properties":{"name":"Mġarr","name_ko":"므자르","code":"MT-31"},"geometry":{"type":"Polygon","coordinates":[[[14.3426,35.9002],[14.3409,35.9256],[14.3737,35.9363],[14.3811,35.9333],[14.3773,35.9254],[14.3879,35.9242],[14.3921,35.9123],[14.4042,35.9052],[14.3587,35.8952],[14.3426,35.9002]]]}},{"type":"Feature","properties":{"name":"Rabat","name_ko":"라바트","code":"MT-46"},"geometry":{"type":"Polygon","coordinates":[[[14.3648,35.8644],[14.3426,35.8807],[14.3426,35.9002],[14.3587,35.8952],[14.4042,35.9052],[14.4131,35.8975],[14.4116,35.8913],[14.3956,35.8875],[14.4128,35.8795],[14.4128,35.86],[14.3986,35.8603],[14.393,35.868],[14.3648,35.8644]]]}},{"type":"Feature","properties":{"name":"Dingli","name_ko":"딩글리","code":"MT-07"},"geometry":{"type":"Polygon","coordinates":[[[14.3892,35.8395],[14.3648,35.8644],[14.3953,35.8659],[14.398,35.857],[14.3892,35.8395]]]}},{"type":"Feature","properties":{"name":"Siġġiewi","name_ko":"시지위","code":"MT-55"},"geometry":{"type":"Polygon","coordinates":[[[14.4288,35.8226],[14.3892,35.8395],[14.3986,35.8603],[14.4199,35.8641],[14.435,35.8579],[14.4516,35.8653],[14.4699,35.8603],[14.4288,35.8226]]]}},{"type":"Feature","properties":{"name":"Qrendi","name_ko":"렌디","code":"MT-44"},"geometry":{"type":"Polygon","coordinates":[[[14.4536,35.8163],[14.4288,35.8226],[14.4442,35.8378],[14.4669,35.8378],[14.4669,35.8301],[14.4536,35.8163]]]}},{"type":"Feature","properties":{"name":"Żurrieq","name_ko":"주리","code":"MT-68"},"geometry":{"type":"Polygon","coordinates":[[[14.4976,35.8094],[14.4536,35.8163],[14.4669,35.8301],[14.4669,35.8378],[14.4764,35.8384],[14.4862,35.8251],[14.509,35.8298],[14.5116,35.8188],[14.4989,35.8197],[14.4976,35.8094]]]}},{"type":"Feature","properties":{"name":"Birżebbuġa","name_ko":"비르제부자","code":"MT-05"},"geometry":{"type":"Polygon","coordinates":[[[14.5403,35.829],[14.5275,35.8135],[14.5275,35.8012],[14.4976,35.8094],[14.4989,35.8197],[14.5116,35.8188],[14.509,35.8298],[14.5252,35.8398],[14.5403,35.829]]]}},{"type":"Feature","properties":{"name":"Marsaxlokk","name_ko":"마르사실로크","code":"MT-28"},"geometry":{"type":"Polygon","coordinates":[[[14.5658,35.8417],[14.5618,35.8298],[14.548,35.836],[14.5403,35.829],[14.5246,35.8446],[14.5658,35.8417]]]}},{"type":"Feature","properties":{"name":"Marsaskala","name_ko":"마르사스칼라","code":"MT-27"},"geometry":{"type":"Polygon","coordinates":[[[14.5609,35.873],[14.5658,35.8417],[14.5483,35.8458],[14.543,35.8609],[14.5609,35.873]]]}},{"type":"Feature","properties":{"name":"Żabbar","name_ko":"자바르","code":"MT-64"},"geometry":{"type":"Polygon","coordinates":[[[14.5562,35.8793],[14.5609,35.873],[14.5486,35.8632],[14.5252,35.8656],[14.5294,35.8816],[14.5562,35.8793]]]}},{"type":"Feature","properties":{"name":"Xgħajra","name_ko":"샤이라","code":"MT-63"},"geometry":{"type":"Polygon","coordinates":[[[14.548,35.89],[14.5562,35.8793],[14.5483,35.8765],[14.54,35.8827],[14.548,35.89]]]}},{"type":"Feature","properties":{"name":"Saint Lawrence","name_ko":"산라우렌츠","code":"MT-50"},"geometry":{"type":"Polygon","coordinates":[[[14.1948,36.0294],[14.1849,36.0346],[14.1836,36.0648],[14.2118,36.0519],[14.1948,36.0294]]]}},{"type":"Feature","properties":{"name":"Kerċem","name_ko":"케르쳄","code":"MT-22"},"geometry":{"type":"Polygon","coordinates":[[[14.2097,36.0231],[14.1948,36.0294],[14.2118,36.0519],[14.2286,36.0476],[14.2355,36.0318],[14.2265,36.0334],[14.2097,36.0231]]]}},{"type":"Feature","properties":{"name":"Munxar","name_ko":"문샤르","code":"MT-36"},"geometry":{"type":"Polygon","coordinates":[[[14.233,36.0165],[14.2097,36.0231],[14.2265,36.0334],[14.2355,36.0318],[14.2411,36.0285],[14.233,36.0165]]]}},{"type":"Feature","properties":{"name":"Sannat","name_ko":"산나트","code":"MT-52"},"geometry":{"type":"Polygon","coordinates":[[[14.2736,36.016],[14.233,36.0165],[14.2404,36.0266],[14.2736,36.016]]]}},{"type":"Feature","properties":{"name":"Għajnsielem","name_ko":"아인실렘","code":"MT-13"},"geometry":{"type":"Polygon","coordinates":[[[14.3001,36.025],[14.2717,36.0192],[14.2807,36.0334],[14.3001,36.025]]]}},{"type":"Feature","properties":{"name":"Qala","name_ko":"알라","code":"MT-42"},"geometry":{"type":"Polygon","coordinates":[[[14.3204,36.0462],[14.3342,36.0344],[14.3001,36.025],[14.297,36.0304],[14.3204,36.0462]]]}},{"type":"Feature","properties":{"name":"Nadur","name_ko":"나두르","code":"MT-37"},"geometry":{"type":"Polygon","coordinates":[[[14.2891,36.0645],[14.3204,36.0462],[14.3086,36.041],[14.3053,36.0313],[14.2807,36.0334],[14.2891,36.0645]]]}},{"type":"Feature","properties":{"name":"Xagħra","name_ko":"샤라","code":"MT-61"},"geometry":{"type":"Polygon","coordinates":[[[14.272,36.071],[14.2891,36.0645],[14.2807,36.0334],[14.2551,36.0375],[14.2506,36.0458],[14.272,36.071]]]}},{"type":"Feature","properties":{"name":"Żebbuġ","name_ko":"세부에","code":"MT-65"},"geometry":{"type":"Polygon","coordinates":[[[14.2335,36.0728],[14.272,36.071],[14.2676,36.06],[14.2534,36.0545],[14.2532,36.046],[14.2452,36.0458],[14.2312,36.0573],[14.2335,36.0728]]]}},{"type":"Feature","properties":{"name":"Għasri","name_ko":"아스리","code":"MT-16"},"geometry":{"type":"Polygon","coordinates":[[[14.2129,36.0702],[14.2335,36.0728],[14.2312,36.0573],[14.2395,36.0493],[14.222,36.0486],[14.2129,36.0702]]]}},{"type":"Feature","properties":{"name":"Għarb","name_ko":"아르프","code":"MT-14"},"geometry":{"type":"Polygon","coordinates":[[[14.1836,36.0648],[14.2129,36.0702],[14.2189,36.0514],[14.1836,36.0648]]]}},{"type":"Feature","properties":{"name":"Victoria","name_ko":"빅토리아","code":"MT-45"},"geometry":{"type":"Polygon","coordinates":[[[14.2357,36.0379],[14.23,36.0491],[14.2556,36.0401],[14.2541,36.0325],[14.2447,36.0306],[14.2357,36.0379]]]}},{"type":"Feature","properties":{"name":"Xewkija","name_ko":"셰우키야","code":"MT-62"},"geometry":{"type":"Polygon","coordinates":[[[14.2404,36.0266],[14.2551,36.0375],[14.2807,36.0334],[14.2717,36.0192],[14.2404,36.0266]]]}},{"type":"Feature","properties":{"name":"Mosta","name_ko":"모스타","code":"MT-32"},"geometry":{"type":"Polygon","coordinates":[[[14.4042,35.9052],[14.4116,35.9132],[14.3965,35.9245],[14.4098,35.9248],[14.4202,35.9156],[14.43,35.9197],[14.4353,35.8952],[14.4131,35.8975],[14.4042,35.9052]]]}},{"type":"Feature","properties":{"name":"Lija","name_ko":"리야","code":"MT-24"},"geometry":{"type":"Polygon","coordinates":[[[14.4353,35.8952],[14.435,35.9058],[14.4486,35.9011],[14.4459,35.8949],[14.4353,35.8952]]]}},{"type":"Feature","properties":{"name":"Attard","name_ko":"아타르트","code":"MT-01"},"geometry":{"type":"Polygon","coordinates":[[[14.4226,35.8996],[14.4459,35.8949],[14.4569,35.8857],[14.4128,35.8795],[14.4131,35.8975],[14.4226,35.8996]]]}},{"type":"Feature","properties":{"name":"Mtarfa","name_ko":"므타르파","code":"MT-35"},"geometry":{"type":"Polygon","coordinates":[[[14.4024,35.8816],[14.3956,35.8875],[14.4116,35.8913],[14.411,35.8842],[14.4024,35.8816]]]}},{"type":"Feature","properties":{"name":"Mdina","name_ko":"므디나","code":"MT-29"},"geometry":{"type":"Polygon","coordinates":[[[14.4024,35.8816],[14.411,35.8842],[14.4128,35.8795],[14.4024,35.8816]]]}},{"type":"Feature","properties":{"name":"Żebbuġ Gozo","name_ko":"제부치","code":"MT-66"},"geometry":{"type":"Polygon","coordinates":[[[14.4164,35.8638],[14.4128,35.8795],[14.4545,35.883],[14.4524,35.8739],[14.4628,35.8691],[14.4634,35.8626],[14.4456,35.8644],[14.435,35.8579],[14.4164,35.8638]]]}},{"type":"Feature","properties":{"name":"Qormi","name_ko":"오르미","code":"MT-43"},"geometry":{"type":"Polygon","coordinates":[[[14.4634,35.8626],[14.4516,35.878],[14.4578,35.889],[14.4841,35.8759],[14.4699,35.8603],[14.4634,35.8626]]]}},{"type":"Feature","properties":{"name":"Swieqi","name_ko":"스위이","code":"MT-57"},"geometry":{"type":"Polygon","coordinates":[[[14.4551,35.9289],[14.4841,35.92],[14.4856,35.9147],[14.4637,35.9117],[14.4551,35.9289]]]}},{"type":"Feature","properties":{"name":"Għargħur","name_ko":"아르우르","code":"MT-15"},"geometry":{"type":"Polygon","coordinates":[[[14.4513,35.9129],[14.4483,35.9256],[14.4551,35.9289],[14.4637,35.9117],[14.4513,35.9129]]]}},{"type":"Feature","properties":{"name":"San Ġwann","name_ko":"산즈완","code":"MT-49"},"geometry":{"type":"Polygon","coordinates":[[[14.48,35.9141],[14.4886,35.9047],[14.4859,35.9004],[14.4625,35.9011],[14.4637,35.9117],[14.48,35.9141]]]}},{"type":"Feature","properties":{"name":"Iklin","name_ko":"이클린","code":"MT-19"},"geometry":{"type":"Polygon","coordinates":[[[14.4513,35.9129],[14.4622,35.9094],[14.4625,35.9011],[14.4486,35.9011],[14.4513,35.9129]]]}},{"type":"Feature","properties":{"name":"Birkirkara","name_ko":"비르키르카라","code":"MT-04"},"geometry":{"type":"Polygon","coordinates":[[[14.4545,35.899],[14.4768,35.8941],[14.4702,35.8842],[14.4637,35.8848],[14.4545,35.899]]]}},{"type":"Feature","properties":{"name":"Balzan","name_ko":"발찬","code":"MT-02"},"geometry":{"type":"Polygon","coordinates":[[[14.4486,35.9011],[14.4578,35.889],[14.4459,35.8949],[14.4486,35.9011]]]}},{"type":"Feature","properties":{"name":"Santa Venera","name_ko":"산타베네라","code":"MT-54"},"geometry":{"type":"Polygon","coordinates":[[[14.4791,35.8819],[14.4702,35.8842],[14.4722,35.8908],[14.4866,35.8864],[14.4791,35.8819]]]}},{"type":"Feature","properties":{"name":"Ħamrun","name_ko":"함룬","code":"MT-18"},"geometry":{"type":"Polygon","coordinates":[[[14.4841,35.8759],[14.4807,35.8844],[14.4981,35.8861],[14.4841,35.8759]]]}},{"type":"Feature","properties":{"name":"Marsa","name_ko":"마르사","code":"MT-26"},"geometry":{"type":"Polygon","coordinates":[[[14.4803,35.8721],[14.4966,35.8844],[14.5007,35.8798],[14.4933,35.8629],[14.4803,35.8721]]]}},{"type":"Feature","properties":{"name":"Luqa","name_ko":"루아","code":"MT-25"},"geometry":{"type":"Polygon","coordinates":[[[14.4699,35.8603],[14.4803,35.8721],[14.4933,35.8629],[14.4965,35.841],[14.509,35.8298],[14.4817,35.8484],[14.4572,35.8472],[14.4699,35.8603]]]}},{"type":"Feature","properties":{"name":"Mqabba","name_ko":"므아바","code":"MT-33"},"geometry":{"type":"Polygon","coordinates":[[[14.4507,35.8393],[14.4542,35.8461],[14.469,35.8493],[14.4797,35.8437],[14.4764,35.8384],[14.4507,35.8393]]]}},{"type":"Feature","properties":{"name":"Kirkop","name_ko":"키르코프","code":"MT-23"},"geometry":{"type":"Polygon","coordinates":[[[14.4835,35.8342],[14.4764,35.8384],[14.4817,35.8484],[14.4903,35.8396],[14.4835,35.8342]]]}},{"type":"Feature","properties":{"name":"Safi","name_ko":"사피","code":"MT-47"},"geometry":{"type":"Polygon","coordinates":[[[14.4862,35.8251],[14.4794,35.8307],[14.4903,35.8396],[14.5042,35.8292],[14.4862,35.8251]]]}},{"type":"Feature","properties":{"name":"Għaxaq","name_ko":"아샤","code":"MT-17"},"geometry":{"type":"Polygon","coordinates":[[[14.5252,35.8398],[14.5131,35.8301],[14.5033,35.8366],[14.511,35.8567],[14.5252,35.8398]]]}},{"type":"Feature","properties":{"name":"Żejtun","name_ko":"제이툰","code":"MT-67"},"geometry":{"type":"Polygon","coordinates":[[[14.545,35.8428],[14.5246,35.8446],[14.511,35.8567],[14.5252,35.8656],[14.543,35.8609],[14.545,35.8428]]]}},{"type":"Feature","properties":{"name":"Fgura","name_ko":"프구라","code":"MT-08"},"geometry":{"type":"Polygon","coordinates":[[[14.5252,35.8656],[14.5164,35.8603],[14.5084,35.8691],[14.5267,35.8745],[14.5252,35.8656]]]}},{"type":"Feature","properties":{"name":"Tarxien","name_ko":"타르신","code":"MT-59"},"geometry":{"type":"Polygon","coordinates":[[[14.5164,35.8603],[14.5098,35.8549],[14.4948,35.8585],[14.5084,35.8691],[14.5164,35.8603]]]}},{"type":"Feature","properties":{"name":"Santa Luċija","name_ko":"산타루치야","code":"MT-53"},"geometry":{"type":"Polygon","coordinates":[[[14.5098,35.8549],[14.5098,35.8502],[14.4945,35.8508],[14.4948,35.8585],[14.5098,35.8549]]]}},{"type":"Feature","properties":{"name":"Gudja","name_ko":"구디아","code":"MT-11"},"geometry":{"type":"Polygon","coordinates":[[[14.5098,35.8502],[14.5033,35.8366],[14.4965,35.841],[14.4945,35.8508],[14.5098,35.8502]]]}},{"type":"Feature","properties":{"name":"Paola","name_ko":"파올라","code":"MT-39"},"geometry":{"type":"Polygon","coordinates":[[[14.5084,35.8691],[14.4948,35.8585],[14.5007,35.8798],[14.5084,35.8854],[14.5137,35.8804],[14.5084,35.8691]]]}},{"type":"Feature","properties":{"name":"Gżira","name_ko":"그지라","code":"MT-12"},"geometry":{"type":"Polygon","coordinates":[[[14.5072,35.8987],[14.4859,35.9004],[14.4929,35.9066],[14.5072,35.8987]]]}},{"type":"Feature","properties":{"name":"Floriana","name_ko":"플로리아나","code":"MT-09"},"geometry":{"type":"Polygon","coordinates":[[[14.498,35.8925],[14.5107,35.889],[14.5007,35.8798],[14.498,35.8925]]]}},{"type":"Feature","properties":{"name":"Ta' Xbiex","name_ko":"타시비시","code":"MT-58"},"geometry":{"type":"Polygon","coordinates":[[[14.5016,35.8952],[14.4894,35.8919],[14.4892,35.8974],[14.5016,35.8952]]]}},{"type":"Feature","properties":{"name":"Senglea","name_ko":"셍글레아","code":"MT-20"},"geometry":{"type":"Polygon","coordinates":[[[14.5107,35.889],[14.5213,35.8871],[14.5137,35.8804],[14.5107,35.889]]]}},{"type":"Feature","properties":{"name":"Cospicua","name_ko":"보름라","code":"MT-06"},"geometry":{"type":"Polygon","coordinates":[[[14.5294,35.8816],[14.5267,35.8745],[14.5107,35.8759],[14.5213,35.8871],[14.5294,35.8816]]]}},{"type":"Feature","properties":{"name":"Msida","name_ko":"므시다","code":"MT-34"},"geometry":{"type":"Polygon","coordinates":[[[14.4866,35.8864],[14.4741,35.8917],[14.4722,35.8989],[14.4859,35.9004],[14.4866,35.8864]]]}},{"type":"Feature","properties":{"name":"Birgu","name_ko":"비르구","code":"MT-03"},"geometry":{"type":"Polygon","coordinates":[[[14.5213,35.8871],[14.5154,35.8911],[14.5195,35.8943],[14.529,35.889],[14.5294,35.8816],[14.5213,35.8871]]]}}]}