{"type":"FeatureCollection","features":[{"type":"Feature","properties":{"code":"MP-X01~","name":"Rota","name_ko":"로타","name_en":"Rota","name_ja":"ロータ","name_zh":"罗塔","name_es":"Rota","name_fr":"Rota","name_de":"Rota","name_ru":"остров Рота","name_pt":"Rota","name_vi":"Đảo Rota"},"geometry":{"type":"Polygon","coordinates":[[[145.2057,14.1814],[145.2525,14.2004],[145.28,14.2028],[145.2905,14.1814],[145.2821,14.161],[145.2498,14.1501],[145.229,14.1199],[145.21,14.1107],[145.1716,14.1262],[145.1262,14.1232],[145.1193,14.1296],[145.1307,14.1469],[145.1572,14.1638],[145.2057,14.1814]]]}},{"type":"Feature","properties":{"code":"MP-X02~","name":"Tinian","name_ko":"티니안","name_en":"Tinian","name_ja":"テニアン","name_zh":"提尼安岛","name_es":"Tinián","name_fr":"Tinian","name_de":"Tinian","name_ru":"Тиниан","name_pt":"Tinian","name_vi":"Đảo Tinian"},"geometry":{"type":"Polygon","coordinates":[[[145.6473,15.0721],[145.6526,15.0593],[145.6473,15.0175],[145.6678,14.9827],[145.6458,14.9298],[145.6258,14.9153],[145.6065,14.9281],[145.5979,14.9687],[145.5772,15.0058],[145.5785,15.0175],[145.6111,15.0668],[145.6331,15.0821],[145.6473,15.0721]]]}},{"type":"Feature","properties":{"code":"MP-X03~","name":"Saipan","name_ko":"사이판","name_en":"Saipan","name_ja":"サイパン","name_zh":"塞班岛","name_es":"Saipán","name_fr":"Saipan","name_de":"Saipan","name_ru":"Сайпан","name_pt":"Saipã","name_vi":"Saipan"},"geometry":{"type":"Polygon","coordinates":[[[145.7879,15.2673],[145.8166,15.2702],[145.8237,15.2624],[145.7927,15.2322],[145.7759,15.1895],[145.7845,15.1683],[145.7798,15.1592],[145.7661,15.155],[145.7572,15.1608],[145.7388,15.1367],[145.7526,15.096],[145.7163,15.1056],[145.6856,15.1025],[145.6838,15.1313],[145.6958,15.1683],[145.6983,15.2032],[145.73,15.2229],[145.7361,15.2434],[145.7879,15.2673]]]}},{"type":"Feature","properties":{"code":"MP-X04~","name":"Northern Islands","name_ko":"북마리아나 제도","name_en":"Northern Mariana Islands","name_ja":"北マリアナ諸島","name_zh":"北马里亚纳群岛","name_es":"Islas Marianas del Norte","name_fr":"îles Mariannes du Nord","name_de":"Nördliche Marianen","name_ru":"Северные Марианские острова","name_pt":"Ilhas Marianas do Norte","name_vi":"Quần đảo Bắc Mariana"},"geometry":{"type":"MultiPolygon","coordinates":[[[[145.7095,16.3675],[145.7176,16.3526],[145.7112,16.345],[145.6691,16.3392],[145.6438,16.3446],[145.6282,16.3641],[145.6377,16.38],[145.6541,16.3812],[145.7095,16.3675]]],[[[145.7711,18.1752],[145.8117,18.1739],[145.825,18.1677],[145.8391,18.1451],[145.8356,18.1283],[145.7581,18.0612],[145.7437,18.0533],[145.7195,18.0542],[145.7131,18.0775],[145.7395,18.091],[145.7508,18.1137],[145.7567,18.1618],[145.7711,18.1752]]],[[[145.6616,18.7243],[145.6355,18.7472],[145.6326,18.7869],[145.6504,18.8089],[145.6883,18.8074],[145.708,18.7797],[145.7095,18.7484],[145.6936,18.7277],[145.6616,18.7243]]],[[[145.7892,16.6755],[145.7691,16.6948],[145.7859,16.7001],[145.8045,16.6931],[145.7892,16.6755]]],[[[145.855,17.2858],[145.8359,17.3052],[145.8512,17.3094],[145.8682,17.3017],[145.855,17.2858]]],[[[145.8543,17.5669],[145.8322,17.5775],[145.8269,17.5932],[145.8342,17.6058],[145.8506,17.6069],[145.863,17.5985],[145.867,17.575],[145.8543,17.5669]]],[[[145.4056,19.6528],[145.3821,19.6728],[145.3821,19.6841],[145.3972,19.6889],[145.4099,19.6845],[145.4137,19.6624],[145.4056,19.6528]]],[[[145.2507,20.0097],[145.2311,20.0202],[145.2267,20.0298],[145.2388,20.0504],[145.2459,20.0304],[145.2694,20.0362],[145.2728,20.0324],[145.2658,20.0176],[145.2507,20.0097]]],[[[144.9157,20.5172],[144.9051,20.5266],[144.9021,20.54],[144.9067,20.5515],[144.9197,20.5554],[144.9318,20.5492],[144.9325,20.5375],[144.9157,20.5172]]]]}}]}