{"type":"FeatureCollection","features":[{"type":"Feature","properties":{"code":"MS-P","name":"Saint Peter","name_ko":"세인트 피터","name_en":"Saint Peter","name_ja":"セントピーター","name_zh":"圣彼得","name_es":"San Pedro","name_fr":"Saint Peter","name_de":"St Peter's","name_ru":"Сент-Питер","name_pt":"Saint Peter","name_vi":"Saint Peter"},"geometry":{"type":"Polygon","coordinates":[[[-62.2255,16.7478],[-62.202,16.8193],[-62.1747,16.8131],[-62.1793,16.7945],[-62.17,16.777],[-62.1886,16.739],[-62.2255,16.7478]]]}},{"type":"Feature","properties":{"code":"MS-A","name":"Saint Anthony","name_ko":"세인트 안토니오","name_en":"Saint Anthony","name_ja":"セントアンソニー","name_zh":"圣安东尼","name_es":"San Antonio","name_fr":"Saint Anthony","name_de":"St.Anthony","name_ru":"Сент-Энтони","name_pt":"Saint Anthony","name_vi":"Saint Anthony"},"geometry":{"type":"Polygon","coordinates":[[[-62.1508,16.7204],[-62.1405,16.6965],[-62.1498,16.6818],[-62.1679,16.6754],[-62.2189,16.6887],[-62.2301,16.7276],[-62.2255,16.7478],[-62.202,16.7449],[-62.1686,16.7234],[-62.1508,16.7204]]]}},{"type":"Feature","properties":{"code":"MS-G","name":"Saint Georges","name_ko":"세인트조지구","name_en":"Saint George","name_ja":"セント・ジョージ","name_zh":"圣乔治教区","name_es":"Parroquia de Saint George","name_fr":"Saint George","name_de":"Saint George","name_ru":"Приход Сент-Джордж","name_pt":"Saint George","name_vi":"Saint George"},"geometry":{"type":"Polygon","coordinates":[[[-62.17,16.777],[-62.1474,16.7443],[-62.1508,16.7204],[-62.1686,16.7234],[-62.1886,16.739],[-62.17,16.777]]]}}]}