{"type":"FeatureCollection","features":[{"type":"Feature","properties":{"id":"MUS-5192","code":"MU-RR","name":"Rivière du Rempart","name_ko":"리비에르뒤랑파르 구","name_en":"Rivière du Rempart","name_ja":"リヴィエール・デュ・ランパール県","name_zh":"朗帕河区","name_es":"Rivière du Rempart","name_fr":"Rivière du Rempart","name_de":"Rivière du Rempart","name_ru":"Ривьер-дю-Рампар","name_pt":"Rivière du Rempart","name_vi":"Quận Rivière du Rempart"},"geometry":{"type":"Polygon","coordinates":[[[57.5803,-19.9999],[57.6071,-19.9794],[57.6797,-19.9999],[57.6848,-20.011],[57.6792,-20.0283],[57.7088,-20.0899],[57.7139,-20.0961],[57.7337,-20.0961],[57.6308,-20.1555],[57.619,-20.1072],[57.6351,-20.0889],[57.6062,-20.061],[57.6126,-20.047],[57.6104,-20.0342],[57.5803,-19.9999]]]}},{"type":"Feature","properties":{"id":"MUS-5187","code":"MU-PA","name":"Pamplemousses","name_ko":"팜플레무스 구","name_en":"Pamplemousses","name_ja":"パンプルムース県","name_zh":"庞波慕斯区","name_es":"Pamplemousses","name_fr":"Pamplemousses","name_de":"Pamplemousses","name_ru":"Памплемус","name_pt":"Pamplemousses","name_vi":"Quận Pamplemousses"},"geometry":{"type":"Polygon","coordinates":[[[57.4938,-20.1223],[57.4945,-20.1037],[57.5281,-20.0309],[57.5601,-20.0038],[57.5803,-19.9999],[57.6104,-20.0342],[57.6126,-20.047],[57.6062,-20.061],[57.6351,-20.0889],[57.619,-20.1072],[57.6308,-20.1555],[57.6266,-20.1652],[57.6094,-20.1759],[57.6079,-20.1849],[57.5933,-20.1856],[57.5557,-20.2049],[57.5463,-20.202],[57.5471,-20.1351],[57.5396,-20.1222],[57.5213,-20.1265],[57.4938,-20.1223]]]}},{"type":"Feature","properties":{"id":"MUS-5190","code":"MU-PL","name":"Port Louis city","name_ko":"포트루이스","name_en":"Port Louis","name_ja":"ポートルイス","name_zh":"路易港","name_es":"Port Louis","name_fr":"Port-Louis","name_de":"Port Louis","name_ru":"Порт-Луи","name_pt":"Port Louis","name_vi":"Port Louis"},"geometry":{"type":"Polygon","coordinates":[[[57.4639,-20.1616],[57.4907,-20.1408],[57.4938,-20.1223],[57.5058,-20.139],[57.5194,-20.1351],[57.5221,-20.1486],[57.5015,-20.1715],[57.4654,-20.1675],[57.4639,-20.1616]]]}},{"type":"Feature","properties":{"id":"MUS-5193","code":"MU-BL","name":"Rivière Noire","name_ko":"블랙리버 구","name_en":"Rivière Noire","name_ja":"ブラックリバー県","name_zh":"黑河区","name_es":"Black River","name_fr":"Rivière Noire","name_de":"Black River","name_ru":"Ривьер-Нуар","name_pt":"Black River","name_vi":"Quận Rivière Noire"},"geometry":{"type":"Polygon","coordinates":[[[57.3993,-20.498],[57.3781,-20.507],[57.3206,-20.4582],[57.3035,-20.4309],[57.3193,-20.4251],[57.3578,-20.4274],[57.369,-20.3864],[57.3678,-20.3762],[57.3569,-20.3704],[57.365,-20.346],[57.366,-20.2908],[57.3775,-20.2431],[57.4105,-20.1892],[57.4326,-20.1718],[57.4639,-20.1616],[57.4708,-20.1888],[57.462,-20.2034],[57.4561,-20.2432],[57.4633,-20.322],[57.473,-20.3305],[57.4483,-20.3434],[57.4601,-20.3799],[57.4504,-20.3875],[57.459,-20.3982],[57.488,-20.4079],[57.487,-20.4229],[57.4751,-20.4165],[57.4537,-20.4229],[57.3914,-20.453],[57.3914,-20.4734],[57.4021,-20.483],[57.3993,-20.498]]]}},{"type":"Feature","properties":{"id":"MUS-5195","code":"MU-SA","name":"Savanne","name_ko":"사반 구","name_en":"Savanne","name_ja":"サバンナ県","name_zh":"萨凡纳区","name_es":"Savanne","name_fr":"Savanne","name_de":"Savanne","name_ru":"Саван","name_pt":"Savanne","name_vi":"Quận Savanne"},"geometry":{"type":"Polygon","coordinates":[[[57.631,-20.492],[57.5884,-20.5048],[57.5036,-20.5173],[57.4736,-20.5151],[57.3993,-20.498],[57.4021,-20.483],[57.3914,-20.4734],[57.3914,-20.453],[57.4751,-20.4165],[57.5031,-20.425],[57.5117,-20.396],[57.5353,-20.4046],[57.5739,-20.4014],[57.5943,-20.4057],[57.6126,-20.425],[57.631,-20.492]]]}},{"type":"Feature","properties":{"id":"MUS-5185","code":"MU-GP","name":"Grand Port","name_ko":"그랑포르 구","name_en":"Grand Port","name_ja":"グラン・ポール県","name_zh":"大港区","name_es":"Grand Port","name_fr":"Grand Port","name_de":"Grand Port","name_ru":"Гран-Порт","name_pt":"Grand Port","name_vi":"Quận Grand Port"},"geometry":{"type":"Polygon","coordinates":[[[57.7782,-20.3048],[57.7815,-20.3357],[57.7571,-20.3434],[57.7293,-20.3639],[57.7123,-20.3875],[57.7261,-20.4196],[57.7233,-20.4343],[57.7058,-20.4387],[57.6847,-20.4716],[57.6722,-20.4797],[57.631,-20.492],[57.6126,-20.425],[57.5943,-20.4057],[57.546,-20.4025],[57.5997,-20.3434],[57.6341,-20.3445],[57.6684,-20.3284],[57.7275,-20.3241],[57.7565,-20.3026],[57.7782,-20.3048]]]}},{"type":"Feature","properties":{"id":"MUS-5184","code":"MU-FL","name":"Flacq","name_ko":"플라크 구","name_en":"Flacq","name_ja":"フラック県","name_zh":"弗拉克区","name_es":"Flacq","name_fr":"Flacq","name_de":"Flacq","name_ru":"Флак","name_pt":"Flacq","name_vi":"Quận Flacq"},"geometry":{"type":"Polygon","coordinates":[[[57.7337,-20.0961],[57.7477,-20.1115],[57.7445,-20.1438],[57.7625,-20.162],[57.7721,-20.1905],[57.7957,-20.2228],[57.7889,-20.2742],[57.7782,-20.3048],[57.7565,-20.3026],[57.7275,-20.3241],[57.6684,-20.3284],[57.6792,-20.2908],[57.6298,-20.2522],[57.662,-20.2221],[57.6072,-20.1888],[57.6094,-20.1759],[57.6266,-20.1652],[57.6308,-20.1555],[57.7337,-20.0961]]]}},{"type":"Feature","properties":{"id":"MUS-5180","code":"MU-AG","name":"Agaléga","name_ko":"아갈레가 제도","name_en":"Agaléga","name_ja":"アガレガ諸島","name_zh":"阿加莱加群岛","name_es":"Islas Agalega","name_fr":"Agaléga","name_de":"Agalega-Inseln","name_ru":"Агалега","name_pt":"Agalega","name_vi":"Agaléga"},"geometry":{"type":"Polygon","coordinates":[[[56.5242,-10.33],[56.5357,-10.3239],[56.5428,-10.3464],[56.5686,-10.3864],[56.5693,-10.4065],[56.5298,-10.353],[56.5242,-10.33]]]}},{"type":"Feature","properties":{"id":"MUS-5194","code":"MU-RO","name":"Rodrigues","name_ko":"로드리게스섬","name_en":"Rodrigues","name_ja":"ロドリゲス島","name_zh":"罗德里格斯岛","name_es":"Rodrigues","name_fr":"Rodrigues","name_de":"Rodrigues","name_ru":"Родригес","name_pt":"Rodrigues","name_vi":"Rodrigues"},"geometry":{"type":"Polygon","coordinates":[[[63.4762,-19.6778],[63.4939,-19.6819],[63.4896,-19.7014],[63.4694,-19.7229],[63.4165,-19.7364],[63.3664,-19.7672],[63.3323,-19.7364],[63.3352,-19.7179],[63.3433,-19.7097],[63.3892,-19.6847],[63.4543,-19.6699],[63.4762,-19.6778]]]}},{"type":"Feature","properties":{"id":"MUS-5186","code":"MU-MO","name":"Moka","name_ko":"모카 구","name_en":"Moka","name_ja":"モカ県","name_zh":"莫卡区","name_es":"Moka","name_fr":"Moka","name_de":"Moka","name_ru":"Мока","name_pt":"Moka","name_vi":"Quận Moka"},"geometry":{"type":"Polygon","coordinates":[[[57.6079,-20.1849],[57.662,-20.2221],[57.6298,-20.2522],[57.6792,-20.2908],[57.6684,-20.3284],[57.6341,-20.3445],[57.5997,-20.3434],[57.5782,-20.3295],[57.5686,-20.3123],[57.5729,-20.2994],[57.546,-20.265],[57.5267,-20.2629],[57.5031,-20.2425],[57.4859,-20.1909],[57.5052,-20.1845],[57.5557,-20.2049],[57.5933,-20.1856],[57.6079,-20.1849]]]}},{"type":"Feature","properties":{"id":"MUS-5188","code":"MU-PW","name":"Plaines Wilhems","name_ko":"플랭윌렐름 구","name_en":"Plaines Wilhems","name_ja":"プレーン・ウィルヘルム県","name_zh":"威廉平原区","name_es":"Plaines Wilhems","name_fr":"Plaines Wilhems","name_de":"Plaines Wilhems","name_ru":"Плен-Вилем","name_pt":"Plaines Wilhems","name_vi":"Quận Plaines Wilhems"},"geometry":{"type":"Polygon","coordinates":[[[57.5997,-20.3434],[57.546,-20.4025],[57.5353,-20.4046],[57.5117,-20.396],[57.5031,-20.425],[57.487,-20.4229],[57.488,-20.4079],[57.459,-20.3982],[57.4504,-20.3875],[57.4601,-20.3799],[57.4483,-20.3434],[57.4547,-20.337],[57.4687,-20.337],[57.4831,-20.3221],[57.5036,-20.3469],[57.5545,-20.3264],[57.5504,-20.3147],[57.5112,-20.2766],[57.4831,-20.2192],[57.4597,-20.2191],[57.4708,-20.1888],[57.4859,-20.1909],[57.5031,-20.2425],[57.5267,-20.2629],[57.546,-20.265],[57.5729,-20.2994],[57.5686,-20.3123],[57.5782,-20.3295],[57.5997,-20.3434]]]}},{"type":"Feature","properties":{"id":"MUS-5181","code":"MU-BR","name":"Beau Bassin-Rose Hill","name_ko":"보베이신로즈힐","name_en":"Beau Bassin-Rose Hill","name_ja":"ボーバッサン・ローズヒル","name_zh":"羅斯希爾","name_es":"Beau Bassin-Rose Hill","name_fr":"Beau-Bassin Rose-Hill","name_de":"Beau Bassin-Rose Hill","name_ru":"Роз-Хилл","name_pt":"Beau Bassin-Rose Hill","name_vi":"Beau Bassin-Rose Hill"},"geometry":{"type":"Polygon","coordinates":[[[57.457,-20.2561],[57.4597,-20.2191],[57.4831,-20.2192],[57.4948,-20.2485],[57.457,-20.2561]]]}},{"type":"Feature","properties":{"id":"MUS-5189","code":"MU-PL","name":"Port Louis","name_ko":"포트루이스 구","name_en":"Port Louis","name_ja":"ポートルイス県","name_zh":"路易港區","name_es":"Port Louis","name_fr":"Port Louis","name_de":"Port Louis","name_ru":"Порт-Луи","name_pt":"Port Louis","name_vi":"Port Louis"},"geometry":{"type":"Polygon","coordinates":[[[57.4708,-20.1888],[57.4654,-20.1675],[57.5015,-20.1715],[57.5221,-20.1486],[57.5194,-20.1351],[57.5058,-20.139],[57.4993,-20.1232],[57.5396,-20.1222],[57.5471,-20.1351],[57.5463,-20.202],[57.5052,-20.1845],[57.4708,-20.1888]]]}},{"type":"Feature","properties":{"id":"MUS-5191","code":"MU-QB","name":"Quatre Bornes","name_ko":"쿠아트레 보르네","name_en":"Quatre Bornes","name_ja":"カトル・ボルヌ","name_zh":"卡特勒博尔纳","name_es":"Quatre Bornes","name_fr":"Quatre Bornes","name_de":"Quatre Bornes","name_ru":"Катре-Борне","name_pt":"Quatre Bornes","name_vi":"Quatre Bornes"},"geometry":{"type":"Polygon","coordinates":[[[57.4592,-20.2909],[57.457,-20.2561],[57.4948,-20.2485],[57.5112,-20.2766],[57.4592,-20.2909]]]}},{"type":"Feature","properties":{"id":"MUS-5196","code":"MU-VP","name":"Vacoas-Phoenix","name_ko":"바코아스피닉스","name_en":"Vacoas-Phoenix","name_ja":"ヴァコア・フェニックス","name_zh":"菲尼克斯","name_es":"Vacoas-Phoenix","name_fr":"Vacoas-Phœnix","name_de":"Vacoas-Phoenix","name_ru":"Вакоа-Феникс","name_pt":"Vacoas-Phoenix","name_vi":"Vacoas-Phoenix"},"geometry":{"type":"Polygon","coordinates":[[[57.471,-20.3288],[57.4633,-20.322],[57.4592,-20.2909],[57.5112,-20.2766],[57.5288,-20.2965],[57.471,-20.3288]]]}},{"type":"Feature","properties":{"id":"MUS-5183","code":"MU-CU","name":"Curepipe","name_ko":"쿠레피페","name_en":"Curepipe","name_ja":"キュールピップ","name_zh":"居尔皮普","name_es":"Curepipe","name_fr":"Curepipe","name_de":"Curepipe","name_ru":"Кюрпип","name_pt":"Curepipe","name_vi":"Curepipe"},"geometry":{"type":"Polygon","coordinates":[[[57.4831,-20.3221],[57.5288,-20.2965],[57.5504,-20.3147],[57.5545,-20.3264],[57.5036,-20.3469],[57.4831,-20.3221]]]}}]}