{"type":"FeatureCollection","features":[{"type":"Feature","properties":{"code":"NF-X01~","name":"Norfolk Island","name_ko":"노퍽 아일랜드","name_en":"Norfolk Island","name_ja":"ノーフォーク島","name_zh":"诺福克岛","name_es":"Isla Norfolk","name_fr":"Île Norfolk","name_de":"Norfolkinsel","name_ru":"О́стров Но́рфолк","name_pt":"Ilha Norfolk","name_vi":"Đảo Norfolk"},"geometry":{"type":"Polygon","coordinates":[[[167.9841,-29.0178],[167.9963,-29.0256],[167.9946,-29.0426],[167.9666,-29.08],[167.9505,-29.0566],[167.9397,-29.0558],[167.9264,-29.0663],[167.9183,-29.0364],[167.9305,-29.0121],[167.9121,-29.0117],[167.9265,-28.9975],[167.9841,-29.0178]]]}}]}