{"type":"FeatureCollection","features":[{"type":"Feature","properties":{"name":"Anetan","name_ko":"아네탄 구","code":"NR-03"},"geometry":{"type":"Polygon","coordinates":[[[166.9312,-0.4933],[166.9388,-0.4904],[166.939,-0.5042],[166.9312,-0.4933]]]}},{"type":"Feature","properties":{"name":"Ewa","name_ko":"에와 구","code":"NR-09"},"geometry":{"type":"Polygon","coordinates":[[[166.9251,-0.4957],[166.9312,-0.4933],[166.938,-0.5105],[166.9251,-0.4957]]]}},{"type":"Feature","properties":{"name":"Baiti","name_ko":"바이티 구","code":"NR-05"},"geometry":{"type":"Polygon","coordinates":[[[166.9181,-0.4984],[166.9251,-0.4957],[166.9372,-0.5165],[166.9181,-0.4984]]]}},{"type":"Feature","properties":{"name":"Uaboe","name_ko":"우아보에 구","code":"NR-13"},"geometry":{"type":"Polygon","coordinates":[[[166.9134,-0.5002],[166.9181,-0.4984],[166.9368,-0.5202],[166.9134,-0.5002]]]}},{"type":"Feature","properties":{"name":"Nibok","name_ko":"니보크 구","code":"NR-12"},"geometry":{"type":"Polygon","coordinates":[[[166.9103,-0.5121],[166.9134,-0.5002],[166.9361,-0.5252],[166.9103,-0.5121]]]}},{"type":"Feature","properties":{"name":"Denigomodu","name_ko":"데니고모두 구","code":"NR-08"},"geometry":{"type":"Polygon","coordinates":[[[166.907,-0.5248],[166.9103,-0.5121],[166.9204,-0.5207],[166.907,-0.5248]]]}},{"type":"Feature","properties":{"name":"Aiwo","name_ko":"아이워 구","code":"NR-01"},"geometry":{"type":"Polygon","coordinates":[[[166.912,-0.537],[166.907,-0.5248],[166.9169,-0.5242],[166.9179,-0.5351],[166.912,-0.537]]]}},{"type":"Feature","properties":{"name":"Boe","name_ko":"보에 구","code":"NR-06"},"geometry":{"type":"Polygon","coordinates":[[[166.9164,-0.5475],[166.912,-0.537],[166.9179,-0.5351],[166.9164,-0.5475]]]}},{"type":"Feature","properties":{"name":"Yaren","name_ko":"야렌 구","code":"NR-14"},"geometry":{"type":"Polygon","coordinates":[[[166.9326,-0.5507],[166.9164,-0.5475],[166.9253,-0.5344],[166.9326,-0.5507]]]}},{"type":"Feature","properties":{"name":"Meneng","name_ko":"메넹 구","code":"NR-11"},"geometry":{"type":"Polygon","coordinates":[[[166.9532,-0.5334],[166.9388,-0.5519],[166.9326,-0.5507],[166.9253,-0.5344],[166.9355,-0.5298],[166.9532,-0.5334]]]}},{"type":"Feature","properties":{"name":"Anibare","name_ko":"아니바레 구","code":"NR-04"},"geometry":{"type":"Polygon","coordinates":[[[166.9574,-0.5113],[166.9532,-0.5334],[166.9355,-0.5298],[166.939,-0.5042],[166.9574,-0.5113]]]}},{"type":"Feature","properties":{"name":"Ijuw","name_ko":"이유브 구","code":"NR-10"},"geometry":{"type":"Polygon","coordinates":[[[166.9556,-0.498],[166.9574,-0.5113],[166.939,-0.5042],[166.9556,-0.498]]]}},{"type":"Feature","properties":{"name":"Anabar","name_ko":"아나바르 구","code":"NR-02"},"geometry":{"type":"Polygon","coordinates":[[[166.9388,-0.4904],[166.9556,-0.498],[166.939,-0.5042],[166.9388,-0.4904]]]}},{"type":"Feature","properties":{"name":"Buada","name_ko":"부아다 구","code":"NR-07"},"geometry":{"type":"Polygon","coordinates":[[[166.9361,-0.5252],[166.9201,-0.5388],[166.9162,-0.5291],[166.9204,-0.5207],[166.9361,-0.5252]]]}}]}