{"type":"FeatureCollection","features":[{"type":"Feature","properties":{"code":"-99-X08~","name":"Spratly Islands","name_ko":"스프래틀리 아일랜즈","name_en":"Spratly Islands","name_ja":"南沙諸島","name_zh":"南沙群岛","name_es":"Islas Spratly","name_fr":"Îles Spratleys","name_de":"Spratly-Inseln","name_ru":"острова Спратли","name_pt":"Ilhas Spratly","name_vi":"Quần đảo Spratly"},"geometry":{"type":"MultiPolygon","coordinates":[[[[114.3732,9.6876],[114.381,9.6922],[114.3765,9.6801],[114.3706,9.6814],[114.3732,9.6876]]],[[[114.0296,10.0119],[114.0293,10.0174],[114.0401,10.0195],[114.0296,10.0119]]],[[[114.3654,10.1755],[114.3587,10.1793],[114.363,10.1871],[114.3713,10.1805],[114.3654,10.1755]]],[[[114.4642,10.3674],[114.467,10.3784],[114.471,10.3723],[114.4642,10.3674]]],[[[114.3638,10.3679],[114.3604,10.3786],[114.3678,10.3708],[114.3638,10.3679]]],[[[115.8306,10.7346],[115.8327,10.7277],[115.8146,10.7233],[115.8146,10.7343],[115.8306,10.7346]]],[[[115.8403,10.8232],[115.8296,10.8318],[115.8452,10.8312],[115.8488,10.8264],[115.8403,10.8232]]],[[[114.2786,11.0404],[114.2722,11.0458],[114.2827,11.0507],[114.2869,11.0466],[114.2786,11.0404]]],[[[115.0184,11.1071],[115.0101,11.1159],[115.0208,11.118],[115.0184,11.1071]]]]}}]}