{"type":"FeatureCollection","features":[{"type":"Feature","properties":{"name":"Peleliu","name_ko":"펠렐리우","code":"PW-350"},"geometry":{"type":"Polygon","coordinates":[[[134.2715,7.0745],[134.2844,7.0626],[134.2715,7.0336],[134.28,7.0205],[134.2578,7.0131],[134.2344,6.9843],[134.2305,6.9892],[134.2357,7.0085],[134.2715,7.0745]]]}},{"type":"Feature","properties":{"name":"Koror","name_ko":"코로르","code":"PW-150"},"geometry":{"type":"MultiPolygon","coordinates":[[[[134.4639,7.2943],[134.4492,7.29],[134.4639,7.2636],[134.4583,7.2567],[134.426,7.2533],[134.3929,7.2245],[134.3649,7.2215],[134.3491,7.2378],[134.3508,7.2712],[134.3826,7.2379],[134.4017,7.2465],[134.4439,7.2874],[134.4411,7.3167],[134.459,7.3077],[134.4639,7.2943]]],[[[134.4714,7.3625],[134.5119,7.3473],[134.5274,7.3315],[134.5222,7.3113],[134.5119,7.3086],[134.4912,7.3427],[134.4778,7.3469],[134.4495,7.3284],[134.4496,7.3554],[134.4569,7.3627],[134.4714,7.3625]]]]}},{"type":"Feature","properties":{"name":"Ngeremlengui","name_ko":"가렘렝구이","code":"PW-227"},"geometry":{"type":"Polygon","coordinates":[[[134.5283,7.5161],[134.5116,7.5277],[134.5327,7.5537],[134.5464,7.5612],[134.5471,7.5804],[134.5853,7.5758],[134.5984,7.5898],[134.6115,7.574],[134.6199,7.573],[134.5807,7.474],[134.5443,7.5235],[134.5283,7.5161]]]}},{"type":"Feature","properties":{"name":"Ngatpang","name_ko":"가트팡","code":"PW-224"},"geometry":{"type":"Polygon","coordinates":[[[134.4876,7.4699],[134.5116,7.4935],[134.5155,7.4805],[134.5244,7.4788],[134.5339,7.486],[134.5388,7.4997],[134.5283,7.5161],[134.5443,7.5235],[134.5807,7.474],[134.5657,7.432],[134.5499,7.4413],[134.5424,7.461],[134.5228,7.4703],[134.4876,7.4699]]]}},{"type":"Feature","properties":{"name":"Aimeliik","name_ko":"아이멜리크","code":"PW-002"},"geometry":{"type":"Polygon","coordinates":[[[134.5105,7.4042],[134.4993,7.4382],[134.4829,7.4458],[134.4876,7.4699],[134.5228,7.4703],[134.5424,7.461],[134.5499,7.4413],[134.5657,7.432],[134.5527,7.4124],[134.5302,7.3974],[134.5105,7.4042]]]}},{"type":"Feature","properties":{"name":"Airai","name_ko":"아이라이","code":"PW-004"},"geometry":{"type":"Polygon","coordinates":[[[134.5942,7.4211],[134.6011,7.3836],[134.5962,7.3699],[134.5593,7.3762],[134.5388,7.3557],[134.5238,7.361],[134.5105,7.4042],[134.5302,7.3974],[134.5527,7.4124],[134.5657,7.432],[134.5942,7.4211]]]}},{"type":"Feature","properties":{"name":"Ngchesar","name_ko":"체사르","code":"PW-226"},"geometry":{"type":"Polygon","coordinates":[[[134.6282,7.489],[134.5996,7.4426],[134.5942,7.4211],[134.5657,7.432],[134.5947,7.5123],[134.6096,7.488],[134.6282,7.489]]]}},{"type":"Feature","properties":{"name":"Melekeok","name_ko":"멜레케오크","code":"PW-212"},"geometry":{"type":"Polygon","coordinates":[[[134.6257,7.5305],[134.636,7.5032],[134.6282,7.489],[134.6096,7.488],[134.5947,7.5123],[134.6078,7.5422],[134.6257,7.5305]]]}},{"type":"Feature","properties":{"name":"Ngiwal","name_ko":"기왈","code":"PW-228"},"geometry":{"type":"Polygon","coordinates":[[[134.6582,7.5911],[134.6454,7.5574],[134.6257,7.5305],[134.6078,7.5422],[134.6236,7.6001],[134.6582,7.5911]]]}},{"type":"Feature","properties":{"name":"Ngaraard","name_ko":"가라르드","code":"PW-214"},"geometry":{"type":"Polygon","coordinates":[[[134.6602,7.686],[134.6633,7.6386],[134.6582,7.5911],[134.6236,7.6001],[134.6229,7.6259],[134.635,7.6293],[134.641,7.646],[134.6351,7.6841],[134.6602,7.686]]]}},{"type":"Feature","properties":{"name":"Ngarchelong","name_ko":"가르첼롱","code":"PW-218"},"geometry":{"type":"Polygon","coordinates":[[[134.6351,7.6841],[134.6237,7.718],[134.6253,7.7341],[134.6433,7.7265],[134.6602,7.686],[134.6351,7.6841]]]}},{"type":"Feature","properties":{"name":"Ngardmau","name_ko":"가르드마우","code":"PW-222"},"geometry":{"type":"Polygon","coordinates":[[[134.5471,7.5804],[134.5691,7.6137],[134.6229,7.6259],[134.6199,7.573],[134.6115,7.574],[134.5984,7.5898],[134.5853,7.5758],[134.5471,7.5804]]]}},{"type":"Feature","properties":{"name":"Hatohobei","name_ko":"하토호베이","code":"PW-050"},"geometry":{"type":"MultiPolygon","coordinates":[[[[131.1421,3.0473],[131.1609,3.0588],[131.1836,3.0603],[131.1921,3.0488],[131.1804,3.0333],[131.1384,3.0189],[131.1311,3.0295],[131.1421,3.0473]]],[[[131.7915,2.9777],[131.8064,2.9743],[131.813,2.9604],[131.7952,2.949],[131.7788,2.9528],[131.7754,2.9641],[131.7915,2.9777]]]]}},{"type":"Feature","properties":{"name":"Sonsorol","name_ko":"손소롤","code":"PW-370"},"geometry":{"type":"Polygon","coordinates":[[[132.2204,5.2922],[132.2139,5.3071],[132.2202,5.3102],[132.2267,5.3043],[132.2204,5.2922]]]}},{"type":"Feature","properties":{"name":"Angaur","name_ko":"앙가우르","code":"PW-010"},"geometry":{"type":"Polygon","coordinates":[[[134.1597,6.8845],[134.1367,6.9191],[134.1397,6.9343],[134.1598,6.935],[134.1732,6.9249],[134.1777,6.9092],[134.1734,6.8937],[134.1597,6.8845]]]}},{"type":"Feature","properties":{"name":"Kayangel","name_ko":"카양겔","code":"PW-100"},"geometry":{"type":"Polygon","coordinates":[[[134.7097,8.0966],[134.7222,8.0965],[134.7273,8.0829],[134.7181,8.0587],[134.7012,8.0502],[134.6925,8.0608],[134.6928,8.0755],[134.7097,8.0966]]]}}]}