{"type":"FeatureCollection","features":[{"type":"Feature","properties":{"id":"GAZ+00?","code":"PS-GZZ","name":"Gaza Strip","name_ko":"가자","name_en":"Gaza","name_ja":"ガザ県","name_zh":"加沙省","name_es":"Gaza","name_fr":"de Gaza","name_de":"Gouvernement Gaza","name_ru":"Газа","name_pt":"Faixa de Gaza","name_vi":"Dải Gaza"},"geometry":{"type":"Polygon","coordinates":[[[34.4812,31.5831],[34.556,31.5398],[34.3673,31.3928],[34.3458,31.3577],[34.3538,31.3064],[34.3509,31.2893],[34.3159,31.2569],[34.2484,31.2114],[34.2246,31.2757],[34.2003,31.3143],[34.2814,31.3767],[34.3016,31.4077],[34.3484,31.4376],[34.3682,31.4682],[34.4434,31.5346],[34.4812,31.5831]]]}},{"type":"Feature","properties":{"id":"WEB+00?","code":"PS-WBK","name":"West Bank","name_ko":"웨스트 뱅크","name_en":"West Bank","name_ja":"ウェストバンク","name_zh":"约旦河西岸","name_es":"Ribera Occidental","name_fr":"Cisjordanie","name_de":"Westjordanland","name_ru":"Западный берег реки Иордан","name_pt":"Cisjordânia","name_vi":"Bờ Tây"},"geometry":{"type":"Polygon","coordinates":[[[35.2104,32.5419],[35.2704,32.5105],[35.3631,32.5101],[35.3929,32.4945],[35.4018,32.471],[35.4069,32.4148],[35.561,32.3847],[35.5656,32.3679],[35.5594,32.3679],[35.5594,32.3748],[35.552,32.3748],[35.552,32.3679],[35.5573,32.3582],[35.5565,32.3282],[35.5656,32.3134],[35.5609,32.2826],[35.5725,32.2519],[35.5594,32.2376],[35.5725,32.2376],[35.5552,32.1744],[35.5594,32.1551],[35.5467,32.147],[35.552,32.1352],[35.5352,32.1108],[35.5346,32.0992],[35.5451,32.0868],[35.5283,32.0751],[35.5228,32.0578],[35.5247,32.0117],[35.5459,31.9446],[35.5451,31.9366],[35.5275,31.9274],[35.5247,31.9192],[35.5491,31.8392],[35.5383,31.8193],[35.5594,31.7653],[35.5276,31.7351],[35.4801,31.6411],[35.4642,31.5686],[35.4587,31.4916],[35.3901,31.4871],[35.3323,31.4588],[35.2233,31.381],[35.1649,31.3623],[35.0402,31.3632],[34.9274,31.3449],[34.9009,31.3485],[34.8788,31.3628],[34.8672,31.3964],[34.8817,31.4299],[34.9268,31.4944],[34.9373,31.582],[34.9553,31.6119],[34.9736,31.6304],[35.0592,31.6768],[35.1142,31.7177],[35.1257,31.7331],[35.149,31.7373],[35.1667,31.7321],[35.1794,31.7201],[35.2053,31.7232],[35.238,31.7093],[35.2628,31.7486],[35.2527,31.7697],[35.2629,31.7897],[35.2559,31.8122],[35.2649,31.8263],[35.2516,31.8313],[35.2572,31.8386],[35.25,31.8444],[35.2334,31.8426],[35.222,31.8792],[35.2053,31.8773],[35.2158,31.8201],[35.1836,31.8251],[35.1862,31.8087],[35.137,31.8143],[35.1214,31.8248],[35.1125,31.824],[35.0763,31.8542],[35.056,31.8533],[35.0275,31.8327],[35.0129,31.8293],[34.9774,31.8334],[34.9985,31.8538],[35.0343,31.8611],[35.039,31.9086],[35.0299,31.9244],[35.0054,31.9338],[35.0077,31.9449],[34.9867,31.9672],[34.9978,31.9788],[34.9968,32.0111],[35.0072,32.0208],[34.9842,32.0896],[34.9869,32.124],[34.9582,32.1865],[34.9614,32.2016],[35.0003,32.232],[35.0076,32.2444],[35.0094,32.2676],[34.9899,32.2785],[35.0007,32.3357],[35.0216,32.3446],[35.0447,32.4341],[35.0644,32.4631],[35.1517,32.5079],[35.1908,32.5417],[35.2104,32.5419]]]}}]}