{"type":"FeatureCollection","features":[{"type":"Feature","properties":{"name":"South West Community Development Council","name_ko":"남서부 지구 사회 발전 이사회","code":"SG-05"},"geometry":{"type":"Polygon","coordinates":[[[103.8469,1.2719],[103.8389,1.2663],[103.8016,1.2648],[103.7896,1.2679],[103.7759,1.2876],[103.7551,1.2971],[103.6476,1.3084],[103.6404,1.3223],[103.6447,1.338],[103.6746,1.3803],[103.6838,1.4099],[103.7083,1.4294],[103.7622,1.431],[103.7585,1.3903],[103.7876,1.3624],[103.7824,1.343],[103.8064,1.3249],[103.8096,1.2938],[103.8193,1.2835],[103.8469,1.2719]]]}},{"type":"Feature","properties":{"name":"Central Singapore Community Development Council","name_ko":"중앙싱가포르 지구 사회 발전 이사회","code":"SG-01"},"geometry":{"type":"Polygon","coordinates":[[[103.8981,1.3052],[103.8469,1.2719],[103.8193,1.2835],[103.8096,1.2938],[103.8064,1.3249],[103.8238,1.3404],[103.8193,1.3579],[103.8426,1.378],[103.8309,1.4006],[103.8413,1.4168],[103.8743,1.4181],[103.8815,1.4266],[103.9094,1.4126],[103.8989,1.3864],[103.884,1.3799],[103.873,1.3631],[103.875,1.343],[103.8981,1.3052]]]}},{"type":"Feature","properties":{"name":"South East Community Development Council","name_ko":"남동부 지구 사회 발전 이사회","code":"SG-04"},"geometry":{"type":"Polygon","coordinates":[[[103.9658,1.39],[103.9995,1.3803],[104.0034,1.3742],[103.9919,1.3549],[103.9544,1.3181],[103.8981,1.3052],[103.875,1.343],[103.8769,1.3728],[103.8989,1.3864],[103.8976,1.3747],[103.906,1.3683],[103.9423,1.354],[103.9455,1.3728],[103.9658,1.39]]]}},{"type":"Feature","properties":{"name":"North East Community Development Council","name_ko":"북동부 지구 사회 발전 이사회","code":"SG-02"},"geometry":{"type":"Polygon","coordinates":[[[103.9094,1.4126],[103.9658,1.39],[103.9455,1.3728],[103.9423,1.354],[103.8976,1.3747],[103.9094,1.4126]]]}},{"type":"Feature","properties":{"name":"North West","name_ko":"노스 웨스트 케이프","code":"SG-03"},"geometry":{"type":"Polygon","coordinates":[[[103.7622,1.431],[103.8049,1.4486],[103.8316,1.4471],[103.8815,1.4266],[103.8743,1.4181],[103.8413,1.4168],[103.8335,1.409],[103.8309,1.4006],[103.8426,1.378],[103.8245,1.3657],[103.8193,1.3579],[103.8238,1.3404],[103.8064,1.3249],[103.7824,1.343],[103.7876,1.3624],[103.7585,1.3903],[103.7622,1.431]]]}}]}