{"type":"FeatureCollection","features":[{"type":"Feature","properties":{"name":"Serravalle","name_ko":"세라발레","code":"SM-09"},"geometry":{"type":"Polygon","coordinates":[[[12.4822,43.9826],[12.4907,43.965],[12.4645,43.952],[12.4567,43.9603],[12.4481,43.9547],[12.4443,43.9679],[12.4272,43.9694],[12.4822,43.9826]]]}},{"type":"Feature","properties":{"name":"Domagnano","name_ko":"도마냐노","code":"SM-03"},"geometry":{"type":"Polygon","coordinates":[[[12.4907,43.965],[12.488,43.9463],[12.4572,43.9334],[12.4448,43.9404],[12.4481,43.9547],[12.4567,43.9603],[12.4645,43.952],[12.4907,43.965]]]}},{"type":"Feature","properties":{"name":"Faetano","name_ko":"파에타노","code":"SM-04"},"geometry":{"type":"Polygon","coordinates":[[[12.4915,43.9491],[12.478,43.9232],[12.468,43.9226],[12.4664,43.9307],[12.4572,43.9334],[12.4915,43.9491]]]}},{"type":"Feature","properties":{"name":"Montegiardino","name_ko":"몬테자르디노","code":"SM-08"},"geometry":{"type":"Polygon","coordinates":[[[12.478,43.9232],[12.4644,43.9001],[12.468,43.9226],[12.478,43.9232]]]}},{"type":"Feature","properties":{"name":"Fiorentino","name_ko":"피오렌티노","code":"SM-05"},"geometry":{"type":"Polygon","coordinates":[[[12.4644,43.9001],[12.4413,43.8933],[12.4351,43.904],[12.4411,43.9145],[12.4645,43.9245],[12.4644,43.9001]]]}},{"type":"Feature","properties":{"name":"Chiesanuova","name_ko":"키에사누오바","code":"SM-02"},"geometry":{"type":"Polygon","coordinates":[[[12.4413,43.8933],[12.3996,43.9032],[12.39,43.9179],[12.4214,43.9131],[12.4222,43.9064],[12.4351,43.904],[12.4413,43.8933]]]}},{"type":"Feature","properties":{"name":"San Marino","name_ko":"산마리노","code":"SM-07"},"geometry":{"type":"Polygon","coordinates":[[[12.39,43.9179],[12.3856,43.9245],[12.4144,43.9312],[12.4181,43.9406],[12.4367,43.928],[12.4411,43.9145],[12.4351,43.904],[12.4265,43.904],[12.4214,43.9131],[12.39,43.9179]]]}},{"type":"Feature","properties":{"name":"Acquaviva","name_ko":"아콰비바","code":"SM-01"},"geometry":{"type":"Polygon","coordinates":[[[12.3856,43.9245],[12.3957,43.9484],[12.4166,43.9637],[12.4257,43.9568],[12.4144,43.9312],[12.3856,43.9245]]]}},{"type":"Feature","properties":{"name":"Borgo Maggiore","name_ko":"보르고마조레","code":"SM-06"},"geometry":{"type":"Polygon","coordinates":[[[12.4166,43.9637],[12.4272,43.9694],[12.4443,43.9679],[12.4448,43.9404],[12.4664,43.9307],[12.4645,43.9245],[12.4411,43.9145],[12.4367,43.928],[12.4181,43.9406],[12.4184,43.9498],[12.4265,43.9512],[12.4166,43.9637]]]}}]}