{"type":"FeatureCollection","features":[{"type":"Feature","properties":{"id":"STP-4861","code":"ST-S","name":"São Tomé","name_ko":"상 투메","name_en":"São Tomé","name_ja":"サントメ川","name_zh":"圣多美","name_es":"Santo Tomé","name_fr":"São Tomé","name_de":"São Tomé","name_ru":"Сан-Томе","name_pt":"São Tomé","name_vi":"São Tomé"},"geometry":{"type":"Polygon","coordinates":[[[6.6814,0.4071],[6.7039,0.3918],[6.7461,0.3381],[6.7609,0.2842],[6.7565,0.2501],[6.7401,0.2186],[6.7031,0.1804],[6.6746,0.1334],[6.6533,0.1246],[6.66,0.1073],[6.6336,0.0986],[6.6162,0.0781],[6.5784,0.0781],[6.5677,0.0421],[6.5573,0.0283],[6.5442,0.0439],[6.537,0.0264],[6.5266,0.0241],[6.5101,0.0514],[6.5166,0.07],[6.5137,0.0883],[6.5027,0.0986],[6.4617,0.2222],[6.4709,0.2679],[6.4902,0.291],[6.4978,0.3127],[6.5331,0.3481],[6.5783,0.3646],[6.6419,0.4108],[6.6814,0.4071]]]}},{"type":"Feature","properties":{"id":"STP-4862","code":"ST-P","name":"Príncipe","name_ko":"프린시페","name_en":"Príncipe","name_ja":"プリンシペ州","name_zh":"普林西比自治区","name_es":"Príncipe","name_fr":"Principe","name_de":"Príncipe (Prinzeninsel)","name_ru":"При́нсипи","name_pt":"do Príncipe","name_vi":"Đảo Príncipe"},"geometry":{"type":"Polygon","coordinates":[[[7.4627,1.6745],[7.4348,1.6589],[7.4287,1.6479],[7.4435,1.6455],[7.4618,1.6308],[7.4382,1.6239],[7.4305,1.5727],[7.4255,1.5627],[7.4058,1.5565],[7.4014,1.5312],[7.3941,1.5454],[7.381,1.538],[7.3722,1.5541],[7.3325,1.5653],[7.3301,1.6147],[7.356,1.62],[7.364,1.6294],[7.3718,1.6772],[7.3853,1.6923],[7.403,1.6998],[7.4487,1.6932],[7.4597,1.6883],[7.4627,1.6745]]]}}]}