{"type":"FeatureCollection","features":[{"type":"Feature","properties":{"code":"NL-SX","name":"Sint Maarten","name_ko":"신트마르턴","name_en":"Sint Maarten","name_ja":"シント・マールテン","name_zh":"荷属圣马丁","name_es":"San Martín","name_fr":"Saint-Martin","name_de":"Sint Maarten","name_ru":"Синт-Мартен","name_pt":"São Martinho","name_vi":"Sint Maarten"},"geometry":{"type":"Polygon","coordinates":[[[-63.107,18.0621],[-63.0176,18.0334],[-63.0306,18.0191],[-63.0976,18.036],[-63.1189,18.0515],[-63.107,18.0621]]]}}]}