{"type":"FeatureCollection","features":[{"type":"Feature","properties":{"name":"Coralline Seychelles","name_ko":"아우터 아일랜즈","code":"SC-X02~"},"geometry":{"type":"MultiPolygon","coordinates":[[[[46.5098,-9.72],[46.5007,-9.7465],[46.4905,-9.7555],[46.4797,-9.7511],[46.4785,-9.7404],[46.487,-9.7302],[46.5098,-9.72]]],[[[47.5073,-9.7131],[47.5073,-9.6982],[47.5129,-9.6944],[47.5158,-9.7001],[47.5073,-9.7131]]],[[[46.4955,-9.3576],[46.5252,-9.3813],[46.4546,-9.4264],[46.3807,-9.4246],[46.2998,-9.4493],[46.2344,-9.4523],[46.2074,-9.3855],[46.2305,-9.4137],[46.2741,-9.4264],[46.3205,-9.4238],[46.3516,-9.4059],[46.396,-9.3984],[46.4346,-9.3781],[46.4408,-9.3855],[46.4478,-9.3781],[46.4688,-9.3855],[46.4688,-9.3781],[46.4528,-9.3624],[46.4478,-9.3377],[46.4955,-9.3576]]],[[[46.2839,-9.3513],[46.2761,-9.3393],[46.3152,-9.3264],[46.4271,-9.3377],[46.4107,-9.3533],[46.3794,-9.357],[46.3311,-9.3439],[46.3184,-9.3508],[46.2839,-9.3513]]],[[[56.2471,-7.1926],[56.2588,-7.1402],[56.2694,-7.1198],[56.2874,-7.11],[56.2725,-7.1536],[56.2471,-7.1926]]]]}},{"type":"Feature","properties":{"name":"La Digue","name_ko":"라디그섬","code":"SC-15"},"geometry":{"type":"MultiPolygon","coordinates":[[[[55.6597,-3.7911],[55.6659,-3.8118],[55.6585,-3.8117],[55.6519,-3.8012],[55.6597,-3.7911]]],[[[55.2603,-4.5001],[55.242,-4.504],[55.228,-4.4875],[55.2214,-4.4635],[55.2254,-4.4449],[55.2599,-4.463],[55.2692,-4.4802],[55.2603,-4.5001]]],[[[55.8318,-4.3375],[55.8441,-4.3427],[55.8571,-4.365],[55.8415,-4.3828],[55.8255,-4.372],[55.8233,-4.3598],[55.8318,-4.3375]]],[[[55.8686,-4.3174],[55.8846,-4.3367],[55.8735,-4.3326],[55.8686,-4.3174]]],[[[55.92,-4.3341],[55.9248,-4.3371],[55.9226,-4.3497],[55.92,-4.3341]]],[[[55.9401,-4.5787],[55.9501,-4.591],[55.9391,-4.5923],[55.933,-4.5862],[55.9401,-4.5787]]]]}},{"type":"Feature","properties":{"name":"Grand'Anse Praslin","name_ko":"그랑당스프라슬랭 구","code":"SC-13"},"geometry":{"type":"Polygon","coordinates":[[[55.478,-4.7064],[55.4682,-4.7055],[55.4465,-4.6726],[55.4592,-4.6576],[55.4798,-4.6721],[55.4775,-4.6651],[55.4827,-4.6623],[55.4952,-4.6778],[55.478,-4.7064]]]}},{"type":"Feature","properties":{"name":"Anse Boileau","name_ko":"앙스부알로 구","code":"SC-02"},"geometry":{"type":"Polygon","coordinates":[[[55.4916,-4.7364],[55.4803,-4.7214],[55.478,-4.7064],[55.4952,-4.6778],[55.5002,-4.6796],[55.5079,-4.7198],[55.505,-4.7391],[55.4916,-4.7364]]]}},{"type":"Feature","properties":{"name":"Baie Lazare","name_ko":"베라자르 구","code":"SC-06"},"geometry":{"type":"Polygon","coordinates":[[[55.4932,-4.7766],[55.4869,-4.7621],[55.4635,-4.7598],[55.4682,-4.7415],[55.505,-4.7391],[55.5101,-4.7775],[55.4932,-4.7766]]]}},{"type":"Feature","properties":{"name":"Takamaka","name_ko":"타카마카 구","code":"SC-23"},"geometry":{"type":"Polygon","coordinates":[[[55.5257,-4.7701],[55.5379,-4.8038],[55.5197,-4.8038],[55.5042,-4.7958],[55.4932,-4.7766],[55.5101,-4.7775],[55.5097,-4.7713],[55.5257,-4.7701]]]}},{"type":"Feature","properties":{"name":"Anse Royale","name_ko":"앙스루아얄 구","code":"SC-05"},"geometry":{"type":"Polygon","coordinates":[[[55.5281,-4.7368],[55.5197,-4.7392],[55.5169,-4.7504],[55.5257,-4.7701],[55.5097,-4.7713],[55.5044,-4.7433],[55.5079,-4.7198],[55.5281,-4.7368]]]}},{"type":"Feature","properties":{"name":"Au Cap","name_ko":"오카프 구","code":"SC-04"},"geometry":{"type":"Polygon","coordinates":[[[55.5263,-4.6891],[55.5215,-4.7078],[55.5281,-4.7368],[55.5097,-4.7253],[55.5002,-4.6796],[55.5263,-4.6891]]]}},{"type":"Feature","properties":{"name":"Anse-aux-Pins","name_ko":"앙스오팽 구","code":"SC-01"},"geometry":{"type":"Polygon","coordinates":[[[55.5286,-4.6802],[55.5263,-4.6891],[55.504,-4.6809],[55.5286,-4.6802]]]}},{"type":"Feature","properties":{"name":"Pointe La Rue","name_ko":"푸앵트라루 구","code":"SC-20"},"geometry":{"type":"Polygon","coordinates":[[[55.5136,-4.6662],[55.5286,-4.6802],[55.5063,-4.6774],[55.5136,-4.6662]]]}},{"type":"Feature","properties":{"name":"Cascade","name_ko":"카스카드 구","code":"SC-11"},"geometry":{"type":"Polygon","coordinates":[[[55.492,-4.6514],[55.5136,-4.6662],[55.504,-4.6809],[55.4827,-4.6623],[55.492,-4.6514]]]}},{"type":"Feature","properties":{"name":"Roche Caiman","name_ko":"로슈카이망 구","code":"SC-25"},"geometry":{"type":"Polygon","coordinates":[[[55.4757,-4.6399],[55.492,-4.6514],[55.4895,-4.6585],[55.475,-4.6475],[55.4757,-4.6399]]]}},{"type":"Feature","properties":{"name":"Plaisance","name_ko":"플레장스 구","code":"SC-19"},"geometry":{"type":"Polygon","coordinates":[[[55.4718,-4.6349],[55.4798,-4.6721],[55.4592,-4.6576],[55.4718,-4.6349]]]}},{"type":"Feature","properties":{"name":"Mont Fleuri","name_ko":"몽플뢰리 구","code":"SC-18"},"geometry":{"type":"MultiPolygon","coordinates":[[[[55.4605,-4.6256],[55.4718,-4.6349],[55.4645,-4.6471],[55.4552,-4.6322],[55.4605,-4.6256]]],[[[55.5016,-4.6289],[55.5058,-4.6396],[55.492,-4.6343],[55.4937,-4.628],[55.5016,-4.6289]]],[[[55.4979,-4.6008],[55.5144,-4.6006],[55.4968,-4.6147],[55.4979,-4.6008]]]]}},{"type":"Feature","properties":{"name":"Bel Air","name_ko":"벨에르 구","code":"SC-09"},"geometry":{"type":"Polygon","coordinates":[[[55.4588,-4.6181],[55.4605,-4.63],[55.4552,-4.6322],[55.4645,-4.6471],[55.4592,-4.6576],[55.4451,-4.6506],[55.435,-4.6304],[55.4588,-4.6181]]]}},{"type":"Feature","properties":{"name":"La Rivière Anglaise","name_ko":"라리비에르앙글레즈 구","code":"SC-16"},"geometry":{"type":"Polygon","coordinates":[[[55.4599,-4.5985],[55.4588,-4.6181],[55.4473,-4.6208],[55.4486,-4.6129],[55.4407,-4.6045],[55.4599,-4.5985]]]}},{"type":"Feature","properties":{"name":"Anse Etoile","name_ko":"앙스에투알 구","code":"SC-03"},"geometry":{"type":"Polygon","coordinates":[[[55.4639,-4.5714],[55.4672,-4.5834],[55.4599,-4.5985],[55.4407,-4.6045],[55.4469,-4.5742],[55.4592,-4.5764],[55.4639,-4.5714]]]}},{"type":"Feature","properties":{"name":"Glacis","name_ko":"글라시 구","code":"SC-12"},"geometry":{"type":"Polygon","coordinates":[[[55.4327,-4.5869],[55.4337,-4.5625],[55.4549,-4.5622],[55.4639,-4.5714],[55.4592,-4.5764],[55.4469,-4.5742],[55.4407,-4.587],[55.4327,-4.5869]]]}},{"type":"Feature","properties":{"name":"Beau Vallon","name_ko":"보발롱 구","code":"SC-08"},"geometry":{"type":"Polygon","coordinates":[[[55.4144,-4.6128],[55.4327,-4.5869],[55.4407,-4.587],[55.4385,-4.6151],[55.4315,-4.6238],[55.4258,-4.6129],[55.4144,-4.6128]]]}},{"type":"Feature","properties":{"name":"Bel Ombre","name_ko":"벨옴브르 구","code":"SC-10"},"geometry":{"type":"Polygon","coordinates":[[[55.3805,-4.6272],[55.4144,-4.6128],[55.4258,-4.6129],[55.4315,-4.6238],[55.4179,-4.6291],[55.4197,-4.6366],[55.4087,-4.6414],[55.3805,-4.6272]]]}},{"type":"Feature","properties":{"name":"Port Glaud","name_ko":"포르글로드 구","code":"SC-21"},"geometry":{"type":"MultiPolygon","coordinates":[[[[55.449,-4.6779],[55.3944,-4.6579],[55.3975,-4.6498],[55.3656,-4.6427],[55.3777,-4.6378],[55.3747,-4.6327],[55.3805,-4.6272],[55.4087,-4.6414],[55.4197,-4.6366],[55.4179,-4.6291],[55.4315,-4.6238],[55.4451,-4.6506],[55.4592,-4.6576],[55.4469,-4.6664],[55.449,-4.6779]]]]}},{"type":"Feature","properties":{"name":"Baie Sainte Anne","name_ko":"베생트안 구","code":"SC-07"},"geometry":{"type":"MultiPolygon","coordinates":[[[[55.6828,-4.2944],[55.7044,-4.2902],[55.7187,-4.3032],[55.7467,-4.3114],[55.7545,-4.3211],[55.7772,-4.3185],[55.787,-4.3306],[55.7709,-4.3313],[55.768,-4.3503],[55.6828,-4.2944]]],[[[55.7121,-4.2804],[55.743,-4.2783],[55.7322,-4.2832],[55.7329,-4.2925],[55.7121,-4.2804]]]]}},{"type":"Feature","properties":{"name":"Grand'Anse Praslin","name_ko":"그랑당스프라슬랭 구","code":"SC-14"},"geometry":{"type":"MultiPolygon","coordinates":[[[[55.768,-4.3503],[55.7591,-4.3584],[55.7328,-4.3522],[55.7176,-4.3301],[55.692,-4.3263],[55.6846,-4.3189],[55.6772,-4.2964],[55.6828,-4.2944],[55.768,-4.3503]]],[[[55.6667,-4.2099],[55.6753,-4.2121],[55.6593,-4.2129],[55.6667,-4.2099]]]]}},{"type":"Feature","properties":{"name":"Mont Buxton","name_ko":"몽뷕스통 구","code":"SC-17"},"geometry":{"type":"Polygon","coordinates":[[[55.4385,-4.6151],[55.4407,-4.6045],[55.4486,-4.6129],[55.4473,-4.6208],[55.4385,-4.6151]]]}},{"type":"Feature","properties":{"name":"Saint Louis","name_ko":"생루이 구","code":"SC-22"},"geometry":{"type":"Polygon","coordinates":[[[55.4315,-4.6238],[55.4385,-4.6151],[55.4473,-4.6208],[55.435,-4.6304],[55.4315,-4.6238]]]}},{"type":"Feature","properties":{"name":"Les Mamelles","name_ko":"레마멜 구","code":"SC-24"},"geometry":{"type":"Polygon","coordinates":[[[55.4775,-4.6651],[55.475,-4.6475],[55.4895,-4.6585],[55.4775,-4.6651]]]}}]}