{"type":"FeatureCollection","features":[{"type":"Feature","properties":{"code":"SY-X01~","name":"UNDOF","name_ko":"유엔디오에프","name_en":"Western al-Samadania","name_ja":"アンドフ","name_zh":"联合国脱离接触观察员部队","name_es":"FNUOS","name_fr":"FNUOD","name_de":"UNDOF","name_ru":"Зона Сил ООН по наблюдению за разъединением","name_pt":"UNDOF","name_vi":"Lực lượng quan sát viên không can dự của Liên Hợp Quốc"},"geometry":{"type":"Polygon","coordinates":[[[35.7576,32.7443],[35.8342,32.8279],[35.8419,32.8536],[35.8381,32.866],[35.8497,32.8958],[35.8881,32.9449],[35.859,32.9902],[35.8458,33.0854],[35.8489,33.0987],[35.8115,33.1119],[35.8115,33.1268],[35.8334,33.1611],[35.8302,33.19],[35.8077,33.2017],[35.8036,33.2485],[35.7686,33.2727],[35.8021,33.3125],[35.7638,33.3344],[35.8099,33.36],[35.8211,33.4067],[35.8701,33.4312],[35.87,33.4069],[35.845,33.389],[35.8302,33.3648],[35.845,33.3039],[35.8404,33.2954],[35.8193,33.2844],[35.8513,33.2758],[35.8662,33.226],[35.8888,33.1986],[35.8825,33.1892],[35.8849,33.1791],[35.9004,33.1798],[35.9113,33.1658],[35.9106,33.1354],[35.8919,33.1244],[35.9027,33.1166],[35.9027,33.1096],[35.8684,33.1073],[35.8646,33.0815],[35.8771,32.9926],[35.9238,32.9677],[35.9122,32.9473],[35.8903,32.9286],[35.8607,32.8802],[35.8427,32.8217],[35.8154,32.7865],[35.7911,32.7741],[35.7697,32.7481],[35.7576,32.7443]]]}},{"type":"Feature","properties":{"code":"SY-HI","name":"Homs (Hims)","name_ko":"홈스","name_en":"Homs","name_ja":"ホムス県","name_zh":"霍姆斯省","name_es":"Homs","name_fr":"de Homs","name_de":"Gouvernement Homs","name_ru":"Хомс","name_pt":"Homs","name_vi":"Homs"},"geometry":{"type":"Polygon","coordinates":[[[36.3912,34.6225],[36.3675,34.6292],[36.3474,34.6441],[36.3238,34.6795],[36.3089,34.6875],[36.2882,34.6756],[36.2807,34.6391],[36.2616,34.6272],[36.2012,34.6245],[36.1783,34.6353],[36.1559,34.6269],[36.1121,34.6295],[36.1182,34.6668],[36.1865,34.7687],[36.2097,34.7947],[36.2734,34.8432],[36.2765,34.8812],[36.2871,34.8936],[36.3132,34.9009],[36.32,34.8889],[36.3094,34.8749],[36.3404,34.8498],[36.3676,34.8703],[36.3789,34.8687],[36.3887,34.8572],[36.4194,34.8516],[36.4395,34.8656],[36.4508,34.8938],[36.4502,34.9082],[36.495,34.9525],[36.52,34.9503],[36.5229,34.9438],[36.515,34.9264],[36.5329,34.9213],[36.5402,34.9066],[36.5597,34.9018],[36.6004,34.9141],[36.6493,34.9126],[36.7377,34.9484],[36.7987,34.9507],[36.822,34.9642],[36.8736,34.9783],[36.8967,34.974],[36.9166,34.9583],[36.9728,34.8609],[36.9995,34.8696],[37.0558,34.9062],[37.0893,34.9121],[37.1069,34.9277],[37.1447,34.9143],[37.1592,34.9298],[37.188,34.9447],[37.2068,34.9395],[37.2234,34.9166],[37.2544,34.9095],[37.2672,34.9196],[37.2924,34.9644],[37.3303,34.965],[37.3463,34.9846],[37.3767,34.975],[37.4074,34.9866],[37.4561,34.9869],[37.4758,34.9668],[37.4973,34.9635],[37.5039,34.9742],[37.4973,35.0218],[37.5109,35.0517],[37.575,35.0853],[37.7368,35.1186],[37.7527,35.1141],[37.7786,35.094],[37.8189,35.0872],[37.8404,35.0594],[37.852,35.0125],[37.9261,34.9612],[37.9805,34.9032],[37.992,34.8987],[38.0211,34.9208],[38.03,34.9389],[38.0309,34.9597],[38.057,35.0066],[38.1008,35.0379],[38.2326,35.0861],[38.2432,35.096],[38.2379,35.1294],[38.2421,35.1545],[38.2846,35.2164],[38.3,35.2536],[38.3017,35.3823],[38.3903,35.3909],[38.6842,35.3723],[39.242,35.2493],[39.3427,35.182],[39.3744,35.1492],[39.4378,35.0385],[39.4416,35.0198],[39.4358,34.9517],[39.4445,34.9364],[40.1731,34.0723],[38.7745,33.3717],[38.3157,33.1312],[37.9082,33.4047],[37.8369,33.4444],[37.7537,33.4647],[37.648,33.5279],[37.5804,33.6043],[37.5468,33.6754],[37.3205,33.8458],[37.2555,33.942],[37.2297,33.9512],[37.1846,33.9528],[37.069,34.0098],[37.0199,34.051],[36.9667,34.1279],[36.8701,34.2279],[36.8276,34.2195],[36.7903,34.2024],[36.6645,34.2192],[36.6036,34.2001],[36.574,34.2297],[36.5628,34.2629],[36.5799,34.2869],[36.582,34.2999],[36.5768,34.3077],[36.5558,34.3111],[36.5186,34.3536],[36.5168,34.3699],[36.5298,34.4031],[36.5251,34.4229],[36.4947,34.4343],[36.4802,34.4491],[36.4498,34.4645],[36.4335,34.4943],[36.3923,34.5001],[36.3354,34.4935],[36.3199,34.5141],[36.3835,34.5538],[36.3889,34.5962],[36.4037,34.6038],[36.4291,34.5932],[36.4363,34.5978],[36.4402,34.6294],[36.3912,34.6225]]]}},{"type":"Feature","properties":{"code":"SY-TA","name":"Tartus","name_ko":"타르투스","name_en":"Tartus","name_ja":"タルトゥース県","name_zh":"塔尔图斯省","name_es":"Tartus","name_fr":"de Tartous","name_de":"Gouvernement Tartus","name_ru":"Тартус","name_pt":"Tartus","name_vi":"Tartus"},"geometry":{"type":"Polygon","coordinates":[[[36.0608,34.6279],[36.0162,34.6336],[35.9914,34.6482],[35.9699,34.6498],[35.9312,34.741],[35.929,34.7907],[35.9085,34.8218],[35.8669,34.9242],[35.8814,34.945],[35.8735,34.9583],[35.8789,34.9702],[35.8735,34.9788],[35.9006,35.0219],[35.8879,35.0613],[35.8879,35.1092],[35.9413,35.1806],[35.9624,35.1979],[35.9312,35.2615],[35.9743,35.2496],[36.0256,35.2195],[36.176,35.2292],[36.2011,35.2401],[36.253,35.2234],[36.2651,35.0865],[36.257,35.0479],[36.2293,35.0237],[36.1368,35.0022],[36.144,34.9753],[36.2601,34.9663],[36.2751,34.9308],[36.3132,34.9009],[36.2796,34.8881],[36.2734,34.8432],[36.2097,34.7947],[36.1865,34.7687],[36.1182,34.6668],[36.1121,34.6295],[36.0608,34.6279]]]}},{"type":"Feature","properties":{"code":"SY-RD","name":"Rif Dimashq","name_ko":"리프디마슈크","name_en":"Rif Dimashq","name_ja":"ダマスカス郊外県","name_zh":"大马士革农村省","name_es":"la campiña de Damasco","name_fr":"Rif Dimachq","name_de":"Gouvernement Rif Dimaschq","name_ru":"Дамаск","name_pt":"Rif Dimashq","name_vi":"Rif Dimashq"},"geometry":{"type":"Polygon","coordinates":[[[36.4451,34.0461],[36.4752,34.0535],[36.4884,34.0886],[36.5527,34.141],[36.6036,34.2001],[36.6645,34.2192],[36.7903,34.2024],[36.8276,34.2195],[36.8701,34.2279],[36.9667,34.1279],[37.0199,34.051],[37.069,34.0098],[37.1846,33.9528],[37.2297,33.9512],[37.2555,33.942],[37.3205,33.8458],[37.5468,33.6754],[37.5804,33.6043],[37.648,33.5279],[37.7537,33.4647],[37.8369,33.4444],[37.9082,33.4047],[38.3157,33.1312],[37.4946,32.6901],[37.4685,32.717],[37.4198,32.7471],[37.2839,32.8626],[37.2717,32.928],[37.2572,32.9463],[37.2127,32.9517],[37.1964,32.9449],[37.1835,32.9499],[37.1326,32.9748],[37.1066,33.0094],[37.1044,33.0305],[37.0778,33.0472],[36.9846,33.0637],[36.9607,33.0781],[36.9494,33.1118],[36.9084,33.1489],[36.8995,33.1738],[36.8238,33.2247],[36.5709,33.194],[36.5662,33.2262],[36.5292,33.2639],[36.5108,33.2948],[36.4241,33.2478],[36.394,33.2247],[36.3816,33.1982],[36.3425,33.2059],[36.311,33.2333],[36.2802,33.2397],[36.2734,33.2591],[36.2349,33.2909],[36.2241,33.2766],[36.2258,33.2502],[36.2134,33.2263],[36.1428,33.2027],[36.0635,33.1972],[36.0311,33.1783],[35.9997,33.1792],[35.9861,33.1957],[35.9617,33.2048],[35.9641,33.2439],[35.957,33.2515],[35.907,33.257],[35.89,33.2406],[35.8796,33.2687],[35.8953,33.2987],[35.843,33.3228],[35.8302,33.3515],[35.8349,33.3781],[35.87,33.4069],[35.8701,33.4312],[35.9195,33.4624],[35.9354,33.4943],[35.9219,33.5146],[35.9332,33.5278],[35.9803,33.5339],[36.0198,33.5526],[36.0352,33.5678],[36.0385,33.5863],[36.0129,33.608],[35.9216,33.6403],[35.9254,33.6617],[35.9472,33.6731],[35.9484,33.7092],[35.9742,33.7322],[35.994,33.7607],[36.0271,33.7843],[36.0504,33.8164],[36.1024,33.8323],[36.1383,33.8506],[36.1657,33.8298],[36.1866,33.8302],[36.2318,33.8525],[36.3006,33.8287],[36.3383,33.8212],[36.3575,33.8238],[36.3696,33.837],[36.3676,33.8575],[36.3504,33.8664],[36.3111,33.872],[36.2816,33.8911],[36.2672,33.9104],[36.3023,33.9644],[36.3911,34.0447],[36.4122,34.0536],[36.4451,34.0461]],[[36.3166,33.4607],[36.3201,33.473],[36.3431,33.4924],[36.3521,33.5144],[36.3511,33.5439],[36.335,33.5621],[36.3071,33.5641],[36.2515,33.5503],[36.2216,33.5495],[36.1832,33.5315],[36.1907,33.5132],[36.2065,33.5149],[36.2303,33.5052],[36.209,33.4865],[36.2143,33.4764],[36.2368,33.4891],[36.3166,33.4607]]]}},{"type":"Feature","properties":{"code":"SY-HA","name":"Hasaka (Al Haksa)","name_ko":"하사카","name_en":"Al-Hasakah","name_ja":"ハサカ県","name_zh":"哈塞克省","name_es":"Hasaka","name_fr":"Hassaké","name_de":"Gouvernement al-Hasaka","name_ru":"Эль-Хасака","name_pt":"Al-Hasakah","name_vi":"Al-Hasakah"},"geometry":{"type":"Polygon","coordinates":[[[42.2112,37.3249],[42.2226,37.314],[42.2232,37.2881],[42.2672,37.2745],[42.292,37.2851],[42.3058,37.2645],[42.3467,37.2398],[42.3532,37.227],[42.3353,37.1712],[42.3546,37.1524],[42.3572,37.11],[42.3769,37.0768],[42.3772,37.0622],[42.2816,36.994],[41.8173,36.5997],[41.7899,36.5893],[41.4149,36.5274],[41.3854,36.5164],[41.3654,36.4942],[41.277,36.3548],[41.2688,36.328],[41.2367,36.0603],[41.2662,35.9943],[41.3437,35.8577],[41.3593,35.7928],[41.3635,35.6552],[41.358,35.6239],[41.3422,35.5937],[41.3085,35.5522],[41.196,35.5653],[40.9995,35.5692],[40.8254,35.6041],[40.775,35.6263],[39.9007,36.3243],[39.8261,36.4244],[39.7999,36.4836],[39.7825,36.5008],[39.7202,36.5291],[39.6283,36.5599],[39.5676,36.5512],[39.5382,36.5571],[39.474,36.6195],[39.4417,36.6924],[39.7653,36.7422],[39.9798,36.807],[40.0792,36.8549],[40.1901,36.8844],[40.4139,37.004],[40.5257,37.0259],[40.6595,37.0853],[40.709,37.1005],[40.8964,37.1227],[41.1351,37.0842],[41.2013,37.065],[41.4798,37.0756],[42.0092,37.1756],[42.053,37.1966],[42.1283,37.2533],[42.1785,37.3063],[42.2112,37.3249]]]}},{"type":"Feature","properties":{"code":"SY-RA","name":"Ar Raqqah","name_ko":"락까","name_en":"Al-Raqqah","name_ja":"ラッカ県","name_zh":"拉卡省","name_es":"Ar-Raqqa","name_fr":"Racca","name_de":"Gouvernement ar-Raqqa","name_ru":"Ракка","name_pt":"Ar-Raqqah","name_vi":"Ar-Raqqah"},"geometry":{"type":"Polygon","coordinates":[[[39.1859,36.6595],[39.2396,36.6613],[39.4417,36.6924],[39.474,36.6195],[39.5382,36.5571],[39.5676,36.5512],[39.6235,36.5607],[39.7202,36.5291],[39.7825,36.5008],[39.7999,36.4836],[39.8045,36.4637],[39.6414,35.8643],[39.6308,35.7921],[39.675,35.7709],[39.242,35.2493],[38.6842,35.3723],[38.3903,35.3909],[38.3017,35.3823],[38.2747,35.4115],[38.2348,35.4359],[38.0279,35.6186],[38.0208,35.6382],[38.0264,35.6784],[38.0519,35.7691],[38.0888,35.8369],[38.1619,35.9141],[38.1802,35.9625],[38.1752,35.973],[38.1352,35.9999],[38.085,36.0543],[38.0638,36.0984],[38.0584,36.1267],[38.0621,36.1409],[38.1094,36.213],[38.1311,36.2346],[38.1534,36.2459],[38.2222,36.2687],[38.4252,36.292],[38.5068,36.3286],[38.5934,36.383],[38.6434,36.4491],[38.6695,36.5581],[38.671,36.6253],[38.6654,36.6381],[38.6496,36.6407],[38.6083,36.6149],[38.5915,36.6124],[38.5814,36.621],[38.5728,36.6469],[38.5766,36.6627],[38.631,36.6694],[38.6406,36.6755],[38.6488,36.6955],[38.6352,36.744],[38.6641,36.7195],[38.725,36.6939],[38.7954,36.6867],[39.0322,36.7012],[39.1859,36.6595]]]}},{"type":"Feature","properties":{"code":"SY-HL","name":"Aleppo","name_ko":"알레포","name_en":"Aleppo","name_ja":"アレッポ県","name_zh":"阿勒颇省","name_es":"Alepo","name_fr":"Alep","name_de":"Gouvernement Aleppo","name_ru":"Халеб","name_pt":"Alepo","name_vi":"Aleppo"},"geometry":{"type":"Polygon","coordinates":[[[38.2243,36.9084],[38.2899,36.9017],[38.48,36.8557],[38.5294,36.8337],[38.6352,36.744],[38.6482,36.6992],[38.6463,36.6846],[38.6359,36.6716],[38.5732,36.6611],[38.5847,36.6156],[38.6083,36.6149],[38.6537,36.6415],[38.6654,36.6381],[38.671,36.6253],[38.6695,36.5581],[38.6497,36.4663],[38.6314,36.4294],[38.5844,36.3748],[38.5068,36.3286],[38.4252,36.292],[38.2222,36.2687],[38.1534,36.2459],[38.1311,36.2346],[38.1094,36.213],[38.0621,36.1409],[38.0584,36.1267],[38.0638,36.0984],[38.085,36.0543],[38.1352,35.9999],[38.1752,35.973],[38.1802,35.9625],[38.1619,35.9141],[38.0888,35.8369],[38.0519,35.7691],[38.0264,35.6784],[38.0214,35.6331],[38.0427,35.6031],[38.2348,35.4359],[37.8085,35.4349],[37.7238,35.4452],[37.6621,35.4622],[37.5759,35.5113],[37.4116,35.5016],[37.3461,35.504],[37.3016,35.5271],[37.1747,35.5657],[37.1293,35.5916],[37.0922,35.6291],[37.0557,35.7137],[37.0962,35.7424],[37.1017,35.7563],[37.098,35.768],[37.0439,35.8048],[37.0009,35.8215],[36.9422,35.9055],[36.8887,35.9692],[36.8809,36.0307],[36.7726,36.0772],[36.7262,36.1265],[36.7386,36.1435],[36.8313,36.2148],[36.8432,36.2339],[36.839,36.2462],[36.7821,36.2968],[36.7663,36.3322],[36.7282,36.317],[36.6958,36.3172],[36.6488,36.3057],[36.6207,36.322],[36.5878,36.3248],[36.5776,36.3329],[36.5943,36.3571],[36.5934,36.3735],[36.5857,36.387],[36.5527,36.4082],[36.5338,36.4625],[36.5355,36.494],[36.5653,36.5325],[36.5693,36.6201],[36.5947,36.6858],[36.6033,36.747],[36.6433,36.8036],[36.6399,36.8281],[36.6586,36.8275],[36.8437,36.7758],[36.9259,36.769],[36.9647,36.7538],[37.0106,36.7195],[37.0184,36.7066],[37.0195,36.6858],[37.0108,36.6537],[37.0145,36.6423],[37.0531,36.6199],[37.1044,36.651],[37.1561,36.6439],[37.2419,36.6586],[37.4045,36.6345],[37.4461,36.6342],[37.5934,36.7105],[37.6541,36.7321],[37.8197,36.7605],[38.0079,36.8258],[38.123,36.8846],[38.1901,36.9055],[38.2243,36.9084]]]}},{"type":"Feature","properties":{"code":"SY-ID","name":"Idlib","name_ko":"이들리브","name_en":"Idlib","name_ja":"イドリブ県","name_zh":"伊德利卜省","name_es":"Idlib","name_fr":"Idleb","name_de":"Gouvernement Idlib","name_ru":"Идлиб","name_pt":"Idlib","name_vi":"Idlib"},"geometry":{"type":"Polygon","coordinates":[[[36.5935,36.2181],[36.6643,36.229],[36.67,36.2373],[36.6655,36.274],[36.6488,36.3057],[36.6958,36.3172],[36.7282,36.317],[36.7611,36.3327],[36.7715,36.3272],[36.7821,36.2968],[36.839,36.2462],[36.8432,36.2339],[36.8313,36.2148],[36.7386,36.1435],[36.7262,36.1265],[36.7726,36.0772],[36.8809,36.0307],[36.8887,35.9692],[36.9422,35.9055],[36.993,35.8311],[37.0072,35.8156],[37.0439,35.8048],[37.101,35.7639],[37.0962,35.7424],[37.0557,35.7137],[37.0922,35.6291],[37.1293,35.5916],[37.1747,35.5657],[37.2164,35.5515],[37.1948,35.5398],[37.1503,35.4718],[37.1039,35.4495],[37.0769,35.4011],[37.0778,35.3897],[37.0928,35.3834],[37.105,35.3863],[37.1242,35.4082],[37.1383,35.4041],[37.1405,35.346],[37.1166,35.3465],[37.0832,35.3191],[37.0125,35.3209],[37.0021,35.3633],[37.0142,35.3917],[37.0142,35.4076],[37.0083,35.4204],[36.9976,35.4259],[36.9405,35.3661],[36.904,35.3584],[36.8289,35.417],[36.6994,35.3901],[36.6479,35.3916],[36.5811,35.4067],[36.5371,35.4082],[36.5147,35.4349],[36.4871,35.446],[36.4477,35.4316],[36.4261,35.4366],[36.3929,35.5001],[36.3997,35.5152],[36.3914,35.5827],[36.4075,35.6545],[36.4123,35.7112],[36.3479,35.7195],[36.3392,35.7376],[36.3259,35.7471],[36.2854,35.739],[36.2658,35.7441],[36.2548,35.7559],[36.2875,35.7779],[36.2871,35.7897],[36.2795,35.7957],[36.1764,35.7887],[36.1508,35.7947],[36.1688,35.8521],[36.1749,35.9227],[36.1969,35.9517],[36.229,35.9612],[36.2531,35.9556],[36.269,35.9587],[36.2775,35.9942],[36.2974,36.0007],[36.3367,35.9882],[36.358,35.994],[36.3586,36.167],[36.3605,36.1817],[36.3758,36.2045],[36.3614,36.2182],[36.373,36.2276],[36.3981,36.2082],[36.4452,36.1999],[36.4592,36.2031],[36.4689,36.2224],[36.4986,36.2279],[36.5935,36.2181]]]}},{"type":"Feature","properties":{"code":"SY-LA","name":"Lattakia","name_ko":"라타키아","name_en":"Latakia","name_ja":"ラタキア県","name_zh":"拉塔基亚省","name_es":"Latakia","name_fr":"de Lattaquié","name_de":"Gouvernement Latakia","name_ru":"Латакия","name_pt":"Latakia","name_vi":"Latakia"},"geometry":{"type":"Polygon","coordinates":[[[36.1385,35.8198],[36.1553,35.8222],[36.1498,35.798],[36.162,35.7898],[36.2747,35.7969],[36.2885,35.7859],[36.2799,35.7698],[36.2386,35.7444],[36.2307,35.704],[36.2028,35.6825],[36.1994,35.6731],[36.219,35.6445],[36.2244,35.602],[36.2205,35.5354],[36.2013,35.4252],[36.2247,35.3635],[36.2504,35.2624],[36.253,35.2234],[36.2011,35.2401],[36.176,35.2292],[36.0256,35.2195],[35.9743,35.2496],[35.9312,35.2615],[35.9153,35.2879],[35.929,35.3215],[35.919,35.4177],[35.8606,35.4791],[35.8301,35.4935],[35.8184,35.5089],[35.7813,35.4996],[35.7705,35.5042],[35.7781,35.5412],[35.7371,35.5617],[35.7433,35.5821],[35.7234,35.5759],[35.7234,35.5821],[35.7634,35.5983],[35.7785,35.6127],[35.7844,35.6306],[35.7712,35.6678],[35.7766,35.6751],[35.8001,35.6815],[35.8403,35.7475],[35.8359,35.79],[35.7986,35.8497],[35.8709,35.8518],[35.8853,35.886],[35.9113,35.9178],[35.9803,35.9269],[35.9928,35.9153],[35.9924,35.8773],[36.0039,35.8692],[36.0508,35.8654],[36.1385,35.8198]]]}},{"type":"Feature","properties":{"code":"SY-SU","name":"As Suwayda'","name_ko":"수와이다","name_en":"As-Suwayda","name_ja":"スワイダー県","name_zh":"苏韦达省","name_es":"Sueida","name_fr":"Suweyda","name_de":"Gouvernement as-Suwaida","name_ru":"Эс-Сувейда","name_pt":"As-Suwayda","name_vi":"As-Suwayda"},"geometry":{"type":"Polygon","coordinates":[[[37.4946,32.6901],[36.8194,32.3168],[36.7925,32.3135],[36.7069,32.3283],[36.6896,32.3197],[36.6535,32.3429],[36.5167,32.357],[36.5181,32.4426],[36.5273,32.4787],[36.495,32.5196],[36.5066,32.5506],[36.495,32.5662],[36.4763,32.5646],[36.4581,32.5765],[36.4022,32.5767],[36.4064,32.6025],[36.4002,32.6266],[36.4436,32.6498],[36.4506,32.6668],[36.4194,32.6864],[36.3628,32.6971],[36.3558,32.7074],[36.355,32.7267],[36.3681,32.7401],[36.3603,32.807],[36.3636,32.8294],[36.337,32.8932],[36.3471,32.9243],[36.3412,32.9439],[36.4267,33.0001],[36.5437,33.0022],[36.5334,33.054],[36.5259,33.0593],[36.4913,33.0569],[36.4726,33.1164],[36.4742,33.1612],[36.5048,33.1864],[36.5434,33.1842],[36.5709,33.194],[36.8238,33.2247],[36.8995,33.1738],[36.9084,33.1489],[36.9494,33.1118],[36.9607,33.0781],[36.9846,33.0637],[37.0778,33.0472],[37.1044,33.0305],[37.1066,33.0094],[37.1326,32.9748],[37.1835,32.9499],[37.1964,32.9449],[37.2127,32.9517],[37.2572,32.9463],[37.2717,32.928],[37.2839,32.8626],[37.4198,32.7471],[37.4685,32.717],[37.4946,32.6901]]]}},{"type":"Feature","properties":{"code":"SY-DR","name":"Dar`a","name_ko":"다라","name_en":"Daraa","name_ja":"ダルアー県","name_zh":"德拉省","name_es":"Dar'a","name_fr":"de Deraa","name_de":"Gouvernement Dar'a","name_ru":"Даръа","name_pt":"Dara","name_vi":"Daraa"},"geometry":{"type":"Polygon","coordinates":[[[35.9275,32.6924],[35.8957,32.7133],[35.7882,32.7344],[35.7697,32.7481],[35.7911,32.7741],[35.8154,32.7865],[35.854,32.8451],[35.9418,32.9128],[35.9342,32.9585],[35.9671,32.9638],[35.9781,32.9502],[35.9873,32.9507],[35.9775,32.9814],[35.9471,33.0246],[35.9598,33.0948],[35.98,33.1261],[35.9707,33.1439],[35.953,33.1562],[35.9617,33.2048],[35.9861,33.1957],[35.9997,33.1792],[36.0254,33.1776],[36.0635,33.1972],[36.147,33.2038],[36.2134,33.2263],[36.2258,33.2502],[36.2241,33.2766],[36.2349,33.2909],[36.2734,33.2591],[36.2802,33.2397],[36.311,33.2333],[36.3425,33.2059],[36.3816,33.1982],[36.394,33.2247],[36.4241,33.2478],[36.5032,33.2945],[36.5144,33.2922],[36.5292,33.2639],[36.5662,33.2262],[36.5709,33.194],[36.5434,33.1842],[36.5048,33.1864],[36.482,33.1708],[36.4711,33.152],[36.4726,33.1164],[36.4913,33.0569],[36.5324,33.0555],[36.5448,33.0038],[36.4374,33.0025],[36.4193,32.997],[36.3432,32.9468],[36.3471,32.9243],[36.3363,32.8992],[36.3636,32.8294],[36.3603,32.807],[36.3681,32.7401],[36.355,32.7267],[36.3558,32.7074],[36.3628,32.6971],[36.4194,32.6864],[36.4506,32.6668],[36.4436,32.6498],[36.4002,32.6266],[36.4064,32.6025],[36.4007,32.5785],[36.4581,32.5765],[36.4763,32.5646],[36.495,32.5662],[36.5066,32.5506],[36.495,32.5196],[36.5273,32.4787],[36.5181,32.4426],[36.5167,32.357],[36.4802,32.3608],[36.464,32.3694],[36.4076,32.3742],[36.3731,32.3864],[36.2853,32.4569],[36.1774,32.5273],[36.1559,32.5152],[36.1332,32.5201],[36.0663,32.5173],[36.0605,32.5333],[36.006,32.6079],[36.0083,32.6437],[36.0036,32.6551],[35.9554,32.6574],[35.9375,32.674],[35.9444,32.6776],[35.9442,32.6908],[35.9275,32.6924]]]}},{"type":"Feature","properties":{"code":"SY-DY","name":"Dayr Az Zawr","name_ko":"데이르에조르","name_en":"Deir ez-Zor","name_ja":"デリゾール県","name_zh":"代尔祖尔省","name_es":"Deir ez-Zor","name_fr":"Deir ez-Zor","name_de":"Gouvernement Deir ez-Zor","name_ru":"Дейр-эз-Зор","name_pt":"Deir ez-Zor","name_vi":"Deir ez-Zor"},"geometry":{"type":"Polygon","coordinates":[[[41.3085,35.5522],[41.2611,35.4942],[41.2519,35.4641],[41.2431,35.3665],[41.2013,35.243],[41.1915,35.1821],[41.2042,34.7931],[41.1957,34.7685],[40.988,34.4285],[40.9653,34.4019],[40.936,34.3861],[40.6905,34.3315],[40.1731,34.0723],[39.4445,34.9364],[39.4352,34.9622],[39.4411,35.0293],[39.3744,35.1492],[39.3427,35.182],[39.242,35.2493],[39.675,35.7709],[39.6308,35.7921],[39.6414,35.8643],[39.8045,36.4637],[39.8261,36.4244],[39.9007,36.3243],[40.775,35.6263],[40.8254,35.6041],[40.9995,35.5692],[41.196,35.5653],[41.3085,35.5522]]]}},{"type":"Feature","properties":{"code":"SY-QU","name":"Quneitra","name_ko":"쿠네이트라","name_en":"Quneitra","name_ja":"クネイトラ県","name_zh":"库奈特拉省","name_es":"Quneitra","name_fr":"Qouneitra","name_de":"Gouvernement al-Quneitra","name_ru":"Эль-Кунейтра","name_pt":"Quneitra","name_vi":"Quneitra"},"geometry":{"type":"Polygon","coordinates":[[[35.8468,32.8358],[35.8607,32.8802],[35.8903,32.9286],[35.9122,32.9473],[35.9238,32.9677],[35.8771,32.9926],[35.8646,33.0815],[35.8684,33.1073],[35.9027,33.1096],[35.9027,33.1166],[35.8919,33.1244],[35.9106,33.1354],[35.9113,33.1658],[35.9004,33.1798],[35.8849,33.1791],[35.8825,33.1892],[35.8888,33.1986],[35.8662,33.226],[35.8513,33.2758],[35.8202,33.2806],[35.8404,33.2954],[35.843,33.3228],[35.8953,33.2987],[35.8796,33.2687],[35.89,33.2406],[35.907,33.257],[35.9634,33.2479],[35.953,33.1562],[35.9707,33.1439],[35.98,33.1261],[35.9598,33.0948],[35.9471,33.0246],[35.9775,32.9814],[35.9873,32.9507],[35.9781,32.9502],[35.9671,32.9638],[35.9342,32.9585],[35.9418,32.9128],[35.8468,32.8358]]]}},{"type":"Feature","properties":{"code":"SY-HM","name":"Hamah","name_ko":"하마","name_en":"Hama","name_ja":"ハマー県","name_zh":"哈马省","name_es":"Hama","name_fr":"Hama","name_de":"Gouvernement Hama","name_ru":"Хама","name_pt":"Hama","name_vi":"Hama"},"geometry":{"type":"Polygon","coordinates":[[[37.2164,35.5515],[37.3016,35.5271],[37.3534,35.5022],[37.5759,35.5113],[37.679,35.456],[37.8085,35.4349],[38.2348,35.4359],[38.2747,35.4115],[38.3017,35.3823],[38.2953,35.2372],[38.2421,35.1545],[38.2398,35.0914],[38.1008,35.0379],[38.057,35.0066],[38.0309,34.9597],[38.03,34.9389],[38.0211,34.9208],[37.9887,34.8983],[37.9261,34.9612],[37.852,35.0125],[37.8404,35.0594],[37.8189,35.0872],[37.7786,35.094],[37.7407,35.1186],[37.575,35.0853],[37.5109,35.0517],[37.4973,35.0218],[37.5039,34.9742],[37.4973,34.9635],[37.4758,34.9668],[37.4561,34.9869],[37.4074,34.9866],[37.3767,34.975],[37.3463,34.9846],[37.3303,34.965],[37.2924,34.9644],[37.2672,34.9196],[37.2544,34.9095],[37.2234,34.9166],[37.2068,34.9395],[37.188,34.9447],[37.1592,34.9298],[37.1447,34.9143],[37.1069,34.9277],[37.0893,34.9121],[37.0558,34.9062],[36.9995,34.8696],[36.9728,34.8609],[36.9166,34.9583],[36.884,34.9772],[36.822,34.9642],[36.7987,34.9507],[36.7377,34.9484],[36.6493,34.9126],[36.6004,34.9141],[36.5597,34.9018],[36.5402,34.9066],[36.5329,34.9213],[36.515,34.9264],[36.5229,34.9438],[36.52,34.9503],[36.495,34.9525],[36.4502,34.9082],[36.4508,34.8938],[36.4395,34.8656],[36.4278,34.8535],[36.3887,34.8572],[36.3789,34.8687],[36.3676,34.8703],[36.3404,34.8498],[36.3094,34.8749],[36.3198,34.8919],[36.3046,34.9127],[36.2751,34.9308],[36.2601,34.9663],[36.144,34.9753],[36.1368,35.0022],[36.1749,35.007],[36.2332,35.0254],[36.2539,35.0422],[36.2652,35.0711],[36.2504,35.2624],[36.2247,35.3635],[36.2013,35.4252],[36.2205,35.5354],[36.2244,35.602],[36.219,35.6445],[36.1999,35.6773],[36.2281,35.6996],[36.2345,35.7356],[36.2548,35.7559],[36.2776,35.7398],[36.3259,35.7471],[36.3392,35.7376],[36.3479,35.7195],[36.4123,35.7112],[36.4075,35.6545],[36.3914,35.5827],[36.3997,35.5152],[36.3929,35.5001],[36.4261,35.4366],[36.4477,35.4316],[36.4871,35.446],[36.5147,35.4349],[36.5371,35.4082],[36.5811,35.4067],[36.6479,35.3916],[36.6994,35.3901],[36.8289,35.417],[36.904,35.3584],[36.9405,35.3661],[36.9976,35.4259],[37.0083,35.4204],[37.0142,35.4076],[37.0142,35.3917],[37.0023,35.3673],[37.0096,35.3232],[37.0251,35.3168],[37.0832,35.3191],[37.1166,35.3465],[37.1421,35.3489],[37.1427,35.3905],[37.1355,35.4065],[37.1211,35.4063],[37.1014,35.3847],[37.0778,35.3897],[37.0795,35.408],[37.0988,35.4423],[37.1097,35.4544],[37.1503,35.4718],[37.1948,35.5398],[37.2164,35.5515]]]}},{"type":"Feature","properties":{"code":"SY-DI","name":"Damascus","name_ko":"다마스쿠스","name_en":"Damascus","name_ja":"ダマスカス県","name_zh":"大馬士革省","name_es":"Damasco","name_fr":"Damas","name_de":"Gouvernement Damaskus","name_ru":"Дамаск","name_pt":"Damasco","name_vi":"Damascus"},"geometry":{"type":"Polygon","coordinates":[[[36.3071,33.5641],[36.335,33.5621],[36.3511,33.5439],[36.3521,33.5144],[36.3431,33.4924],[36.3201,33.473],[36.3166,33.4607],[36.2368,33.4891],[36.2143,33.4764],[36.209,33.4865],[36.2303,33.5052],[36.2065,33.5149],[36.1907,33.5132],[36.1832,33.5315],[36.2216,33.5495],[36.2515,33.5503],[36.3071,33.5641]]]}}]}