{"type":"FeatureCollection","features":[{"type":"Feature","properties":{"code":"TC-X03~","name":"Providenciales and West Caicos","name_ko":"프로비덴시알레스 앤 웨스트 케이커스","name_en":"Providenciales and West Caicos","name_ja":"プロビデンシアレスと西海岸","name_zh":"普罗维登夏莱斯和西凯科斯群岛","name_es":"Providenciales y Caicos del Oeste","name_fr":"Providence et Caïcos de l'Ouest","name_de":"Providenciales und West Caicos","name_ru":"Провиденсьялес и Западный Кайкос","name_pt":"Providenciais e Caicos do Oeste","name_vi":"Đảo Providenciales và đảo West Caicos"},"geometry":{"type":"MultiPolygon","coordinates":[[[[-72.4608,21.7054],[-72.4334,21.7092],[-72.4333,21.6801],[-72.452,21.645],[-72.4813,21.6303],[-72.4634,21.6649],[-72.4608,21.7054]]],[[[-72.3372,21.801],[-72.3402,21.814],[-72.3297,21.8454],[-72.3304,21.8625],[-72.3079,21.8522],[-72.245,21.7979],[-72.2318,21.7934],[-72.1796,21.801],[-72.1571,21.8245],[-72.1463,21.8271],[-72.1244,21.8153],[-72.1244,21.8078],[-72.1591,21.7743],[-72.1653,21.7948],[-72.1933,21.7812],[-72.1796,21.7743],[-72.1944,21.7669],[-72.2342,21.7668],[-72.2342,21.7812],[-72.2738,21.7514],[-72.2919,21.7489],[-72.3031,21.7743],[-72.2812,21.7615],[-72.2742,21.7636],[-72.2751,21.7743],[-72.3162,21.7948],[-72.3154,21.7708],[-72.3372,21.76],[-72.3395,21.7667],[-72.3372,21.7812],[-72.3304,21.7743],[-72.3099,21.8221],[-72.3372,21.801]]],[[[-72.1249,21.8546],[-72.1163,21.8537],[-72.133,21.8476],[-72.1249,21.8546]]],[[[-72.0948,21.8825],[-72.0895,21.8854],[-72.0871,21.8727],[-72.0997,21.8646],[-72.0948,21.8825]]]]}},{"type":"Feature","properties":{"code":"TC-X04~","name":"South Caicos and East Caicos","name_ko":"사우스 케이커스 앤 이스트 케이커스","name_en":"South Caicos and East Caicos","name_ja":"サウス・ケイコス・アンド・イースト・ケイコス","name_zh":"南凯科斯和东凯科斯","name_es":"Caicos del Sur y Caicos del Este","name_fr":"Caïcos du Sud et Caïcos de l'Est","name_de":"South Caicos und East Caicos","name_ru":"Восточный Кайкос и Южный Кайкос","name_pt":"Caicos do Sul e Caicos do Leste","name_vi":"Đảo South Caicos và East Caicos"},"geometry":{"type":"MultiPolygon","coordinates":[[[[-71.508,21.7054],[-71.5732,21.7353],[-71.5906,21.7538],[-71.5763,21.7668],[-71.5431,21.7465],[-71.4809,21.7255],[-71.4618,21.7108],[-71.4519,21.6902],[-71.4596,21.6645],[-71.4713,21.6622],[-71.508,21.7054]]],[[[-71.6878,21.2998],[-71.6741,21.3065],[-71.6786,21.2989],[-71.6991,21.2919],[-71.6878,21.2998]]],[[[-71.6343,21.3188],[-71.6288,21.3244],[-71.6347,21.2945],[-71.6409,21.303],[-71.6343,21.3188]]],[[[-71.4983,21.5694],[-71.4963,21.5074],[-71.5043,21.494],[-71.521,21.4893],[-71.5376,21.4995],[-71.5397,21.5165],[-71.5089,21.5278],[-71.5088,21.5517],[-71.4983,21.5694]]]]}},{"type":"Feature","properties":{"code":"TC-X01~","name":"Middle Caicos","name_ko":"미들 카이코스","name_en":"Middle Caicos","name_ja":"ミドルカイコス","name_zh":"中凯科斯岛","name_es":"Caicos Central","name_fr":"Caïcos Centrale","name_de":"Middle Caicos","name_ru":"Мидл-Каикос","name_pt":"Caicos Central","name_vi":"Đảo Middle Caicos"},"geometry":{"type":"Polygon","coordinates":[[[-71.8028,21.7879],[-71.8277,21.7858],[-71.8355,21.7915],[-71.848,21.8194],[-71.8507,21.8563],[-71.8094,21.84],[-71.7817,21.8432],[-71.7203,21.8358],[-71.6788,21.8419],[-71.6552,21.8232],[-71.6309,21.7743],[-71.6481,21.7796],[-71.6793,21.8221],[-71.6452,21.7464],[-71.6586,21.7439],[-71.6685,21.7504],[-71.6861,21.7743],[-71.6936,21.76],[-71.6998,21.76],[-71.7154,21.7873],[-71.7411,21.7949],[-71.8028,21.7879]]]}},{"type":"Feature","properties":{"code":"TC-X02~","name":"North Caicos","name_ko":"노스 케이커스","name_en":"North Caicos","name_ja":"ノース・カイコス","name_zh":"北凯科斯岛","name_es":"Caicos del Norte","name_fr":"Caïcos du Nord","name_de":"North Caicos","name_ru":"Северный Кайкос","name_pt":"Caicos do Norte","name_vi":"Đảo North Caicos"},"geometry":{"type":"Polygon","coordinates":[[[-72.022,21.9046],[-72.025,21.9326],[-72.0362,21.9388],[-72.0174,21.9569],[-71.9499,21.9592],[-71.911,21.9484],[-71.9034,21.8665],[-71.8886,21.8462],[-71.8574,21.8432],[-71.8773,21.8283],[-71.8946,21.8322],[-71.9543,21.8669],[-71.9605,21.8767],[-71.9592,21.8898],[-71.94,21.9251],[-71.9476,21.9425],[-71.964,21.9334],[-71.9919,21.8999],[-72.022,21.9046]]]}},{"type":"Feature","properties":{"code":"TC-X05~","name":"Grand Turk","name_ko":"그랜드 터크","name_en":"Grand Turk","name_ja":"グランド・ターク","name_zh":"大特克岛","name_es":"Gran Turca","name_fr":"Grand Turk","name_de":"Grand Turk Island","name_ru":"Гранд-Терк","name_pt":"Grande Turca","name_vi":"Đảo Grand Turk"},"geometry":{"type":"Polygon","coordinates":[[[-71.1381,21.5136],[-71.1304,21.4981],[-71.1289,21.4722],[-71.1336,21.4465],[-71.1449,21.4316],[-71.151,21.4728],[-71.1381,21.5136]]]}},{"type":"Feature","properties":{"code":"TC-X06~","name":"Salt Cay","name_ko":"솔트 케이","name_en":"Salt Cay","name_ja":"ソルト・ケイ","name_zh":"索尔特岛","name_es":"Cayo Sal","name_fr":"Salt Cay","name_de":"Salt Cay","name_ru":"Солт-Кей","name_pt":"Salt Cay","name_vi":"Salt Cay"},"geometry":{"type":"Polygon","coordinates":[[[-71.2098,21.3414],[-71.1925,21.335],[-71.2137,21.3106],[-71.2192,21.3144],[-71.2098,21.3414]]]}}]}