{"type":"FeatureCollection","features":[{"type":"Feature","properties":{"id":"TTO-61","code":"TT-TUP","name":"Tunapuna/Piarco","name_ko":"투나푸나피아르코 지역","name_en":"Tunapuna-Piarco Regional Corporation","name_ja":"マコヤ","name_zh":"麦高耶","name_es":"Tunapuna-Piarco","name_fr":"Tunapuna-Piarco","name_de":"Tunapuna-Piarco","name_ru":"Тунапуна-Пиарко","name_pt":"Tunapuna Piarco","name_vi":"Khu liên kết chung Tunapuna-Piarco"},"geometry":{"type":"Polygon","coordinates":[[[-61.3526,10.8041],[-61.1801,10.7976],[-61.1716,10.8039],[-61.158,10.787],[-61.1572,10.7692],[-61.2002,10.7327],[-61.2395,10.7232],[-61.2143,10.7127],[-61.218,10.6715],[-61.2013,10.6321],[-61.2029,10.6176],[-61.2134,10.6035],[-61.2678,10.5825],[-61.3646,10.5734],[-61.369,10.5655],[-61.4098,10.5663],[-61.4217,10.6426],[-61.4265,10.7288],[-61.4123,10.7413],[-61.3412,10.7375],[-61.3337,10.7562],[-61.3526,10.8041]],[[-61.2745,10.6074],[-61.2668,10.6097],[-61.2655,10.6197],[-61.2713,10.6406],[-61.2854,10.654],[-61.2887,10.6233],[-61.2956,10.6139],[-61.2745,10.6074]]]}},{"type":"Feature","properties":{"id":"TTO-56","code":"TT-SJL","name":"San Juan-Laventille","name_ko":"산후안라벤틸 지역","name_en":"San Juan–Laventille","name_ja":"サン・ファン＝ラヴェンティル地域自治体","name_zh":"圣胡安-拉文蒂尔区","name_es":"San Juan-Laventille","name_fr":"San Juan-Laventille","name_de":"San Juan-Laventille","name_ru":"Сан-Хуан-Лавентиль","name_pt":"San Juan-Laventille","name_vi":"Khu liên kết chung San Juan-Laventille"},"geometry":{"type":"Polygon","coordinates":[[[-61.4901,10.7546],[-61.4732,10.7602],[-61.4604,10.7744],[-61.4553,10.762],[-61.4479,10.762],[-61.4479,10.7757],[-61.4417,10.7757],[-61.4342,10.762],[-61.4417,10.7546],[-61.4212,10.7683],[-61.4001,10.7683],[-61.3666,10.803],[-61.3526,10.8041],[-61.3337,10.7562],[-61.3349,10.745],[-61.3472,10.7357],[-61.4209,10.7388],[-61.4285,10.7114],[-61.4098,10.5663],[-61.441,10.565],[-61.4606,10.5381],[-61.4723,10.5949],[-61.4962,10.6249],[-61.4889,10.631],[-61.4957,10.6356],[-61.4916,10.6566],[-61.4972,10.6684],[-61.5114,10.6758],[-61.4937,10.7065],[-61.4901,10.7546]]]}},{"type":"Feature","properties":{"id":"TTO-51","code":"TT-DMN","name":"Diego Martin","name_ko":"디에고마틴 지역","name_en":"Diego Martin Regional Corporation","name_ja":"ディエゴ・マーティン地域自治体","name_zh":"迭戈马丁地区","name_es":"Diego Martin","name_fr":"Diego Martin","name_de":"Diego Martin","name_ru":"Диего-Мартин","name_pt":"Diego Martin","name_vi":"Khu liên kết chung Diego Martin"},"geometry":{"type":"Polygon","coordinates":[[[-61.5491,10.6671],[-61.5776,10.6799],[-61.6564,10.6898],[-61.6676,10.7068],[-61.6021,10.7477],[-61.5611,10.7443],[-61.4901,10.7546],[-61.4937,10.7065],[-61.5114,10.6758],[-61.5344,10.6774],[-61.5491,10.6671]]]}},{"type":"Feature","properties":{"id":"TTO-64","code":"TT-POS","name":"Port of Spain","name_ko":"포트오브스페인","name_en":"Port of Spain","name_ja":"ポートオブスペイン","name_zh":"西班牙港","name_es":"Puerto España","name_fr":"Port-d'Espagne","name_de":"Port of Spain","name_ru":"Порт-оф-Спейн","name_pt":"Port of Spain","name_vi":"Port of Spain"},"geometry":{"type":"Polygon","coordinates":[[[-61.4957,10.6356],[-61.5491,10.6671],[-61.5261,10.678],[-61.4972,10.6684],[-61.4916,10.6566],[-61.4957,10.6356]]]}},{"type":"Feature","properties":{"id":"TTO-63","code":"TT-CHA","name":"Chaguanas","name_ko":"차과나스","name_en":"Chaguanas","name_ja":"チャグアナス","name_zh":"查瓜纳斯","name_es":"Chaguanas","name_fr":"Chaguanas","name_de":"Chaguanas","name_ru":"Чагуанас","name_pt":"Chaguanas","name_vi":"Chaguanas"},"geometry":{"type":"Polygon","coordinates":[[[-61.4623,10.5226],[-61.4622,10.5381],[-61.441,10.565],[-61.369,10.5655],[-61.3645,10.5443],[-61.3725,10.5112],[-61.3795,10.5049],[-61.4051,10.5031],[-61.4623,10.5226]]]}},{"type":"Feature","properties":{"id":"TTO-58","code":"TT-CTT","name":"Couva-Tabaquite-Talparo","name_ko":"쿠바타바키테탈파로 지역","name_en":"Couva-Tabaquite-Talparo","name_ja":"クーバ＝タバキテ＝タルパロ地域自治体","name_zh":"库瓦-塔瓦基特-塔尔帕罗地区","name_es":"Couva-Tabaquite-Talparo","name_fr":"Couva-Tabaquite-Talparo","name_de":"Couva-Tabaquite-Talparo","name_ru":"Кува-Табаките-Тальпаро","name_pt":"Couva Tabaquite Talparo","name_vi":"Khu liên kết chung Couva-Tabaquite-Talparo"},"geometry":{"type":"Polygon","coordinates":[[[-61.4596,10.3097],[-61.4708,10.3594],[-61.4827,10.371],[-61.4752,10.3815],[-61.4879,10.4301],[-61.469,10.4809],[-61.4623,10.5226],[-61.4051,10.5031],[-61.3795,10.5049],[-61.3725,10.5112],[-61.3645,10.5443],[-61.369,10.5655],[-61.3646,10.5734],[-61.3374,10.572],[-61.2392,10.5914],[-61.224,10.5715],[-61.2211,10.5293],[-61.2102,10.5132],[-61.218,10.4662],[-61.1971,10.4564],[-61.2105,10.4321],[-61.2292,10.3277],[-61.2436,10.3071],[-61.2813,10.3269],[-61.3115,10.3331],[-61.3736,10.3262],[-61.4078,10.3121],[-61.4596,10.3097]]]}},{"type":"Feature","properties":{"id":"TTO-62","code":"TT-SFO","name":"San Fernando","name_ko":"샌퍼넌도","name_en":"San Fernando","name_ja":"サンフェルナンド","name_zh":"圣费尔南多","name_es":"San Fernando","name_fr":"San Fernando","name_de":"San Fernando","name_ru":"Сан-Фернандо","name_pt":"San Fernando","name_vi":"San Fernando"},"geometry":{"type":"Polygon","coordinates":[[[-61.4899,10.2493],[-61.4621,10.2822],[-61.4596,10.3097],[-61.4278,10.31],[-61.4415,10.2591],[-61.4899,10.2493]]]}},{"type":"Feature","properties":{"id":"TTO-59","code":"TT-PED","name":"Penal-Debe","name_ko":"페날데베 지역","name_en":"Penal-Debe Regional Corporation","name_ja":"ペナル＝デベ地域自治体","name_zh":"皮纳尔-德贝郡","name_es":"Penal-Debe","name_fr":"Penal-Debe","name_de":"Penal-Debe","name_ru":"Пенал-Деб","name_pt":"de Penal Debe","name_vi":"Khu liên kết chung Penal-Debe"},"geometry":{"type":"Polygon","coordinates":[[[-61.5208,10.2402],[-61.4415,10.2591],[-61.3807,10.2277],[-61.3728,10.2174],[-61.3791,10.0728],[-61.4175,10.0762],[-61.5041,10.0695],[-61.4992,10.1067],[-61.4733,10.1502],[-61.4688,10.1857],[-61.4767,10.2021],[-61.5208,10.2402]]]}},{"type":"Feature","properties":{"id":"TTO-52","code":"TT-SIP","name":"Siparia","name_ko":"시파리아 지역","name_en":"Siparia Regional Corporation","name_ja":"シパリア地域自治体","name_zh":"锡帕里亚郡","name_es":"Siparia","name_fr":"Siparia","name_de":"Siparia","name_ru":"Сипария","name_pt":"Siparia","name_vi":"Khu liên kết chung Siparia"},"geometry":{"type":"Polygon","coordinates":[[[-61.6393,10.2101],[-61.6396,10.2407],[-61.6118,10.2475],[-61.5601,10.2387],[-61.5208,10.2402],[-61.4767,10.2021],[-61.4688,10.1857],[-61.4692,10.1685],[-61.478,10.1406],[-61.4956,10.1176],[-61.5041,10.0695],[-61.5441,10.0762],[-61.6229,10.0557],[-61.6862,10.0816],[-61.7933,10.0841],[-61.817,10.0814],[-61.8898,10.0423],[-61.9072,10.0421],[-61.9287,10.0565],[-61.9189,10.07],[-61.8819,10.0905],[-61.8385,10.0998],[-61.8215,10.1212],[-61.7892,10.1409],[-61.7074,10.1659],[-61.692,10.1424],[-61.6711,10.147],[-61.6498,10.1647],[-61.6307,10.1922],[-61.6393,10.2101]]]}},{"type":"Feature","properties":{"id":"TTO-60","code":"TT-PTF","name":"Point Fortin","name_ko":"포인트포르틴","name_en":"Point Fortin","name_ja":"ポイント・フォーティン","name_zh":"波因特福廷","name_es":"Point Fortin","name_fr":"Point Fortin","name_de":"Point Fortin","name_ru":"Пойнт-Фортин","name_pt":"Point Fortin","name_vi":"Point Fortin"},"geometry":{"type":"Polygon","coordinates":[[[-61.7074,10.1659],[-61.6691,10.184],[-61.6393,10.2101],[-61.6296,10.1976],[-61.6498,10.1647],[-61.6711,10.147],[-61.692,10.1424],[-61.7074,10.1659]]]}},{"type":"Feature","properties":{"id":"TTO-57","code":"TT-PRT","name":"Princes Town","name_ko":"프린세스타운 지역","name_en":"Princes Town","name_ja":"プリンセス・タウン地域自治体","name_zh":"王子镇地区","name_es":"Princes Town","name_fr":"Princes Town","name_de":"Princes Town","name_ru":"Принсес-Таун","name_pt":"Corporação Regional Princes Town","name_vi":"Khu liên kết chung Princes Town"},"geometry":{"type":"Polygon","coordinates":[[[-61.1777,10.0752],[-61.253,10.0836],[-61.3387,10.0693],[-61.3791,10.0728],[-61.3728,10.2174],[-61.3916,10.2377],[-61.4415,10.2591],[-61.4278,10.31],[-61.3736,10.3262],[-61.3115,10.3331],[-61.2813,10.3269],[-61.2436,10.3071],[-61.2364,10.2847],[-61.2085,10.2587],[-61.192,10.2301],[-61.1777,10.0752]]]}},{"type":"Feature","properties":{"id":"TTO-55","code":"TT-RCM","name":"Rio Claro-Mayaro","name_ko":"리오클라로마야로 지역","name_en":"Mayaro-Rio Claro","name_ja":"リオ・クラロー＝マヤロ","name_zh":"马亚罗-里奥克拉罗区","name_es":"Río Claro-Mayaro","name_fr":"Rio Claro-Mayaro","name_de":"Mayaro-Rio Claro","name_ru":"Рио Кларо-Майяро","name_pt":"de Rio Claro Mayaro","name_vi":"Khu liên kết chung Rio Claro-Mayaro"},"geometry":{"type":"Polygon","coordinates":[[[-61.0384,10.4637],[-61.0281,10.4085],[-61.0163,10.3821],[-60.9984,10.3559],[-60.9613,10.33],[-60.9902,10.2993],[-61.0028,10.2475],[-61.0033,10.1891],[-60.996,10.1383],[-61.0175,10.1429],[-61.0416,10.1356],[-61.0997,10.0952],[-61.1777,10.0752],[-61.192,10.2301],[-61.2085,10.2587],[-61.2364,10.2847],[-61.2436,10.3071],[-61.2292,10.3277],[-61.2211,10.355],[-61.2105,10.4321],[-61.1971,10.4564],[-61.0953,10.4695],[-61.0384,10.4637]]]}},{"type":"Feature","properties":{"id":"TTO-54","code":"TT-SGE","name":"Sangre Grande","name_ko":"상그레그란데 지역","name_en":"Sangre Grande Regional Corporation","name_ja":"サングレ・グランド地域自治体","name_zh":"大桑格雷地区","name_es":"Sangre Grande","name_fr":"Sangre Grande","name_de":"Sangre Grande","name_ru":"Сангр-Гранде","name_pt":"Sangre Grande","name_vi":"Khu liên kết chung Sangre Grande"},"geometry":{"type":"Polygon","coordinates":[[[-61.1716,10.8039],[-61.1549,10.8165],[-61.0965,10.8234],[-61.0785,10.831],[-60.9488,10.8453],[-60.9073,10.8371],[-60.9498,10.7635],[-61.0023,10.6994],[-61.0209,10.7027],[-61.0327,10.6835],[-61.037,10.6249],[-61.0135,10.5345],[-61.0425,10.51],[-61.0384,10.4637],[-61.0953,10.4695],[-61.1971,10.4564],[-61.2166,10.4618],[-61.2102,10.5132],[-61.2211,10.5293],[-61.224,10.5715],[-61.2392,10.5914],[-61.2134,10.6035],[-61.2029,10.6176],[-61.2013,10.6321],[-61.218,10.6715],[-61.2143,10.7127],[-61.2395,10.7232],[-61.2002,10.7327],[-61.1572,10.7692],[-61.158,10.787],[-61.1716,10.8039]]]}},{"type":"Feature","properties":{"id":"TTO-50","code":"TT-ETO","name":"Eastern Tobago","name_ko":"토바고섬","name_en":"Tobago","name_ja":"トバゴ島","name_zh":"多巴哥岛","name_es":"Tobago","name_fr":"Tobago","name_de":"Tobago","name_ru":"Тобаго","name_pt":"Tobago","name_vi":"Tobago"},"geometry":{"type":"Polygon","coordinates":[[[-60.6547,11.308],[-60.5836,11.3295],[-60.5604,11.3212],[-60.5305,11.3511],[-60.5231,11.3437],[-60.5255,11.2882],[-60.533,11.2665],[-60.5504,11.2691],[-60.5565,11.2541],[-60.5851,11.2555],[-60.602,11.2314],[-60.6471,11.2042],[-60.679,11.231],[-60.7042,11.2407],[-60.6666,11.2682],[-60.647,11.2919],[-60.6547,11.308]]]}},{"type":"Feature","properties":{"id":"TTO-5090","code":"TT-WTO","name":"Western Tobago","name_ko":"토바고섬","name_en":"Tobago","name_ja":"トバゴ島","name_zh":"多巴哥岛","name_es":"Tobago","name_fr":"Tobago","name_de":"Tobago","name_ru":"Тобаго","name_pt":"Tobago","name_vi":"Tobago"},"geometry":{"type":"Polygon","coordinates":[[[-60.6471,11.2042],[-60.6813,11.2071],[-60.7595,11.1729],[-60.8033,11.1433],[-60.8104,11.1592],[-60.8254,11.1518],[-60.8393,11.1541],[-60.8475,11.164],[-60.8452,11.1791],[-60.8099,11.1907],[-60.7943,11.2166],[-60.7097,11.2713],[-60.6813,11.2965],[-60.6547,11.308],[-60.647,11.2919],[-60.6666,11.2682],[-60.7042,11.2407],[-60.679,11.231],[-60.6471,11.2042]]]}},{"type":"Feature","properties":{"id":"TTO-53","code":"TT-ARI","name":"Arima","name_ko":"아리마","name_en":"Arima","name_ja":"アリマ","name_zh":"阿里马","name_es":"Arima","name_fr":"Arima","name_de":"Arima","name_ru":"Арима","name_pt":"Arima","name_vi":"Arima"},"geometry":{"type":"Polygon","coordinates":[[[-61.2854,10.654],[-61.2713,10.6406],[-61.2655,10.6197],[-61.2698,10.6085],[-61.295,10.6121],[-61.2854,10.654]]]}}]}