{"type":"FeatureCollection","features":[{"type":"Feature","properties":{"code":"TV-X01~","name":"Tuvalu","name_ko":"투발루","name_en":"Tuvalu","name_ja":"ツバル","name_zh":"图瓦卢","name_es":"Tuvalu","name_fr":"Tuvalu","name_de":"Tuvalu","name_ru":"Тувалу","name_pt":"Tuvalu","name_vi":"Tuvalu"},"geometry":{"type":"MultiPolygon","coordinates":[[[[179.1913,-8.5421],[179.2041,-8.519],[179.1981,-8.4978],[179.1994,-8.4606],[179.2175,-8.5206],[179.1913,-8.5421]]],[[[178.3805,-8.07],[178.3733,-8.069],[178.3755,-8.0561],[178.3906,-8.0265],[178.3805,-8.07]]],[[[177.3441,-6.121],[177.3372,-6.1082],[177.3566,-6.1145],[177.3441,-6.121]]],[[[176.1353,-5.6928],[176.1253,-5.6791],[176.1404,-5.6872],[176.1484,-5.7067],[176.1353,-5.6928]]],[[[179.9067,-9.3993],[179.9053,-9.4207],[179.8986,-9.3868],[179.9067,-9.3993]]],[[[178.6828,-7.4915],[178.6652,-7.454],[178.6911,-7.4754],[178.6914,-7.4986],[178.6828,-7.4915]]]]}}]}