{"type":"FeatureCollection","features":[{"type":"Feature","properties":{"code":"UM-67","name":"Johnston Atoll","name_ko":"존스턴 환초","name_en":"Johnston Atoll","name_ja":"ジョンストン島","name_zh":"约翰斯顿环礁","name_es":"Atolón Johnston","name_fr":"Atoll Johnston","name_de":"Johnston-Atoll","name_ru":"Джонстон","name_pt":"Atol Johnston","name_vi":"Đảo Johnston"},"geometry":{"type":"MultiPolygon","coordinates":[[[[-169.5303,16.7602],[-169.5174,16.7624],[-169.5392,16.7545],[-169.5303,16.7602]]],[[[-169.5323,16.7331],[-169.5224,16.7322],[-169.5495,16.7235],[-169.5323,16.7331]]]]}},{"type":"Feature","properties":{"code":"UM-86","name":"Jarvis Island","name_ko":"자르비스 섬","name_en":"Jarvis Island","name_ja":"ジャーヴィス島","name_zh":"贾维斯岛","name_es":"Isla Jarvis","name_fr":"île Jarvis","name_de":"Jarvisinsel","name_ru":"Остров Джарвис","name_pt":"Ilha Jarvis","name_vi":"Đảo Jarvis"},"geometry":{"type":"Polygon","coordinates":[[[-160.03,-0.3762],[-160.0089,-0.3725],[-160.0124,-0.3821],[-160.0248,-0.3888],[-160.03,-0.3762]]]}},{"type":"Feature","properties":{"code":"UM-79","name":"Wake Atoll","name_ko":"웨이크섬","name_en":"Wake Island","name_ja":"ウェーク島","name_zh":"威克岛","name_es":"Isla Wake","name_fr":"Wake","name_de":"Wake","name_ru":"Уэйк","name_pt":"Ilha Wake","name_vi":"Đảo Wake"},"geometry":{"type":"Polygon","coordinates":[[[166.6194,19.2816],[166.6382,19.2864],[166.6348,19.3057],[166.6481,19.2978],[166.6524,19.2842],[166.6442,19.2756],[166.6194,19.2816]]]}},{"type":"Feature","properties":{"code":"UM-71","name":"Midway Islands","name_ko":"미드웨이 환초","name_en":"Midway Atoll","name_ja":"ミッドウェー島","name_zh":"中途岛","name_es":"Islas Midway","name_fr":"îles Midway","name_de":"Midwayinseln","name_ru":"Мидуэй","name_pt":"Atol Midway","name_vi":"Đảo san hô vòng Midway"},"geometry":{"type":"MultiPolygon","coordinates":[[[[-177.3289,28.2111],[-177.3212,28.2059],[-177.3353,28.2043],[-177.3289,28.2111]]],[[[-177.3577,28.2144],[-177.3896,28.1977],[-177.378,28.2128],[-177.3577,28.2144]]]]}},{"type":"Feature","properties":{"code":"UM-76","name":"Navassa Island","name_ko":"나배사섬","name_en":"Navassa Island","name_ja":"ナヴァッサ島","name_zh":"纳瓦萨岛","name_es":"Isla de Navaza","name_fr":"île de la Navasse","name_de":"Navassa","name_ru":"Навасса","name_pt":"Ilha de Navassa","name_vi":"Đảo Navassa"},"geometry":{"type":"Polygon","coordinates":[[[-75.0243,18.4173],[-75.007,18.4151],[-75.0032,18.3977],[-75.0178,18.3967],[-75.0308,18.4135],[-75.0243,18.4173]]]}},{"type":"Feature","properties":{"code":"UM-95","name":"Palmyra Atoll","name_ko":"팔미라 환초","name_en":"Palmyra Atoll","name_ja":"パルミラ環礁","name_zh":"巴尔米拉环礁","name_es":"Atolón Palmyra","name_fr":"atoll Palmyra","name_de":"Palmyra","name_ru":"Пальмира","name_pt":"Atol Palmyra","name_vi":"Đảo san hô Palmyra"},"geometry":{"type":"Polygon","coordinates":[[[-162.0609,5.8872],[-162.0611,5.8734],[-162.0731,5.8694],[-162.0943,5.8754],[-162.0751,5.8855],[-162.1036,5.8886],[-162.0609,5.8872]]]}}]}