{"type":"FeatureCollection","features":[{"type":"Feature","properties":{"name":"USNB, Guantanamo Bay","name_ko":"관타나모 베이 USNB","code":"-99-X13~"},"geometry":{"type":"MultiPolygon","coordinates":[[[[-75.0949,19.9716],[-75.095,19.8972],[-75.1619,19.8911],[-75.1644,19.9137],[-75.1178,19.9441],[-75.1044,19.9428],[-75.101,19.9532],[-75.1168,19.9671],[-75.1299,19.9556],[-75.1396,19.965],[-75.137,19.9716],[-75.0949,19.9716]]],[[[-75.1789,19.9707],[-75.1602,19.9706],[-75.1712,19.9575],[-75.1567,19.9389],[-75.184,19.9336],[-75.196,19.9219],[-75.209,19.9292],[-75.2179,19.9195],[-75.191,19.9063],[-75.2329,19.9001],[-75.229,19.9374],[-75.1789,19.9707]]]]}}]}