{"type":"FeatureCollection","features":[{"type":"Feature","properties":{"id":"VCT-5064","code":"VC-06","name":"Grenadines","name_ko":"그레나딘구","name_en":"Grenadines","name_ja":"グレナディーンズ郡","name_zh":"格瑞那丁区","name_es":"Granadinas","name_fr":"Grenadines","name_de":"Grenadines","name_ru":"Гренадины","name_pt":"Granadinas","name_vi":"Grenadines"},"geometry":{"type":"MultiPolygon","coordinates":[[[[-61.194,13.0369],[-61.2264,12.9932],[-61.2424,12.9822],[-61.235,12.9822],[-61.2424,12.9748],[-61.2555,12.9867],[-61.2772,12.9885],[-61.2772,12.9959],[-61.2623,12.9914],[-61.2396,12.9958],[-61.2493,13.0163],[-61.2015,13.0512],[-61.194,13.0369]]],[[[-61.4414,12.6079],[-61.4266,12.5919],[-61.4559,12.5861],[-61.4556,12.6071],[-61.4414,12.6079]]],[[[-61.3194,12.7338],[-61.3144,12.7209],[-61.3284,12.6994],[-61.3339,12.6936],[-61.3531,12.6965],[-61.334,12.7086],[-61.3354,12.7272],[-61.3194,12.7338]]],[[[-61.1918,12.8682],[-61.1832,12.8835],[-61.175,12.8818],[-61.1876,12.8564],[-61.1918,12.8682]]]]}},{"type":"Feature","properties":{"id":"VCT-5065","code":"VC-02","name":"Saint Andrew","name_ko":"세인트앤드루구","name_en":"Saint Andrew","name_ja":"セント・アンドリューズ","name_zh":"圣安德鲁区","name_es":"San Andrés","name_fr":"Saint-Andrew","name_de":"Saint Andrew","name_ru":"Сент-Андру","name_pt":"Santo André","name_vi":"Saint Andrew"},"geometry":{"type":"Polygon","coordinates":[[[-61.2379,13.1634],[-61.2714,13.1865],[-61.2198,13.2341],[-61.1989,13.2393],[-61.2002,13.2229],[-61.1928,13.2167],[-61.1989,13.2046],[-61.2379,13.1634]]]}},{"type":"Feature","properties":{"id":"VCT-5067","code":"VC-04","name":"Saint George","name_ko":"세인트조지구","name_en":"Saint George","name_ja":"セントジョージ","name_zh":"圣乔治区","name_es":"San Jorge","name_fr":"Saint-George","name_de":"Saint George","name_ru":"Сент-Джордж","name_pt":"São Jorge","name_vi":"Saint George"},"geometry":{"type":"Polygon","coordinates":[[[-61.1355,13.1978],[-61.1673,13.1461],[-61.1852,13.1325],[-61.2379,13.1634],[-61.1928,13.2167],[-61.1746,13.2032],[-61.1355,13.1978]]]}},{"type":"Feature","properties":{"id":"VCT-5063","code":"VC-01","name":"Charlotte","name_ko":"샬럿구","name_en":"Charlotte","name_ja":"シャーロット教区","name_zh":"夏洛特区","name_es":"Carlota","name_fr":"Charlotte","name_de":"Charlotte","name_ru":"Шарлотта","name_pt":"Charlottr","name_vi":"Charlotte"},"geometry":{"type":"Polygon","coordinates":[[[-61.1713,13.38],[-61.144,13.3741],[-61.1239,13.3083],[-61.1244,13.247],[-61.1355,13.1978],[-61.1746,13.2032],[-61.2002,13.2229],[-61.1877,13.2629],[-61.1746,13.2603],[-61.172,13.2734],[-61.1726,13.3226],[-61.1693,13.3409],[-61.1608,13.3422],[-61.1615,13.3553],[-61.1713,13.3593],[-61.1713,13.38]]]}},{"type":"Feature","properties":{"id":"VCT-5066","code":"VC-03","name":"Saint David","name_ko":"세인트데이비드구","name_en":"Saint David","name_ja":"セント・デイヴィッド郡","name_zh":"圣大卫区","name_es":"San David","name_fr":"Saint-David","name_de":"Saint David","name_ru":"Сент-Дейвид","name_pt":"São David","name_vi":"Saint David"},"geometry":{"type":"Polygon","coordinates":[[[-61.2684,13.2659],[-61.2629,13.2764],[-61.2704,13.2901],[-61.2434,13.2944],[-61.212,13.3689],[-61.1871,13.3804],[-61.1713,13.38],[-61.1713,13.3593],[-61.1615,13.3553],[-61.1608,13.3422],[-61.1693,13.3409],[-61.1726,13.3226],[-61.1746,13.2603],[-61.1877,13.2629],[-61.2008,13.276],[-61.2279,13.2553],[-61.2684,13.2659]]]}},{"type":"Feature","properties":{"id":"VCT-5068","code":"VC-05","name":"Saint Patrick","name_ko":"세인트패트릭구","name_en":"Saint Patrick","name_ja":"セント・パトリック教区","name_zh":"圣派屈克区","name_es":"San Patricio","name_fr":"Saint-Patrick","name_de":"Saint Patrick","name_ru":"Сент-Патрик","name_pt":"São Patrício","name_vi":"Saint Patrick"},"geometry":{"type":"Polygon","coordinates":[[[-61.2714,13.1865],[-61.2794,13.2159],[-61.2767,13.2499],[-61.2684,13.2659],[-61.2279,13.2553],[-61.2008,13.276],[-61.1877,13.2629],[-61.1989,13.2393],[-61.2198,13.2341],[-61.2714,13.1865]]]}}]}