{"type":"FeatureCollection","features":[{"type":"Feature","properties":{"id":"VIR-4870","code":"VI-X01~","name":"Saint Croix","name_ko":"생 크루아","name_en":"Saint Croix","name_ja":"セント・クロイ","name_zh":"圣克洛伊岛","name_es":"Santa Cruz","name_fr":"Sainte-Croix","name_de":"Saint Croix","name_ru":"Сент-Круа","name_pt":"Santa Cruz","name_vi":"Saint Croix"},"geometry":{"type":"Polygon","coordinates":[[[-64.5594,17.7516],[-64.5852,17.749],[-64.6705,17.7172],[-64.8952,17.6828],[-64.8878,17.6999],[-64.8877,17.7553],[-64.8765,17.7759],[-64.8387,17.7648],[-64.7955,17.7875],[-64.7716,17.7926],[-64.6898,17.7448],[-64.6669,17.7629],[-64.631,17.7703],[-64.5918,17.7683],[-64.5594,17.7585],[-64.5594,17.7516]]]}},{"type":"Feature","properties":{"id":"VIR-4869","code":"VI-X03~","name":"Saint John","name_ko":"세인트존구","name_en":"Saint John","name_ja":"セント・ジョン教区","name_zh":"圣约翰区","name_es":"Parroquia de Saint John","name_fr":"Saint-John","name_de":"Saint John","name_ru":"Сент-Джон","name_pt":"Saint John","name_vi":"Saint John"},"geometry":{"type":"Polygon","coordinates":[[[-64.701,18.343],[-64.7082,18.3401],[-64.6974,18.3265],[-64.704,18.3033],[-64.7362,18.3198],[-64.7864,18.3152],[-64.8013,18.3283],[-64.7864,18.3498],[-64.7517,18.3617],[-64.7559,18.3691],[-64.747,18.3736],[-64.6825,18.356],[-64.6646,18.3469],[-64.6604,18.3367],[-64.6741,18.3345],[-64.701,18.343]]]}},{"type":"Feature","properties":{"id":"VIR-4868","code":"VI-X02~","name":"Saint Thomas","name_ko":"세인트 토마스","name_en":"Saint Thomas","name_ja":"セント・トーマス","name_zh":"圣托马斯岛","name_es":"Santo Tomás","name_fr":"Saint Thomas","name_de":"Saint Thomas","name_ru":"Сент-Томас","name_pt":"Saint Thomas","name_vi":"Saint Thomas"},"geometry":{"type":"Polygon","coordinates":[[[-64.8716,18.3146],[-64.8788,18.3044],[-64.9219,18.3226],[-64.9308,18.3396],[-64.935,18.3305],[-64.9446,18.3367],[-64.9816,18.3356],[-64.9936,18.348],[-65.0253,18.3389],[-65.0415,18.3537],[-64.9866,18.3748],[-64.95,18.3736],[-64.935,18.3633],[-64.926,18.3662],[-64.95,18.3866],[-64.855,18.3401],[-64.8401,18.3175],[-64.8716,18.3146]]]}}]}