{"type":"FeatureCollection","features":[{"type":"Feature","properties":{"id":"WLF-4995","code":"WF-SG","name":"Sigave","name_ko":"시가베","name_en":"Sigave","name_ja":"シガベ首長国","name_zh":"锡加韦","name_es":"Sigave","name_fr":"Sigave","name_de":"Sigave","name_ru":"Сигав","name_pt":"Sigave","name_vi":"Sigave"},"geometry":{"type":"Polygon","coordinates":[[[-178.1266,-14.3131],[-178.1566,-14.3051],[-178.1752,-14.277],[-178.1857,-14.2482],[-178.178,-14.2326],[-178.1423,-14.2436],[-178.1308,-14.2555],[-178.1371,-14.289],[-178.1266,-14.3131]]]}},{"type":"Feature","properties":{"id":"WLF-4997","code":"WF-AL","name":"Alo","name_ko":"알로","name_en":"Alo","name_ja":"アロ首長国","name_zh":"阿洛","name_es":"Alo","name_fr":"Alo","name_de":"Alo","name_ru":"Ало","name_pt":"Alo","name_vi":"Alo"},"geometry":{"type":"MultiPolygon","coordinates":[[[[-178.1308,-14.2555],[-178.1051,-14.2853],[-178.0467,-14.3126],[-178.0467,-14.3194],[-178.1088,-14.3194],[-178.1266,-14.3131],[-178.1371,-14.289],[-178.1308,-14.2555]]],[[[-177.9816,-14.3439],[-177.9767,-14.348],[-178.0242,-14.3786],[-178.0677,-14.3606],[-178.0592,-14.346],[-178.0255,-14.3307],[-177.9816,-14.3439]]]]}},{"type":"Feature","properties":{"id":"WLF-4996","code":"WF-UV","name":"`Uvea","name_ko":"우베아","name_en":"Uvea","name_ja":"ウベア首長国","name_zh":"乌韦阿","name_es":"Uvea","name_fr":"Uvea","name_de":"Uvea","name_ru":"Увеа","name_pt":"Uvea","name_vi":"Uvea"},"geometry":{"type":"Polygon","coordinates":[[[-176.1555,-13.2089],[-176.1256,-13.2641],[-176.1356,-13.2848],[-176.1282,-13.2983],[-176.1445,-13.3009],[-176.1477,-13.3105],[-176.1418,-13.3359],[-176.1472,-13.3478],[-176.1595,-13.3503],[-176.1828,-13.3393],[-176.1996,-13.2906],[-176.1828,-13.2779],[-176.1902,-13.257],[-176.184,-13.2379],[-176.1555,-13.2089]]]}}]}