{"type":"FeatureCollection","features":[{"type":"Feature","properties":{"code":"-99-X17~","name":"Akrotiri","name_ko":"아크로티리","name_en":"Akrotiri","name_ja":"アクロティリ","name_zh":"阿克罗蒂里","name_es":"Acrotiri","name_fr":"Akrotiri","name_de":"Akrotiri","name_ru":"Акротири","name_pt":"Acrotíri","name_vi":"Akrotiri"},"geometry":{"type":"Polygon","coordinates":[[[32.8323,34.7009],[32.8597,34.7006],[32.8656,34.6787],[32.8845,34.6666],[32.9137,34.6603],[32.9172,34.6671],[32.9361,34.6577],[32.9547,34.6773],[32.9875,34.6734],[32.9898,34.6461],[32.9703,34.6461],[32.9656,34.6516],[32.954,34.643],[32.9556,34.6289],[32.9625,34.625],[32.9695,34.632],[33.0156,34.6344],[33.0091,34.5974],[33.0303,34.5685],[32.9409,34.5685],[32.9447,34.5937],[32.9159,34.6394],[32.9136,34.6567],[32.8343,34.671],[32.7607,34.6532],[32.7601,34.6691],[32.7668,34.6761],[32.7986,34.671],[32.806,34.6858],[32.8193,34.6876],[32.8323,34.7009]]]}}]}