{"type":"FeatureCollection","features":[{"type":"Feature","properties":{"id":"WSM-4990","code":"WS-GE","name":"Gaga'emauga","name_ko":"가가에마우가 구","name_en":"Gaga'emauga","name_ja":"ガガイーモーガ","name_zh":"加加埃毛加","name_es":"Gaga'emauga","name_fr":"Gaga'emauga","name_de":"Gaga'emauga","name_ru":"Гагаэмауга","name_pt":"Gaga'emauga","name_vi":"Gaga'emauga"},"geometry":{"type":"MultiPolygon","coordinates":[[[[-172.3662,-13.4628],[-172.3224,-13.4669],[-172.3008,-13.4765],[-172.2228,-13.5584],[-172.2972,-13.5617],[-172.311,-13.6395],[-172.4142,-13.6369],[-172.3662,-13.4628]]],[[[-171.8149,-13.8116],[-171.7923,-13.8165],[-171.7914,-13.8707],[-171.812,-13.8661],[-171.8149,-13.8116]]],[[[-171.8541,-14.0019],[-171.8756,-14.0047],[-171.8715,-13.9416],[-171.8479,-13.9437],[-171.8541,-14.0019]]]]}},{"type":"Feature","properties":{"id":"WSM-4991","code":"WS-GI","name":"Gaga'ifomauga","name_ko":"가가이포마우가 구","name_en":"Gaga'ifomauga","name_ja":"ガガイフォモーガ","name_zh":"加盖福毛加","name_es":"Gaga'ifomauga","name_fr":"Gaga'ifomauga","name_de":"Gaga'ifomauga","name_ru":"Гагаифомауга","name_pt":"Gaga'ifomauga","name_vi":"Gaga'ifomauga"},"geometry":{"type":"Polygon","coordinates":[[[-172.639,-13.5221],[-172.6153,-13.5094],[-172.5692,-13.5014],[-172.5306,-13.484],[-172.4519,-13.484],[-172.3662,-13.4628],[-172.4142,-13.6369],[-172.5787,-13.6326],[-172.6318,-13.5999],[-172.639,-13.5221]]]}},{"type":"Feature","properties":{"id":"WSM-4992","code":"WS-VS","name":"Vaisigano","name_ko":"바이시가노 구","name_en":"Vaisigano","name_ja":"ベサイガーノ","name_zh":"韦西加诺","name_es":"Vaisigano","name_fr":"Vaisigano","name_de":"Vaisigano","name_ru":"Ваисигано","name_pt":"Vaisigano","name_vi":"Vaisigano"},"geometry":{"type":"Polygon","coordinates":[[[-172.7035,-13.6166],[-172.7187,-13.6028],[-172.7256,-13.582],[-172.7497,-13.5783],[-172.7612,-13.565],[-172.7826,-13.5203],[-172.7665,-13.5105],[-172.7324,-13.5105],[-172.6951,-13.5242],[-172.639,-13.5221],[-172.6318,-13.5999],[-172.6566,-13.5846],[-172.7035,-13.6166]]]}},{"type":"Feature","properties":{"id":"WSM-4993","code":"WS-SA","name":"Satupa'itea","name_ko":"사투파이테아 구","name_en":"Satupa'itea","name_ja":"サチューパイテア","name_zh":"萨图帕伊泰阿","name_es":"Satupa'itea","name_fr":"Satupa'itea","name_de":"Satupa'itea","name_ru":"Сатупаитеа","name_pt":"Satupa'itea","name_vi":"Satupa'itea"},"geometry":{"type":"MultiPolygon","coordinates":[[[[-172.609,-13.693],[-172.633,-13.6819],[-172.6675,-13.6339],[-172.7035,-13.6166],[-172.6566,-13.5846],[-172.5787,-13.6326],[-172.609,-13.693]]],[[[-172.3184,-13.7713],[-172.3545,-13.784],[-172.391,-13.6375],[-172.3474,-13.6386],[-172.3184,-13.7713]]]]}},{"type":"Feature","properties":{"id":"WSM-4994","code":"WS-PA","name":"Palauli","name_ko":"팔라울리 구","name_en":"Palauli","name_ja":"パラウリ","name_zh":"帕劳利","name_es":"Palauli","name_fr":"Palauli","name_de":"Palauli","name_ru":"Палаули","name_pt":"Palauli","name_vi":"Palauli"},"geometry":{"type":"MultiPolygon","coordinates":[[[[-172.3545,-13.784],[-172.5232,-13.8054],[-172.5751,-13.7628],[-172.5971,-13.7006],[-172.609,-13.693],[-172.5787,-13.6326],[-172.391,-13.6375],[-172.3545,-13.784]]],[[[-172.213,-13.801],[-172.2191,-13.8054],[-172.2532,-13.8029],[-172.2976,-13.7698],[-172.3184,-13.7713],[-172.3474,-13.6386],[-172.311,-13.6395],[-172.2537,-13.7562],[-172.213,-13.801]]]]}},{"type":"Feature","properties":{"id":"WSM-4989","code":"WS-FA","name":"Fa'asaleleaga","name_ko":"파아살렐레아가 구","name_en":"Fa'asaleleaga","name_ja":"ファアセールリーガ","name_zh":"法塞莱莱阿加","name_es":"Fa'asaleleaga","name_fr":"Fa'asaleleaga","name_de":"Fa'asaleleaga","name_ru":"Фаасалелеага","name_pt":"Fa'asaleleaga","name_vi":"Fa'asaleleaga"},"geometry":{"type":"Polygon","coordinates":[[[-172.2228,-13.5584],[-172.2228,-13.5783],[-172.201,-13.5925],[-172.1903,-13.656],[-172.1756,-13.6803],[-172.1806,-13.7024],[-172.2115,-13.7446],[-172.213,-13.801],[-172.2537,-13.7562],[-172.311,-13.6395],[-172.2972,-13.5617],[-172.2228,-13.5584]]]}},{"type":"Feature","properties":{"id":"WSM-4987","code":"WS-AT","name":"Atua","name_ko":"아투아 구","name_en":"Atua","name_ja":"アトゥア","name_zh":"阿图阿","name_es":"Atua","name_fr":"Atua","name_de":"Atua","name_ru":"Атуа","name_pt":"Atua","name_vi":"Atua"},"geometry":{"type":"Polygon","coordinates":[[[-171.5676,-13.8967],[-171.5574,-13.9152],[-171.5591,-13.9254],[-171.5854,-13.9279],[-171.5923,-13.9691],[-171.558,-13.9828],[-171.5191,-13.976],[-171.4847,-13.992],[-171.4693,-13.9694],[-171.4377,-14.0061],[-171.4482,-14.0375],[-171.4407,-14.0519],[-171.5369,-14.0457],[-171.5792,-14.0495],[-171.6195,-14.0375],[-171.6358,-14.0462],[-171.6524,-14.0452],[-171.6656,-13.9302],[-171.6502,-13.8713],[-171.5852,-13.8839],[-171.5992,-13.9073],[-171.5877,-13.9096],[-171.5676,-13.8967]]]}},{"type":"Feature","properties":{"id":"WSM-4988","code":"WS-VF","name":"Va'a-o-Fonoti","name_ko":"바아오포노티 구","name_en":"Va'a-o-Fonoti","name_ja":"バア＝オ＝フォノッティ","name_zh":"瓦奥福诺蒂","name_es":"Va'a-o-Fonoti","name_fr":"Va'a-o-Fonoti","name_de":"Va'a-o-Fonoti","name_ru":"Ваа-о-Фоноти","name_pt":"Va'a-o-Fonoti","name_vi":"Va'a-o-Fonoti"},"geometry":{"type":"MultiPolygon","coordinates":[[[[-171.5852,-13.8839],[-171.5676,-13.8967],[-171.5877,-13.9096],[-171.5992,-13.9073],[-171.5852,-13.8839]]],[[[-171.5591,-13.9254],[-171.57,-13.9382],[-171.5643,-13.9494],[-171.5195,-13.9448],[-171.4693,-13.9694],[-171.4847,-13.992],[-171.5191,-13.976],[-171.558,-13.9828],[-171.5923,-13.9691],[-171.5854,-13.9279],[-171.5591,-13.9254]]]]}},{"type":"Feature","properties":{"id":"WSM-4984","code":"WS-TU","name":"Tuamasaga","name_ko":"투아마사가 구","name_en":"Tuamasaga","name_ja":"ツアマサガ","name_zh":"图阿马萨加","name_es":"Tuamasaga","name_fr":"Tuamasaga","name_de":"Tuamasaga","name_ru":"Туамасага","name_pt":"Tuamasaga","name_vi":"Tuamasaga"},"geometry":{"type":"Polygon","coordinates":[[[-171.7923,-13.8165],[-171.6502,-13.8713],[-171.6656,-13.9302],[-171.6524,-14.0452],[-171.684,-14.0375],[-171.7533,-14.0515],[-171.7681,-14.0432],[-171.7745,-14.0263],[-171.8541,-14.0019],[-171.8441,-13.9073],[-171.8532,-13.873],[-171.8579,-13.8063],[-171.8149,-13.8116],[-171.812,-13.8661],[-171.7914,-13.8707],[-171.7923,-13.8165]]]}},{"type":"Feature","properties":{"id":"WSM-4985","code":"WS-AA","name":"A'ana","name_ko":"아아나 구","name_en":"A'ana","name_ja":"アアーナ","name_zh":"阿纳","name_es":"A'ana","name_fr":"A'ana","name_de":"A'ana","name_ru":"Аана","name_pt":"A'ana","name_vi":"A'ana"},"geometry":{"type":"MultiPolygon","coordinates":[[[[-171.9926,-13.8282],[-171.9652,-13.8185],[-171.8579,-13.8063],[-171.8532,-13.873],[-171.8441,-13.9073],[-171.8479,-13.9437],[-171.8715,-13.9416],[-171.8756,-14.0047],[-171.9111,-14.0064],[-171.9266,-14.0012],[-171.941,-13.9904],[-171.9724,-13.9462],[-171.9888,-13.9494],[-172.0063,-13.925],[-172.0406,-13.9152],[-171.9722,-13.873],[-171.9926,-13.8282]]],[[[-172.0556,-13.8619],[-172.0441,-13.8464],[-172.028,-13.8407],[-172.018,-13.8638],[-172.0317,-13.8707],[-172.0556,-13.8619]]]]}},{"type":"Feature","properties":{"id":"WSM-4986","code":"WS-AL","name":"Aiga-i-le-Tai","name_ko":"아이가이레타이 구","name_en":"Aiga-i-le-Tai","name_ja":"アイガイレタイ","name_zh":"艾加伊勒泰","name_es":"Aiga-i-le-Tai","name_fr":"Aiga-i-le-Tai","name_de":"Aiga-i-le-Tai","name_ru":"Аига-и-ле-Таи","name_pt":"Aiga-i-le-Tai","name_vi":"Aiga-i-le-Tai"},"geometry":{"type":"Polygon","coordinates":[[[-172.028,-13.8407],[-171.9926,-13.8282],[-171.9722,-13.873],[-172.0406,-13.9152],[-172.061,-13.9062],[-172.0637,-13.885],[-172.0556,-13.8619],[-172.0317,-13.8707],[-172.018,-13.8638],[-172.028,-13.8407]]]}}]}